name,address,lat,lng,配管口径(mm),
鎌倉消防署第１管区1号,由比ガ浜四丁目１番１０号付近,35.310614,139.546907,450,
鎌倉消防署第１管区2号,由比ガ浜二丁目２４番２号付近,35.310935,139.547147,300,
鎌倉消防署第１管区3号,由比ガ浜二丁目２４番１６号付近,35.311032,139.547863,100,
鎌倉消防署第１管区4号,由比ガ浜二丁目２４番２３号付近,35.311595,139.54855,100,
鎌倉消防署第１管区5号,由比ガ浜二丁目２３番２５号付近,35.311923,139.54779,150,
鎌倉消防署第１管区6号,由比ガ浜二丁目１３番１０号付近,35.312921,139.548377,150,
鎌倉消防署第１管区7号,由比ガ浜二丁目１２番１２号付近,35.312828,139.549426,100,
鎌倉消防署第１管区8号,由比ガ浜二丁目１２番２０号付近,35.313271,139.550061,100,
鎌倉消防署第１管区9号,由比ガ浜二丁目１１番２６号付近,35.313733,139.548925,150,
鎌倉消防署第１管区10号,由比ガ浜二丁目１番１２号付近,35.314645,139.549502,150,
鎌倉消防署第１管区11号,由比ガ浜二丁目１０番４号付近,35.314231,139.55025,150,
鎌倉消防署第１管区12号,由比ガ浜二丁目４番４１号付近,35.31579,139.548846,100,
鎌倉消防署第１管区13号,由比ガ浜二丁目５番２２号付近,35.315722,139.547866,150,
鎌倉消防署第１管区14号,由比ガ浜二丁目６番２１号付近,35.31543,139.54686,100,
鎌倉消防署第１管区15号,由比ガ浜二丁目７番２０号付近,35.314944,139.546277,200,
鎌倉消防署第１管区16号,由比ガ浜二丁目７番２８号付近,35.314849,139.547159,200,
鎌倉消防署第１管区17号,由比ガ浜二丁目３番１１号付近,35.314726,139.548321,200,
鎌倉消防署第１管区18号,由比ガ浜二丁目９番３５号付近,35.314054,139.546616,100,
鎌倉消防署第１管区19号,由比ガ浜二丁目１４番１７号付近,35.313252,139.547184,100,
鎌倉消防署第１管区20号,由比ガ浜二丁目８番３号付近,35.314134,139.545888,100,
鎌倉消防署第１管区21号,由比ガ浜二丁目１８番２６号付近,35.313536,139.54562,100,
鎌倉消防署第１管区22号,由比ガ浜二丁目１９番５号付近,35.313092,139.545885,100,
鎌倉消防署第１管区23号,由比ガ浜二丁目１９番１４号付近,35.312466,139.545864,100,
鎌倉消防署第１管区24号,由比ガ浜二丁目２１番２４号付近,35.312114,139.546133,100,
鎌倉消防署第１管区25号,由比ガ浜二丁目１９番３０号付近,35.312536,139.545156,100,
鎌倉消防署第１管区26号,由比ガ浜二丁目２１番３号付近,35.312148,139.546969,100,
鎌倉消防署第１管区27号,由比ガ浜四丁目３番６０号付近,35.311225,139.546454,300,
鎌倉消防署第１管区28号,由比ガ浜四丁目４番６号付近,35.311034,139.545719,100,
鎌倉消防署第１管区29号,由比ガ浜四丁目３番２５号付近,35.309612,139.545039,100,
鎌倉消防署第１管区30号,由比ガ浜二丁目２０番７号付近,35.311544,139.545855,300,
鎌倉消防署第１管区31号,由比ガ浜三丁目５番９号付近,35.311832,139.544785,200,
鎌倉消防署第１管区32号,由比ガ浜四丁目４番３０号付近,35.310494,139.544218,150,
鎌倉消防署第１管区33号,由比ガ浜一丁目３番３号付近,35.315686,139.54723,200,
鎌倉消防署第１管区34号,由比ガ浜四丁目６番９号付近,35.312079,139.543636,150,
鎌倉消防署第１管区35号,由比ガ浜三丁目６番１９号付近,35.312299,139.542783,150,
鎌倉消防署第１管区36号,由比ガ浜三丁目９番１２号付近,35.31315,139.542633,100,
鎌倉消防署第１管区37号,由比ガ浜三丁目７番４１号付近,35.312823,139.543492,100,
鎌倉消防署第１管区38号,由比ガ浜三丁目７番４号付近,35.313022,139.544281,200,
鎌倉消防署第１管区39号,由比ガ浜三丁目２番２３号付近,35.314324,139.545128,100,
鎌倉消防署第１管区40号,由比ガ浜三丁目３番２０号付近,35.313957,139.543974,100,
鎌倉消防署第１管区41号,由比ガ浜三丁目９番３７号付近,35.313823,139.542706,150,
鎌倉消防署第１管区42号,由比ガ浜三丁目１１番５１号付近,35.31378,139.541715,150,
鎌倉消防署第１管区43号,由比ガ浜三丁目１１番４２号付近,35.313685,139.540683,150,
鎌倉消防署第１管区44号,由比ガ浜三丁目１２番２５号付近,35.313487,139.539495,150,
鎌倉消防署第１管区45号,由比ガ浜四丁目１０番１６号付近,35.31022,139.541344,100,
鎌倉消防署第１管区46号,由比ガ浜四丁目１０番７号付近,35.310854,139.540904,100,
鎌倉消防署第１管区47号,由比ガ浜四丁目１０番３８号付近,35.310344,139.540237,100,
鎌倉消防署第１管区48号,由比ガ浜四丁目２番１０号付近,35.309873,139.546014,100,
鎌倉消防署第１管区49号,由比ガ浜一丁目１０番９号付近,35.314684,139.545664,200,
鎌倉消防署第１管区50号,由比ガ浜二丁目２番８号付近,35.315097,139.549583,300,
鎌倉消防署第１管区51号,由比ガ浜二丁目１６番１号付近,35.312535,139.547974,300,
鎌倉消防署第２管区1号,材木座四丁目３番２７号付近,35.305659,139.551484,300,
鎌倉消防署第２管区2号,材木座六丁目３番２号付近,35.30645,139.551884,300,
鎌倉消防署第２管区3号,材木座三丁目１７番２２号付近,35.307238,139.55211,300,
鎌倉消防署第２管区4号,材木座四丁目４番３１号付近,35.308076,139.552666,150,
鎌倉消防署第２管区5号,材木座二丁目８番３１号付近,35.309216,139.552919,150,
鎌倉消防署第２管区6号,材木座二丁目８番４２付近,35.310119,139.552979,150,
鎌倉消防署第２管区7号,材木座三丁目１番１５号付近,35.31117,139.552999,300,
鎌倉消防署第２管区8号,材木座一丁目９番２付近,35.312268,139.553217,100,
鎌倉消防署第２管区9号,材木座一丁目９番１７号付近,35.311877,139.552614,150,
鎌倉消防署第２管区10号,材木座一丁目７番１７号付近,35.312446,139.551857,150,
鎌倉消防署第２管区11号,材木座一丁目１番３４号付近,35.314719,139.550949,100,
鎌倉消防署第２管区12号,材木座一丁目３番１５号付近,35.31387,139.551419,150,
鎌倉消防署第２管区13号,材木座一丁目４番１４号付近,35.313282,139.551223,150,
鎌倉消防署第２管区14号,材木座一丁目１３番４号付近,35.312062,139.550714,100,
鎌倉消防署第２管区15号,材木座一丁目６番１３号付近,35.311742,139.551364,100,
鎌倉消防署第２管区16号,材木座三丁目１番５号付近,35.311102,139.551982,300,
鎌倉消防署第２管区17号,材木座三丁目３番４０号付近,35.310964,139.550283,300,
鎌倉消防署第２管区18号,材木座一丁目１４番１２号付近,35.310871,139.549237,300,
鎌倉消防署第２管区19号,材木座三丁目４番２３号付近,35.31045,139.549057,100,
鎌倉消防署第２管区20号,材木座三丁目５番２２号付近,35.310128,139.548067,150,
鎌倉消防署第２管区21号,材木座三丁目６番２５号付近,35.309648,139.54874,300,
鎌倉消防署第２管区22号,材木座五丁目２番１３号付近,35.309031,139.546975,150,
鎌倉消防署第２管区23号,材木座五丁目６番２７号付近,35.30833,139.54727,150,
鎌倉消防署第２管区24号,材木座五丁目４番５号付近,35.309213,139.547827,150,
鎌倉消防署第２管区25号,材木座五丁目７番２６号付近,35.308613,139.548301,150,
鎌倉消防署第２管区26号,材木座五丁目８番１６号付近,35.307394,139.54853,100,
鎌倉消防署第２管区27号,材木座五丁目７番１９号付近,35.308306,139.549006,100,
鎌倉消防署第２管区28号,材木座五丁目９番１号付近,35.309102,139.549506,300,
鎌倉消防署第２管区29号,材木座三丁目７番１号付近,35.310194,139.549889,100,
鎌倉消防署第２管区30号,材木座三丁目２番３０号付近,35.310871,139.550787,150,
鎌倉消防署第２管区31号,材木座三丁目１２番９号付近,35.309896,139.551382,100,
鎌倉消防署第２管区32号,材木座三丁目１３番３４号付近,35.309231,139.551157,100,
鎌倉消防署第２管区33号,材木座三丁目１６番３８号付近,35.309298,139.551926,100,
鎌倉消防署第２管区34号,材木座三丁目１３番８付近,35.308609,139.55173,100,
鎌倉消防署第２管区35号,材木座三丁目９番２３号付近,35.309194,139.550044,100,
鎌倉消防署第２管区36号,材木座三丁目１３番１付近,35.30793,139.551171,300,
鎌倉消防署第２管区37号,材木座三丁目１０番１８号付近,35.30851,139.550363,300,
鎌倉消防署第２管区38号,材木座五丁目１０番５号付近,35.307916,139.549507,100,
鎌倉消防署第２管区39号,材木座五丁目１２番２８号付近,35.306794,139.549406,150,配管口径
鎌倉消防署第２管区40号,材木座五丁目１１番３８号付近,35.307413,139.549937,100,
鎌倉消防署第２管区41号,材木座五丁目１２番１号付近,35.306762,139.550516,100,
鎌倉消防署第２管区42号,材木座五丁目１３番３７号付近,35.306682,139.551047,150,
鎌倉消防署第２管区43号,材木座五丁目１５番７号付近,35.306107,139.550684,100,
鎌倉消防署第２管区44号,材木座一丁目１番１号付近,35.315583,139.550576,100,
鎌倉消防署第２管区45号,材木座一丁目３番３号付近,35.313528,139.552005,100,
鎌倉消防署第３管区1号,材木座二丁目１４番２６号付近,35.308345,139.558551,100,
鎌倉消防署第３管区2号,材木座二丁目１４番１７号付近,35.309146,139.558705,100,
鎌倉消防署第３管区3号,材木座二丁目１２番１５号付近,35.310028,139.558197,100,
鎌倉消防署第３管区4号,材木座二丁目４番１４付近,35.310369,139.557042,150,
鎌倉消防署第３管区5号,材木座二丁目５番９号付近,35.310613,139.55602,150,
鎌倉消防署第３管区6号,材木座二丁目６番１８号付近,35.310875,139.555014,300,
鎌倉消防署第３管区7号,材木座二丁目６番９号付近,35.311137,139.553946,300,
鎌倉消防署第３管区8号,材木座二丁目７番７号付近,35.310491,139.553769,100,
鎌倉消防署第３管区9号,材木座二丁目６番２８号付近,35.310053,139.554721,200,
鎌倉消防署第３管区10号,材木座二丁目９番１９付近,35.30936,139.555449,100,
鎌倉消防署第３管区11号,材木座四丁目１番１０号付近,35.308875,139.553931,100,
鎌倉消防署第３管区12号,材木座四丁目３番２３号付近,35.308345,139.554545,100,
鎌倉消防署第３管区13号,材木座四丁目４番１５号付近,35.307995,139.553275,200,
鎌倉消防署第３管区14号,材木座四丁目５番３号付近,35.307458,139.553966,100,
鎌倉消防署第３管区15号,材木座四丁目６番１３号付近,35.30742,139.552873,200,
鎌倉消防署第３管区16号,材木座六丁目２番１２号付近,35.306349,139.553552,200,
鎌倉消防署第３管区17号,材木座六丁目３番１５号付近,35.305962,139.552605,100,
鎌倉消防署第３管区18号,材木座六丁目４番９号付近,35.305073,139.552193,300,
鎌倉消防署第３管区19号,材木座六丁目１３番２２号付近,35.304318,139.552749,300,
鎌倉消防署第３管区20号,材木座六丁目１３番１６号付近,35.304077,139.553284,100,
鎌倉消防署第３管区21号,材木座六丁目１６番３７号付近,35.303159,139.552739,200,
鎌倉消防署第３管区22号,材木座六丁目２２番１１号付近,35.302321,139.553028,100,
鎌倉消防署第３管区23号,材木座六丁目２２番６号付近,35.301892,139.553073,100,
鎌倉消防署第３管区24号,材木座六丁目２２番２１号付近,35.301851,139.553521,150,
鎌倉消防署第３管区25号,材木座六丁目１９番１９号付近,35.30297,139.55511,75,
鎌倉消防署第３管区26号,材木座六丁目８番２０号付近,35.304868,139.553767,200,
鎌倉消防署第３管区27号,材木座六丁目８番１０号付近,35.305538,139.554344,200,
鎌倉消防署第３管区28号,材木座六丁目９番１９号付近,35.306314,139.555182,150,
鎌倉消防署第３管区29号,材木座四丁目９番１１号付近,35.307519,139.555371,100,
鎌倉消防署第３管区30号,材木座四丁目１６番６号付近,35.306385,139.556223,150,
鎌倉消防署第３管区31号,材木座四丁目１２番５号付近,35.307041,139.556807,100,
鎌倉消防署第３管区32号,材木座四丁目１６番１４号付近,35.306148,139.557146,100,
鎌倉消防署第３管区33号,材木座四丁目１６番１９号付近,35.306446,139.557431,150,
鎌倉消防署第３管区34号,材木座四丁目１３番１９号付近,35.306799,139.558001,150,
鎌倉消防署第３管区35号,材木座四丁目１５番５付近,35.307281,139.559069,100,
鎌倉消防署第３管区36号,材木座四丁目３番４号付近,35.308008,139.554304,100,
鎌倉消防署第３管区37号,材木座四丁目９番３号付近,35.306791,139.555157,100,
鎌倉消防署第３管区38号,材木座四丁目８番１６号付近,35.307735,139.555887,100,
鎌倉消防署第４管区1号,大町一丁目１番８号付近,35.315344,139.551286,100,
鎌倉消防署第４管区2号,大町二丁目２番３５号付近,35.314986,139.552198,100,
鎌倉消防署第４管区3号,大町二丁目２番３１号付近,35.314541,139.551872,100,
鎌倉消防署第４管区4号,大町二丁目２番１０号付近,35.314626,139.553312,200,
鎌倉消防署第４管区5号,大町二丁目２番１９号付近,35.314282,139.552599,100,
鎌倉消防署第４管区6号,大町二丁目３番７号付近,35.313748,139.553296,100,
鎌倉消防署第４管区7号,大町二丁目３番１４号付近,35.313712,139.552614,100,
鎌倉消防署第４管区8号,大町二丁目６番１０号付近,35.313045,139.554132,100,
鎌倉消防署第４管区9号,大町二丁目４番２０号付近,35.312744,139.55331,100,
鎌倉消防署第４管区10号,大町二丁目８番８号付近,35.314414,139.554044,200,
鎌倉消防署第４管区11号,大町二丁目８番１７付近,35.313938,139.555037,200,
鎌倉消防署第４管区12号,大町二丁目８番２３号付近,35.313222,139.554852,100,
鎌倉消防署第４管区13号,大町二丁目１１番１９号付近,35.31241,139.55529,100,
鎌倉消防署第４管区14号,大町二丁目１１番３０号付近,35.311823,139.555095,150,
鎌倉消防署第４管区15号,大町二丁目１３番２３号付近,35.312754,139.555974,150,
鎌倉消防署第４管区16号,大町二丁目１３番１号付近,35.313211,139.556417,200,
鎌倉消防署第４管区17号,大町四丁目１番５０号付近,35.31246,139.556802,100,
鎌倉消防署第４管区18号,大町四丁目３番３１号付近,35.312423,139.557249,100,
鎌倉消防署第４管区19号,大町二丁目１４番１０号付近,35.311881,139.556099,100,
鎌倉消防署第４管区20号,大町二丁目１５番１５号付近,35.31146,139.557369,100,
鎌倉消防署第４管区21号,大町五丁目２番２７号付近,35.310183,139.558347,200,
鎌倉消防署第４管区22号,大町五丁目１番１３号付近,35.309909,139.559286,200,
鎌倉消防署第４管区23号,大町五丁目８番１７号付近,35.309703,139.560521,200,
鎌倉消防署第４管区24号,大町五丁目１３番８号付近,35.3102,139.561119,100,
鎌倉消防署第４管区25号,大町五丁目１８番１３号付近,35.310254,139.562127,100,
鎌倉消防署第４管区26号,大町五丁目１２番１２号付近,35.308745,139.561166,150,
鎌倉消防署第４管区27号,大町五丁目１０番１２号付近,35.308317,139.561008,150,
鎌倉消防署第４管区28号,大町五丁目４番４２号付近,35.308751,139.559826,100,
鎌倉消防署第４管区29号,大町五丁目２番１７号付近,35.309612,139.559237,100,
鎌倉消防署第４管区30号,大町四丁目１番３０号付近,35.310796,139.557896,100,
鎌倉消防署第４管区31号,大町四丁目４番１１号付近,35.311281,139.557862,100,
鎌倉消防署第４管区32号,大町四丁目３番２６号付近,35.311936,139.557858,100,
鎌倉消防署第４管区33号,大町四丁目６番１９付近,35.311646,139.559425,100,
鎌倉消防署第４管区34号,大町四丁目５番１６付近,35.31109,139.560748,100,
鎌倉消防署第４管区35号,大町四丁目３番１７号付近,35.31255,139.558111,100,
鎌倉消防署第４管区36号,大町四丁目２－１８付近,35.31311,139.557183,100,
鎌倉消防署第４管区37号,大町三丁目５番４０付近,35.313671,139.557939,100,
鎌倉消防署第４管区38号,大町四丁目１０番１０号付近,35.314225,139.558523,100,
鎌倉消防署第４管区39号,大町四丁目８番２９号付近,35.314071,139.559535,100,
鎌倉消防署第４管区40号,大町四丁目１３番５号付近,35.314853,139.559633,100,
鎌倉消防署第４管区41号,大町四丁目１２番６号付近,35.314953,139.560746,100,
鎌倉消防署第４管区42号,大町四丁目１３番３６付近,35.313628,139.561486,100,
鎌倉消防署第４管区43号,大町五丁目１７番６号付近,35.310939,139.562496,100,
鎌倉消防署第４管区44号,大町五丁目１７番１１号付近,35.311351,139.563308,100,
鎌倉消防署第４管区45号,大町四丁目１５番１５付近,35.312948,139.561138,100,
鎌倉消防署第４管区46号,大町五丁目１８番３８号付近,35.311673,139.563859,100,
鎌倉消防署第４管区47号,大町五丁目１４番２３号付近,35.30994,139.561571,100,
鎌倉消防署第４管区48号,大町四丁目１４番１４号付近,35.314318,139.561391,100,
鎌倉消防署第５管区1号,大町一丁目９番２５号付近,35.315518,139.55332,200,
鎌倉消防署第５管区2号,大町一丁目９番１５号付近,35.315274,139.554123,100,
鎌倉消防署第５管区3号,大町一丁目６番１９号付近,35.316501,139.553311,200,
鎌倉消防署第５管区4号,大町一丁目４番２号付近,35.316307,139.552532,100,
鎌倉消防署第５管区5号,大町一丁目１２番１５号付近,35.316295,139.554162,100,
鎌倉消防署第５管区6号,大町一丁目６番１号付近,35.317013,139.553411,200,
鎌倉消防署第５管区7号,大町一丁目１７番１５号付近,35.317151,139.554396,100,
鎌倉消防署第５管区8号,大町一丁目１３番１５号付近,35.31711,139.555634,100,
鎌倉消防署第５管区9号,大町一丁目１８番１５号付近,35.317956,139.554856,100,
鎌倉消防署第５管区10号,大町一丁目１９番６号付近,35.31886,139.555029,100,
鎌倉消防署第５管区11号,大町一丁目２０番３０号付近,35.319539,139.555684,100,
鎌倉消防署第５管区12号,大町三丁目３番１０号付近,35.31396,139.557333,100,
鎌倉消防署第５管区13号,大町三丁目３番１５号付近,35.313574,139.557594,150,
鎌倉消防署第５管区14号,大町三丁目５番１１号付近,35.314311,139.557799,400,
鎌倉消防署第５管区15号,大町三丁目６番２２号付近,35.315159,139.557067,100,
鎌倉消防署第５管区16号,大町三丁目５番１８号付近,35.314629,139.558305,100,
鎌倉消防署第５管区17号,大町三丁目１６番３号付近,35.315012,139.558793,400,
鎌倉消防署第５管区18号,大町三丁目８番２８号付近,35.315272,139.559374,100,
鎌倉消防署第５管区19号,大町三丁目９番１３号付近,35.316491,139.559642,100,
鎌倉消防署第５管区20号,大町三丁目１０番８号付近,35.317513,139.559299,100,
鎌倉消防署第５管区21号,大町三丁目１５番２５号付近,35.316072,139.560161,100,
鎌倉消防署第５管区22号,大町三丁目１３番２号付近,35.316984,139.560909,100,
鎌倉消防署第５管区23号,大町三丁目１８番２６号付近,35.316366,139.561653,100,
鎌倉消防署第５管区24号,大町三丁目１５番７号付近,35.315134,139.560229,150,
鎌倉消防署第５管区25号,大町四丁目１３番２１号付近,35.315031,139.561346,150,
鎌倉消防署第５管区26号,大町三丁目２０番８号付近,35.314863,139.562436,150,
鎌倉消防署第５管区27号,大町六丁目１番１２号付近,35.314445,139.563383,150,
鎌倉消防署第５管区28号,大町六丁目２番３号付近,35.314143,139.5642,150,
鎌倉消防署第５管区29号,大町六丁目２番８号付近,35.313807,139.564741,150,
鎌倉消防署第５管区30号,大町六丁目４番２号付近,35.312948,139.564393,150,
鎌倉消防署第５管区31号,大町六丁目７番９号付近,35.316093,139.563357,100,
鎌倉消防署第５管区32号,大町六丁目９番４号付近,35.316069,139.564308,100,
鎌倉消防署第５管区33号,大町六丁目１０番７号付近,35.316795,139.564966,100,
鎌倉消防署第５管区34号,大町三丁目１２番１９号付近,35.317359,139.559626,100,
鎌倉消防署第５管区35号,大町三丁目２２番８号付近,35.317228,139.564004,100,
鎌倉消防署第５管区36号,大町一丁目１番１６号付近,35.316083,139.551052,100,
鎌倉消防署第５管区37号,大町一丁目１６番１０号付近,35.317586,139.555516,100,
鎌倉消防署第５管区38号,大町三丁目１２番５号付近,35.316935,139.559858,100,
鎌倉消防署第５管区39号,大町七丁目１６１２番２号付近,35.312708,139.565186,100,
鎌倉消防署第５管区40号,大町七丁目１５４１番４６号付近,35.313485,139.565933,100,
鎌倉消防署第５管区41号,大町七丁目１５４１番４０号付近,35.313581,139.5658,100,
鎌倉消防署第５管区42号,大町七丁目１５４１番３０号付近,35.31392,139.565628,100,
鎌倉消防署第６管区1号,小町二丁目２０番１６号付近,35.320994,139.555806,200,
鎌倉消防署第６管区2号,小町二丁目１８番９号付近,35.321536,139.554678,100,
鎌倉消防署第６管区3号,小町二丁目８番１４号付近,35.322184,139.552662,100,
鎌倉消防署第６管区4号,小町二丁目６番２６号付近,35.322606,139.551754,100,
鎌倉消防署第６管区5号,小町二丁目４番１１号付近,35.322292,139.550813,100,
鎌倉消防署第６管区6号,小町二丁目４番２号付近,35.321518,139.55077,100,
鎌倉消防署第６管区7号,小町一丁目６番２号付近,35.320519,139.55076,350,
鎌倉消防署第６管区8号,小町二丁目６番３８号付近,35.321654,139.551852,100,
鎌倉消防署第６管区9号,小町二丁目３番７号付近,35.321286,139.551511,100,
鎌倉消防署第６管区10号,小町二丁目８番７号付近,35.3216,139.552372,100,
鎌倉消防署第６管区11号,小町二丁目９番５号付近,35.320836,139.55199,100,
鎌倉消防署第６管区12号,小町二丁目１０番２３号付近,35.320057,139.551613,350,
鎌倉消防署第６管区13号,小町一丁目５番４号付近,35.319181,139.551306,100,
鎌倉消防署第６管区14号,小町一丁目４番２６号付近,35.318095,139.551088,100,
鎌倉消防署第６管区15号,小町二丁目８番２６号付近,35.321567,139.552848,100,
鎌倉消防署第６管区16号,小町二丁目９番１３号付近,35.320847,139.552436,100,
鎌倉消防署第６管区17号,小町二丁目１２番２９号付近,35.321378,139.553402,300,
鎌倉消防署第６管区18号,小町二丁目１１番１９号付近,35.320478,139.552879,300,
鎌倉消防署第６管区19号,小町二丁目１０番１９号付近,35.31972,139.552324,350,
鎌倉消防署第６管区20号,小町一丁目９番３号付近,35.319027,139.552107,150,
鎌倉消防署第６管区21号,小町一丁目１３番２０号付近,35.318014,139.551489,150,
鎌倉消防署第６管区22号,小町一丁目１３番１４号付近,35.317405,139.551138,150,
鎌倉消防署第６管区23号,小町一丁目１４番２３号付近,35.316826,139.551814,100,
鎌倉消防署第６管区24号,小町二丁目１８番２号付近,35.320778,139.554274,100,
鎌倉消防署第６管区25号,小町二丁目１６番９号付近,35.319955,139.553411,100,
鎌倉消防署第６管区26号,小町二丁目１６番３５号付近,35.319142,139.553111,100,
鎌倉消防署第６管区27号,小町一丁目９番１４号付近,35.318583,139.553033,100,
鎌倉消防署第６管区28号,小町一丁目１２番４号付近,35.317715,139.552771,100,
鎌倉消防署第６管区29号,小町一丁目１１番１０号付近,35.318107,139.553502,200,
鎌倉消防署第６管区30号,小町二丁目２３番６号付近,35.318844,139.553833,200,
鎌倉消防署第６管区31号,小町二丁目２２番１０号付近,35.319473,139.554212,200,
鎌倉消防署第６管区32号,小町二丁目２１番１２号付近,35.320256,139.555068,200,
鎌倉消防署第６管区33号,小町二丁目１５番１０号付近,35.320478,139.553126,150,
鎌倉消防署第６管区34号,小町二丁目１３番２号付近,35.321421,139.553673,150,
鎌倉消防署第６管区35号,小町一丁目４番１号付近,35.318688,139.551285,100,
鎌倉消防署第６管区36号,小町一丁目４番４号付近,35.318836,139.551802,300,
鎌倉消防署第７管区1号,御成町１３番４０号付近,35.319901,139.550308,100,
鎌倉消防署第７管区2号,御成町１番１５号付近,35.319162,139.549993,100,
鎌倉消防署第７管区3号,御成町１番１０号付近,35.318243,139.549798,100,
鎌倉消防署第７管区4号,御成町５番４４号付近,35.31743,139.549546,100,
鎌倉消防署第７管区5号,御成町４番２号付近,35.316526,139.550564,150,
鎌倉消防署第７管区6号,御成町３番９号付近,35.315805,139.550208,150,
鎌倉消防署第７管区7号,御成町７番８号付近,35.316752,139.549075,100,
鎌倉消防署第７管区8号,御成町１番２２号付近,35.316442,139.547805,100,
鎌倉消防署第７管区9号,御成町８番３４号付近,35.317552,139.548468,100,
鎌倉消防署第７管区10号,御成町１０番１８号付近,35.318208,139.548765,100,
鎌倉消防署第７管区11号,御成町１６番７号付近,35.321982,139.546583,300,
鎌倉消防署第７管区12号,御成町１５番２７号付近,35.320866,139.547779,100,
鎌倉消防署第７管区13号,扇ガ谷一丁目１番７号付近,35.320759,139.5486,300,
鎌倉消防署第７管区14号,御成町１３番１６号付近,35.320254,139.549239,150,
鎌倉消防署第７管区15号,御成町１２番１２号付近,35.319472,139.548768,100,
鎌倉消防署第７管区16号,御成町１８番１０号付近,35.3195437,139.5474279,200,
鎌倉消防署第７管区17号,御成町９番２１号付近,35.318563,139.548301,150,
鎌倉消防署第７管区18号,御成町８番２８号付近,35.317608,139.547743,150,
鎌倉消防署第７管区19号,御成町２０番３８号付近,35.317609,139.546458,100,
鎌倉消防署第７管区20号,御成町６番２０号付近,35.316734,139.547209,150,
鎌倉消防署第７管区21号,由比ガ浜一丁目４番２５号付近,35.316862,139.546152,200,
鎌倉消防署第７管区22号,由比ガ浜一丁目６番３０号付近,35.317162,139.545139,200,
鎌倉消防署第７管区23号,由比ガ浜一丁目５番１８号付近,35.316516,139.545182,100,
鎌倉消防署第７管区24号,由比ガ浜一丁目９番２４号付近,35.315629,139.545278,100,
鎌倉消防署第７管区25号,由比ガ浜一丁目１１番８号付近,35.314911,139.54472,100,
鎌倉消防署第７管区26号,由比ガ浜一丁目３番２０号付近,35.315938,139.546739,200,
鎌倉消防署第７管区27号,由比ガ浜一丁目９番３４号付近,35.316296,139.545947,100,
鎌倉消防署第７管区28号,御成町１８番１０号付近,35.319719,139.546298,200,
鎌倉消防署第８管区1号,笹目町１２番１４号付近,35.319072,139.540576,150,
鎌倉消防署第８管区2号,笹目町１１番８号付近,35.318179,139.540577,150,
鎌倉消防署第８管区3号,笹目町１０番７号付近,35.316935,139.541211,150,
鎌倉消防署第８管区4号,笹目町８番１０号付近,35.316077,139.54213,150,
鎌倉消防署第８管区5号,笹目町４番３号付近,35.315398,139.542635,150,
鎌倉消防署第８管区6号,笹目町６番２３号付近,35.314894,139.541831,150,
鎌倉消防署第８管区7号,笹目町６番３９号付近,35.314782,139.543139,150,
鎌倉消防署第８管区8号,笹目町５番３６号付近,35.314949,139.543881,200,
鎌倉消防署第８管区9号,笹目町４番２１号付近,35.315781,139.543896,200,
鎌倉消防署第８管区10号,笹目町４番９号付近,35.316013,139.542864,150,
鎌倉消防署第８管区11号,笹目町１番２１号付近,35.3167,139.543934,200,
鎌倉消防署第８管区12号,笹目町１番８号付近,35.317491,139.54401,200,
鎌倉消防署第８管区13号,佐助一丁目３番１号付近,35.318333,139.543329,100,
鎌倉消防署第８管区14号,佐助一丁目４番１６号付近,35.318673,139.544036,200,
鎌倉消防署第８管区15号,佐助一丁目１０番４号付近,35.319637,139.543341,200,
鎌倉消防署第８管区16号,佐助一丁目１２番９号付近,35.320469,139.54265,200,
鎌倉消防署第８管区17号,佐助一丁目６番６号付近,35.319792,139.545331,200,
鎌倉消防署第８管区18号,佐助一丁目８番１０号付近,35.320028,139.544169,100,
鎌倉消防署第８管区19号,佐助一丁目１２番１８号付近,35.320368,139.541701,100,
鎌倉消防署第８管区20号,佐助一丁目１７番１２号付近,35.320885,139.541283,500,
鎌倉消防署第８管区21号,佐助二丁目１番３号付近,35.321797,139.54478,300,
鎌倉消防署第８管区22号,佐助二丁目１番２１号付近,35.321779,139.542983,150,
鎌倉消防署第８管区23号,佐助二丁目５番６号付近,35.322739,139.543094,100,
鎌倉消防署第８管区24号,佐助二丁目４番１２号付近,35.322696,139.544175,100,
鎌倉消防署第８管区25号,佐助二丁目１０番７号付近,35.322527,139.541242,100,
鎌倉消防署第８管区26号,佐助二丁目１８番１６付近,35.323585,139.542929,150,
鎌倉消防署第８管区27号,佐助二丁目１４番１０号付近,35.323646,139.544053,100,
鎌倉消防署第８管区28号,佐助二丁目１６番７号付近,35.324666,139.54367,100,
鎌倉消防署第８管区29号,佐助二丁目２０番１１号付近,35.32417,139.541619,100,
鎌倉消防署第８管区30号,佐助二丁目２５番７号付近,35.325091,139.541694,100,
鎌倉消防署第８管区31号,佐助二丁目２２番８号付近,35.324283,139.540759,100,
鎌倉消防署第８管区32号,佐助一丁目１９番６号付近,35.32181,139.540993,100,
鎌倉消防署第８管区33号,笹目町３番５号付近,35.317668,139.543341,100,
鎌倉消防署第８管区34号,佐助一丁目１８番２１号付近,35.321035,139.5404,200,
鎌倉消防署第８管区35号,佐助一丁目１０番２０号付近,35.319336,139.542153,100,
鎌倉消防署第９管区1号,扇ガ谷一丁目１番２９号付近,35.320992,139.5497,300,
鎌倉消防署第９管区2号,扇ガ谷一丁目７番２２号付近,35.321256,139.548755,100,
鎌倉消防署第９管区3号,扇ガ谷一丁目６番１０号付近,35.3218,139.547473,100,
鎌倉消防署第９管区4号,扇ガ谷一丁目４番１３号付近,35.322583,139.546429,100,
鎌倉消防署第９管区5号,扇ガ谷一丁目８番１６号付近,35.321905,139.550186,150,
鎌倉消防署第９管区6号,扇ガ谷一丁目９番１４号付近,35.322683,139.550482,150,
鎌倉消防署第９管区7号,扇ガ谷一丁目１３番１４号付近,35.322967,139.549024,100,
鎌倉消防署第９管区8号,扇ガ谷一丁目１４番１３号付近,35.324076,139.550509,150,
鎌倉消防署第９管区9号,扇ガ谷二丁目２番１５号付近,35.324586,139.550722,200,
鎌倉消防署第９管区10号,扇ガ谷一丁目１６番３号付近,35.325392,139.549892,75,
鎌倉消防署第９管区11号,扇ガ谷一丁目１６番３号付近,35.325516,139.549892,150,
鎌倉消防署第９管区12号,扇ガ谷四丁目１番３号付近,35.326357,139.54912,150,
鎌倉消防署第９管区13号,扇ガ谷四丁目４番１３号付近,35.326696,139.547811,75,
鎌倉消防署第９管区14号,扇ガ谷四丁目５番８号付近,35.327379,139.548226,150,
鎌倉消防署第９管区15号,扇ガ谷四丁目５番２２号付近,35.327184,139.546937,100,
鎌倉消防署第９管区16号,扇ガ谷四丁目８番２１号付近,35.326487,139.546465,100,
鎌倉消防署第９管区17号,扇ガ谷四丁目８番１７号付近,35.325962,139.546358,100,
鎌倉消防署第９管区18号,扇ガ谷四丁目１６番６号付近,35.327717,139.547071,150,
鎌倉消防署第９管区19号,扇ガ谷四丁目２２番５号付近,35.328686,139.546719,100,
鎌倉消防署第９管区20号,扇ガ谷四丁目２３番９号付近,35.329451,139.546448,100,
鎌倉消防署第９管区21号,扇ガ谷四丁目１６番２２号付近,35.32847,139.545763,100,
鎌倉消防署第９管区22号,扇ガ谷三丁目７番１２号付近,35.328436,139.550314,150,
鎌倉消防署第９管区23号,扇ガ谷三丁目５番９号付近,35.327786,139.549828,150,
鎌倉消防署第９管区24号,扇ガ谷三丁目２番１８号付近,35.327031,139.549263,150,
鎌倉消防署第９管区25号,扇ガ谷三丁目２番３号付近,35.327468,139.550427,100,
鎌倉消防署第９管区26号,扇ガ谷二丁目９番８号付近,35.326432,139.54982,150,
鎌倉消防署第９管区27号,扇ガ谷二丁目１０番９号付近,35.325573,139.550541,150,
鎌倉消防署第９管区28号,扇ガ谷二丁目１７番１２号付近,35.325969,139.551562,150,
鎌倉消防署第９管区29号,扇ガ谷二丁目１８番８号付近,35.326468,139.552459,150,
鎌倉消防署第９管区30号,扇ガ谷二丁目２４番付近,35.326823,139.553246,150,
鎌倉消防署第９管区31号,扇ガ谷二丁目１３番１５号付近,35.3255,139.552031,100,
鎌倉消防署第９管区32号,扇ガ谷四丁目１５番１７号付近,35.327,139.545989,100,
鎌倉消防署第９管区33号,扇ガ谷四丁目１４番６号付近,35.326327,139.545104,100,
鎌倉消防署第９管区34号,扇ガ谷四丁目１番１２号付近,35.325797,139.54871,100,
鎌倉消防署第９管区35号,扇ガ谷三丁目５番５号付近,35.327794,139.549408,100,
腰越出張所第１管区1号,腰越四丁目８番１号付近,35.311135,139.497127,100,
腰越出張所第１管区2号,腰越四丁目３番１０号付近,35.310854,139.495665,400,
腰越出張所第１管区3号,腰越四丁目２番１０号付近,35.310465,139.49643,300,
腰越出張所第１管区4号,腰越三丁目３４番１８号付近,35.310011,139.494904,300,
腰越出張所第１管区5号,腰越三丁目３４番１５号付近,35.310178,139.495087,100,
腰越出張所第１管区6号,腰越四丁目３番４号付近,35.31039,139.495175,100,
腰越出張所第１管区7号,腰越三丁目３３番７号付近,35.310731,139.494784,150,
腰越出張所第１管区8号,腰越五丁目１２番３号付近,35.31133,139.495159,100,
腰越出張所第１管区9号,腰越五丁目１３番２８号付近,35.311829,139.495962,100,
腰越出張所第１管区10号,津西二丁目１番２号付近,35.312887,139.496856,100,
腰越出張所第１管区11号,腰越四丁目１１番２０号付近,35.312306,139.497168,200,
腰越出張所第１管区12号,腰越四丁目１１番１０号付近,35.311618,139.497916,200,
腰越出張所第１管区13号,腰越四丁目１２番２号付近,35.313581,139.498096,100,
腰越出張所第１管区14号,津西二丁目１０番１０号付近,35.316898,139.49682,150,
腰越出張所第１管区15号,津西二丁目１１番２０号付近,35.317077,139.496077,150,
腰越出張所第１管区16号,津西二丁目１１番３号付近,35.316674,139.496682,150,
腰越出張所第１管区17号,津西二丁目１３番１３号付近,35.316824,139.495168,75,
腰越出張所第１管区18号,津西二丁目１４番２０号付近,35.316487,139.495395,100,
腰越出張所第１管区19号,津西二丁目１１番１号付近,35.316253,139.496167,100,
腰越出張所第１管区20号,津西二丁目１１番１号付近,35.315668,139.496641,100,
腰越出張所第１管区21号,津西二丁目１５番４号付近,35.315933,139.494975,100,
腰越出張所第１管区22号,腰越五丁目１９番１１号付近,35.314863,139.495332,150,
腰越出張所第１管区23号,腰越五丁目１５番４２号付近,35.313317,139.495627,150,
腰越出張所第１管区24号,津西二丁目２１番３３号付近,35.314943,139.493647,150,
腰越出張所第１管区25号,腰越五丁目９番２４号付近,35.313388,139.493048,200,
腰越出張所第１管区26号,腰越五丁目９番１５号付近,35.312663,139.493165,200,
腰越出張所第１管区27号,腰越五丁目１０番６号付近,35.31203,139.493328,200,
腰越出張所第１管区28号,腰越五丁目１１番１０号付近,35.311007,139.493638,150,
腰越出張所第１管区29号,腰越三丁目２８番４号付近,35.311053,139.493187,150,
腰越出張所第１管区30号,腰越五丁目５番１号付近,35.311858,139.492805,100,
腰越出張所第１管区31号,腰越五丁目５番１４付近,35.311083,139.492295,150,
腰越出張所第１管区32号,腰越五丁目４番２３号付近,35.31106,139.49104,150,
腰越出張所第１管区33号,腰越三丁目１９番７号付近,35.310555,139.49121,100,
腰越出張所第１管区34号,腰越三丁目２０番１６号付近,35.309855,139.490783,200,
腰越出張所第１管区35号,腰越三丁目１４番５号付近,35.310173,139.490264,100,
腰越出張所第１管区36号,腰越三丁目１５番９号付近,35.310406,139.490036,200,
腰越出張所第１管区37号,腰越三丁目１４番２３号付近,35.309853,139.489419,100,
腰越出張所第１管区38号,腰越三丁目９番６号付近,35.308891,139.489563,100,
腰越出張所第１管区39号,腰越三丁目５番１３号付近,35.309095,139.490067,100,
腰越出張所第１管区40号,腰越三丁目８番１５号付近,35.30942,139.490148,100,
腰越出張所第１管区41号,腰越三丁目７番２３号付近,35.309492,139.491269,100,
腰越出張所第１管区42号,腰越三丁目６番７号付近,35.308672,139.49116,100,
腰越出張所第１管区43号,腰越三丁目６番１号付近,35.309272,139.49172,200,
腰越出張所第１管区44号,腰越三丁目２番１８号付近,35.308982,139.492074,100,
腰越出張所第１管区45号,腰越三丁目２３番２号付近,35.308692,139.492601,200,
腰越出張所第１管区46号,腰越三丁目２４番９号付近,35.309094,139.493503,300,
腰越出張所第１管区47号,腰越三丁目２３番１０号付近,35.309278,139.492709,100,
腰越出張所第１管区48号,腰越三丁目２８番２８号付近,35.30996,139.492339,100,
腰越出張所第１管区49号,腰越三丁目２９番１５号付近,35.309952,139.493176,100,
腰越出張所第１管区50号,腰越三丁目３１番９号付近,35.309683,139.494011,300,
腰越出張所第１管区51号,腰越五丁目１９番２３号付近,35.314,139.495695,150,
腰越出張所第１管区52号,津西二丁目４番４９号付近,35.313092,139.497145,100,
腰越出張所第１管区53号,腰越五丁目８番１１号付近,35.314313,139.4936,150,
腰越出張所第１管区54号,腰越三丁目２８番１５号付近,35.310556,139.493317,100,
腰越出張所第１管区55号,津西二丁目１７番１２号付近,35.31563,139.495357,150,
腰越出張所第１管区56号,津西二丁目７番７号付近,35.315297,139.497495,100,
腰越出張所第１管区57号,津西二丁目１７番２４号付近,35.315329,139.496386,100,
腰越出張所第１管区58号,腰越五丁目５番３１号付近,35.312194,139.491829,100,
腰越出張所第１管区59号,腰越五丁目１５番３０号付近,35.313968,139.494963,100,
腰越出張所第１管区60号,腰越五丁目１５番１１号付近,35.31289,139.495509,100,
腰越出張所第１管区61号,津西二丁目５番４９号付近,35.314758,139.496865,100,
腰越出張所第１管区62号,津西二丁目２１番１号付近,35.315952,139.494572,100,
腰越出張所第１管区63号,腰越三丁目１番７号付近,35.30828,139.491781,100,
腰越出張所第１管区64号,腰越三丁目１８番１２号付近,35.310999,139.491858,100,
腰越出張所第２管区1号,腰越一丁目１６番１４号付近,35.31087,139.498293,150,
腰越出張所第２管区2号,腰越二丁目３３番１０号付近,35.310528,139.497536,150,
腰越出張所第２管区3号,腰越二丁目３０番２４号付近,35.310153,139.496622,150,
腰越出張所第２管区4号,腰越二丁目３０番１６号付近,35.309806,139.496151,150,
腰越出張所第２管区5号,腰越二丁目３０番１０号付近,35.309436,139.496122,100,
腰越出張所第２管区6号,腰越二丁目２５番７号付近,35.309439,139.494356,100,
腰越出張所第２管区7号,腰越二丁目１８番４号付近,35.308629,139.494145,100,
腰越出張所第２管区8号,腰越二丁目１４番１２号付近,35.308086,139.493399,150,
腰越出張所第２管区9号,腰越二丁目１０番１３号付近,35.307503,139.493067,100,
腰越出張所第２管区10号,腰越二丁目５番８号付近,35.307429,139.494158,150,
腰越出張所第２管区11号,腰越二丁目５番２号付近,35.307392,139.494676,100,
腰越出張所第２管区12号,腰越二丁目９番１１号付近,35.307101,139.493452,100,
腰越出張所第２管区13号,腰越二丁目６番１０号付近,35.306907,139.493937,100,
腰越出張所第２管区14号,腰越二丁目７番２号付近,35.306017,139.494189,100,
腰越出張所第２管区15号,腰越二丁目１番５号付近,35.306618,139.495231,150,
腰越出張所第２管区16号,腰越一丁目５番３３号付近,35.30669,139.496428,150,
腰越出張所第２管区17号,腰越一丁目４番１７号付近,35.306792,139.49735,150,
腰越出張所第２管区18号,腰越一丁目４番５号付近,35.30672,139.498192,150,
腰越出張所第２管区19号,腰越一丁目３番１３号付近,35.306663,139.498904,150,
腰越出張所第２管区20号,腰越一丁目１番２５号付近,35.306645,139.50055,150,
腰越出張所第２管区21号,腰越一丁目１番２１号付近,35.306567,139.502003,150,
腰越出張所第２管区22号,腰越一丁目１０番３１号付近,35.307376,139.498516,100,
腰越出張所第２管区23号,腰越一丁目１０番３６号付近,35.3073,139.499287,100,
腰越出張所第２管区24号,腰越一丁目１０番４８号付近,35.307776,139.499634,100,
腰越出張所第２管区25号,腰越一丁目１２番５付近,35.308224,139.499301,150,
腰越出張所第２管区26号,腰越一丁目９番１９号付近,35.307905,139.498668,100,
腰越出張所第２管区27号,腰越一丁目１１番１７号付近,35.30851,139.498603,100,
腰越出張所第２管区28号,腰越一丁目１１番２７号付近,35.308876,139.498352,100,
腰越出張所第２管区29号,腰越一丁目１１番３３号付近,35.308682,139.499163,150,
腰越出張所第２管区30号,腰越一丁目１７番３２号付近,35.308892,139.499621,150,
腰越出張所第２管区31号,腰越一丁目１７番２１号付近,35.309454,139.499383,150,
腰越出張所第２管区32号,腰越一丁目１７番１８号付近,35.309871,139.499136,100,
腰越出張所第２管区33号,腰越一丁目１７番２付近,35.310556,139.499352,150,
腰越出張所第２管区34号,腰越一丁目１４番１９号付近,35.309963,139.499971,200,
腰越出張所第２管区35号,腰越一丁目２番２６号付近,35.308799,139.501216,200,
腰越出張所第２管区36号,腰越一丁目２番２０号付近,35.307825,139.501947,200,
腰越出張所第２管区37号,腰越一丁目９番２号付近,35.3083694,139.4979794
七里ガ浜出張所第１管区1号,七里ガ浜二丁目１８番１７号付近,35.306911,139.502775,150,
七里ガ浜出張所第１管区2号,七里ガ浜二丁目１９番１１号付近,35.306637,139.503805,100,
七里ガ浜出張所第１管区3号,七里ガ浜二丁目１９番４号付近,35.306532,139.504901,100,
七里ガ浜出張所第１管区4号,七里ガ浜二丁目１８番１２号付近,35.306967,139.503645,150,
七里ガ浜出張所第１管区5号,七里ガ浜二丁目１８番５号付近,35.306894,139.50467,100,
七里ガ浜出張所第１管区6号,七里ガ浜二丁目１８番１号付近,35.307148,139.504952,150,
七里ガ浜出張所第１管区7号,七里ガ浜二丁目９番２４号付近,35.30745,139.505889,100,
七里ガ浜出張所第１管区8号,七里ガ浜二丁目９番５号付近,35.307556,139.506765,100,
七里ガ浜出張所第１管区9号,七里ガ浜二丁目８番１１号付近,35.306887,139.506949,100,
七里ガ浜出張所第１管区10号,七里ガ浜二丁目８番１８号付近,35.30703,139.507761,100,
七里ガ浜出張所第１管区11号,七里ガ浜二丁目８番４号付近,35.307645,139.507531,100,
七里ガ浜出張所第１管区12号,七里ガ浜二丁目１６番１号付近,35.308407,139.505759,100,
七里ガ浜出張所第１管区13号,七里ガ浜二丁目５番１４号付近,35.309038,139.506439,100,
七里ガ浜出張所第１管区14号,七里ガ浜二丁目１３番４号付近,35.308418,139.506642,150,
七里ガ浜出張所第１管区15号,七里ガ浜二丁目６番２０号付近,35.308527,139.507569,200,
七里ガ浜出張所第１管区16号,七里ガ浜二丁目２番１２号付近,35.308138,139.507988,100,
七里ガ浜出張所第１管区17号,七里ガ浜二丁目４番９号付近,35.308706,139.509394,200,
七里ガ浜出張所第１管区18号,七里ガ浜二丁目１番４２号付近,35.308,139.508837,100,
七里ガ浜出張所第１管区19号,七里ガ浜二丁目１番６号付近,35.307501,139.509527,100,
七里ガ浜出張所第１管区20号,七里ガ浜一丁目８番６号付近,35.306891,139.509139,100,
七里ガ浜出張所第１管区21号,七里ガ浜一丁目５番２１号付近,35.306018,139.506742,150,
七里ガ浜出張所第１管区22号,七里ガ浜一丁目４番２７号付近,35.305969,139.50805,150,
七里ガ浜出張所第１管区23号,七里ガ浜一丁目３番７号付近,35.305971,139.508991,150,
七里ガ浜出張所第１管区24号,七里ガ浜一丁目８番６号付近,35.306923,139.509373,150,
七里ガ浜出張所第１管区25号,七里ガ浜一丁目１０番１１号付近,35.307148,139.509989,150,
七里ガ浜出張所第１管区26号,七里ガ浜一丁目１１番６号付近,35.308873,139.510734,150,
七里ガ浜出張所第１管区27号,七里ガ浜一丁目１３番１１号付近,35.309757,139.510511,200,
七里ガ浜出張所第１管区28号,七里ガ浜一丁目１３番１号付近,35.309525,139.509512,200,
七里ガ浜出張所第１管区29号,七里ガ浜一丁目１番１８号付近,35.306246,139.510428,150,
七里ガ浜出張所第１管区30号,七里ガ浜一丁目１１番１６号付近,35.308294,139.51027,150,
腰越出張所第２管区67号,腰越二丁目２６番１７号付近,35.30968,139.495478,150,
腰越出張所第２管区68号,腰越一丁目６番１６号付近,35.307841,139.497,100,
腰越出張所第２管区69号,腰越一丁目５番３号付近,35.307418,139.496088,100,
腰越出張所第２管区70号,腰越二丁目１９番１８号付近,35.30862,139.495308,100,
腰越出張所第２管区71号,腰越二丁目２２番２号付近,35.308535,139.49662,100,
腰越出張所第２管区72号,腰越二丁目８番９号付近,35.30652,139.494507,100,
腰越出張所第２管区73号,腰越二丁目１３番２号付近,35.308391,139.492951,100,
腰越出張所第２管区74号,腰越二丁目１０番２６号付近,35.307633,139.493895,100,
腰越出張所第２管区75号,腰越二丁目１番１０号付近,35.306947,139.49476,150,
腰越出張所第２管区76号,腰越二丁目３４番１号付近,35.310313,139.498446,100,
腰越出張所第２管区77号,腰越二丁目３４番２２号付近,35.309295,139.497614,100,
腰越出張所第２管区78号,腰越二丁目３４番３８号付近,35.308998,139.497797,100,
七里ガ浜出張所第１管区31号,七里ガ浜一丁目１０番３７号付近,35.307497,139.510662,100,
腰越出張所第２管区80号,腰越一丁目５番１７号付近,35.30756,139.497669,100,
七里ガ浜出張所第１管区32号,七里ガ浜一丁目２０番２５号付近,35.306552,139.510972,150,
七里ガ浜出張所第１管区33号,七里ガ浜一丁目１９番１１号付近,35.307442,139.511294,150,
七里ガ浜出張所第１管区34号,七里ガ浜一丁目１８番３０号付近,35.30828,139.511417,150,
七里ガ浜出張所第１管区35号,七里ガ浜一丁目１８番１９号付近,35.309294,139.511727,200,
七里ガ浜出張所第１管区36号,七里ガ浜一丁目１７番１３号付近,35.310428,139.512109,150,
七里ガ浜出張所第２管区1号,七里ガ浜東二丁目２８番８号付近,35.308395,139.511795,150,
七里ガ浜出張所第２管区2号,七里ガ浜東二丁目１６番７号付近,35.307294,139.511797,250,
七里ガ浜出張所第２管区3号,七里ガ浜東二丁目２６番８号付近,35.308063,139.512682,100,
七里ガ浜出張所第２管区4号,七里ガ浜東二丁目１３番４号付近,35.307376,139.513094,100,
七里ガ浜出張所第２管区5号,七里ガ浜東二丁目１１番５付近,35.306666,139.51383,100,
七里ガ浜出張所第２管区6号,七里ガ浜東二丁目１０番１号付近,35.306355,139.51476,150,
七里ガ浜出張所第２管区7号,七里ガ浜東二丁目３番１付近,35.305744,139.514372,150,
七里ガ浜出張所第２管区8号,七里ガ浜東二丁目３番１付近,35.305286,139.514112,150,
七里ガ浜出張所第２管区9号,七里ガ浜東二丁目３番１付近,35.304616,139.513749,150,
七里ガ浜出張所第２管区10号,七里ガ浜東二丁目１０番５号付近,35.307109,139.514855,150,
七里ガ浜出張所第２管区11号,七里ガ浜東二丁目２１番１６号付近,35.307759,139.51514,100,
七里ガ浜出張所第２管区12号,七里ガ浜東二丁目２２番１２号付近,35.308076,139.515321,100,
七里ガ浜出張所第２管区13号,七里ガ浜東二丁目２４番１号付近,35.307953,139.513973,250,
七里ガ浜出張所第２管区14号,七里ガ浜東二丁目３４番５号付近,35.308764,139.514454,250,
七里ガ浜出張所第２管区15号,七里ガ浜東二丁目２３番９号付近,35.308965,139.513339,100,
七里ガ浜出張所第２管区16号,七里ガ浜東二丁目２８番１号付近,35.309209,139.512511,100,
七里ガ浜出張所第２管区17号,七里ガ浜東二丁目３９番１号付近,35.309623,139.513986,100,
七里ガ浜出張所第２管区18号,七里ガ浜東二丁目３３番３号付近,35.309009,139.515302,100,
七里ガ浜出張所第２管区19号,七里ガ浜東四丁目２番１２号付近,35.30943,139.516119,100,
七里ガ浜出張所第２管区20号,七里ガ浜東一丁目３番１５号付近,35.308975,139.516538,100,
七里ガ浜出張所第２管区21号,七里ガ浜東三丁目１番３３号付近,35.309145,139.516977,150,
七里ガ浜出張所第２管区22号,七里ガ浜東三丁目２番４号付近,35.308621,139.51741,100,
七里ガ浜出張所第２管区23号,七里ガ浜東三丁目６番６号付近,35.3086,139.518445,100,
七里ガ浜出張所第２管区24号,七里ガ浜東三丁目４番２２号付近,35.30932,139.518869,100,
七里ガ浜出張所第２管区25号,七里ガ浜東三丁目５番７号付近,35.309953,139.517446,150,
七里ガ浜出張所第２管区26号,七里ガ浜東三丁目７番１０号付近,35.310561,139.517814,200,
七里ガ浜出張所第２管区27号,七里ガ浜東三丁目９番１号付近,35.309988,139.519295,100,
七里ガ浜出張所第２管区28号,七里ガ浜東三丁目１２番６号付近,35.310967,139.518943,200,
七里ガ浜出張所第２管区29号,七里ガ浜東三丁目１１番１号付近,35.311402,139.517854,100,
七里ガ浜出張所第２管区30号,七里ガ浜東三丁目１４番５号付近,35.311635,139.519343,100,
七里ガ浜出張所第２管区31号,七里ガ浜東三丁目１６番１号付近,35.311678,139.520252,150,
七里ガ浜出張所第２管区32号,七里ガ浜東三丁目１５番１２号付近,35.312297,139.518836,200,
七里ガ浜出張所第２管区33号,七里ガ浜東三丁目１８番６号付近,35.312641,139.519967,100,
七里ガ浜出張所第２管区34号,七里ガ浜東三丁目１９番２号付近,35.31272,139.520897,200,
七里ガ浜出張所第２管区35号,七里ガ浜東三丁目２０番６号付近,35.313558,139.519125,150,
七里ガ浜出張所第２管区36号,七里ガ浜東三丁目２０番１１号付近,35.313381,139.520018,100,
七里ガ浜出張所第２管区37号,七里ガ浜東三丁目２２番１２号付近,35.313142,139.521539,100,
七里ガ浜出張所第２管区38号,七里ガ浜東三丁目２４番１５号付近,35.313988,139.520721,250,
七里ガ浜出張所第２管区39号,七里ガ浜東三丁目２６番１６号付近,35.313969,139.522358,100,
七里ガ浜出張所第２管区40号,七里ガ浜東三丁目２７番７号付近,35.314736,139.523293,100,
七里ガ浜出張所第２管区41号,七里ガ浜東三丁目２４番８号付近,35.314271,139.519649,250,
七里ガ浜出張所第２管区42号,七里ガ浜東三丁目２５番２６号付近,35.314594,139.521098,150,
七里ガ浜出張所第２管区43号,七里ガ浜東三丁目２５番５号付近,35.314541,139.522302,150,
七里ガ浜出張所第２管区44号,七里ガ浜東五丁目１２番１２号付近,35.315111,139.520042,100,
七里ガ浜出張所第２管区45号,七里ガ浜東五丁目１３番２４号付近,35.315376,139.520307,100,
七里ガ浜出張所第２管区46号,七里ガ浜東五丁目１３番１２号付近,35.315574,139.520555,100,
七里ガ浜出張所第２管区47号,七里ガ浜東四丁目３７番１３号付近,35.314426,139.518304,100,
七里ガ浜出張所第２管区48号,七里ガ浜東五丁目１０番１２号付近,35.314731,139.517731,100,
七里ガ浜出張所第２管区49号,七里ガ浜東四丁目３５番１６号付近,35.313976,139.516695,200,
七里ガ浜出張所第２管区50号,七里ガ浜東四丁目３３番９号付近,35.313929,139.517569,250,
七里ガ浜出張所第２管区51号,七里ガ浜東四丁目３２番１６号付近,35.313276,139.518429,100,
七里ガ浜出張所第２管区52号,七里ガ浜東四丁目２３番１号付近,35.31229,139.517855,100,
七里ガ浜出張所第２管区53号,七里ガ浜東四丁目３０番６号付近,35.31302,139.517032,250,
七里ガ浜出張所第２管区54号,七里ガ浜東四丁目２８番８号付近,35.313315,139.515757,200,
七里ガ浜出張所第２管区55号,七里ガ浜東四丁目２４番８号付近,35.312692,139.51615,100,
七里ガ浜出張所第２管区56号,七里ガ浜東四丁目２７番６号付近,35.312442,139.515226,150,
七里ガ浜出張所第２管区57号,七里ガ浜東四丁目１７番１０号付近,35.311902,139.515473,100,
七里ガ浜出張所第２管区58号,七里ガ浜東四丁目２１番４号付近,35.311829,139.516776,100,
七里ガ浜出張所第２管区59号,七里ガ浜東四丁目１４番５付近,35.311081,139.516463,100,
七里ガ浜出張所第２管区60号,七里ガ浜東四丁目１３番１号付近,35.310615,139.516861,100,
七里ガ浜出張所第２管区61号,七里ガ浜東四丁目７番１号付近,35.310555,139.515521,300,
七里ガ浜出張所第２管区62号,七里ガ浜東四丁目６番８号付近,35.310317,139.514881,100,
七里ガ浜出張所第２管区63号,七里ガ浜東四丁目１０番２号付近,35.311054,139.514924,100,
七里ガ浜出張所第２管区64号,七里ガ浜東四丁目１９番１１号付近,35.311574,139.514342,150,
七里ガ浜出張所第２管区65号,七里ガ浜東四丁目１１番９号付近,35.310879,139.513892,150,
七里ガ浜出張所第２管区66号,七里ガ浜東二丁目３８番１８号付近,35.310188,139.513076,150,
七里ガ浜出張所第２管区67号,七里ガ浜東五丁目１番付近,35.311053,139.513049,100,
七里ガ浜出張所第２管区68号,七里ガ浜東五丁目１番２３号付近,35.311889,139.513392,100,
七里ガ浜出張所第２管区69号,七里ガ浜東五丁目２番２３号付近,35.312532,139.513552,100,
七里ガ浜出張所第２管区70号,七里ガ浜東五丁目５番１号付近,35.312901,139.512288,100,
七里ガ浜出張所第２管区71号,七里ガ浜東五丁目４番２２号付近,35.313554,139.512667,100,
七里ガ浜出張所第２管区72号,七里ガ浜東五丁目７番付近,35.313011,139.514388,100,
七里ガ浜出張所第２管区73号,七里ガ浜東五丁目９番５０号付近,35.314038,139.516014,100,
七里ガ浜出張所第２管区74号,七里ガ浜東五丁目１１番９号付近,35.314902,139.519346,100,
七里ガ浜出張所第２管区75号,七里ガ浜東二丁目８番１７号付近,35.306818,139.512023,100,
七里ガ浜出張所第１管区37号,七里ガ浜一丁目１６番２０号付近,35.310472,139.511301,100,
七里ガ浜出張所第２管区76号,七里ガ浜東五丁目４番３６付近,35.313175,139.513607,100,
七里ガ浜出張所第３管区38号,稲村ガ崎五丁目１番９号付近,35.309409,139.523291,200,
七里ガ浜出張所第３管区39号,稲村ガ崎五丁目４番４号付近,35.310468,139.523731,200,
七里ガ浜出張所第３管区40号,稲村ガ崎五丁目７番１号付近,35.31127,139.523732,100,
七里ガ浜出張所第３管区41号,稲村ガ崎五丁目７番２０号付近,35.311733,139.523481,200,
七里ガ浜出張所第３管区42号,稲村ガ崎五丁目３９番２号付近,35.312533,139.524067,100,
七里ガ浜出張所第３管区43号,稲村ガ崎五丁目３６番８号付近,35.312621,139.522935,150,
七里ガ浜出張所第３管区44号,稲村ガ崎五丁目７番１６号付近,35.311872,139.522892,100,
七里ガ浜出張所第３管区45号,稲村ガ崎五丁目３３番１１号付近,35.312177,139.52209,100,
七里ガ浜出張所第３管区46号,稲村ガ崎五丁目３４番６号付近,35.312431,139.521634,200,
七里ガ浜出張所第３管区47号,稲村ガ崎五丁目３１番６号付近,35.311851,139.520898,100,
七里ガ浜出張所第３管区48号,稲村ガ崎五丁目３２番７号付近,35.311626,139.521274,100,
七里ガ浜出張所第３管区49号,稲村ガ崎五丁目８番４号付近,35.311575,139.522241,100,
七里ガ浜出張所第３管区50号,稲村ガ崎五丁目２５番３８号付近,35.310479,139.522955,100,
七里ガ浜出張所第３管区51号,稲村ガ崎五丁目２５番１８号付近,35.310765,139.522348,100,
七里ガ浜出張所第３管区52号,稲村ガ崎五丁目２６番１号付近,35.31071,139.52174,100,
七里ガ浜出張所第３管区53号,稲村ガ崎五丁目２８番５号付近,35.310978,139.520899,100,
七里ガ浜出張所第３管区54号,稲村ガ崎五丁目２０番８号付近,35.310548,139.52005,100,
七里ガ浜出張所第３管区55号,稲村ガ崎五丁目２１番５号付近,35.310509,139.520109,100,
七里ガ浜出張所第３管区56号,稲村ガ崎五丁目２２番５号付近,35.310363,139.520492,100,
七里ガ浜出張所第３管区57号,稲村ガ崎五丁目１５番２１号付近,35.310163,139.520928,100,
七里ガ浜出張所第３管区58号,稲村ガ崎五丁目１３番１４号付近,35.309902,139.521559,100,
七里ガ浜出張所第３管区59号,稲村ガ崎五丁目１３番２０号付近,35.309024,139.521623,100,
七里ガ浜出張所第３管区60号,稲村ガ崎五丁目１７番７号付近,35.309237,139.52033,100,
七里ガ浜出張所第３管区61号,稲村ガ崎五丁目１８番８号付近,35.309563,139.519549,100,
七里ガ浜出張所第３管区62号,稲村ガ崎五丁目１２番７号付近,35.309847,139.522111,100,
腰越出張所第４管区1号,津１０３７番地２５付近,35.317862,139.507258,100,
腰越出張所第４管区2号,腰越１５８８番地１１３付近,35.317703,139.508326,100,
腰越出張所第４管区3号,腰越１５９０番地９付近,35.317909,139.509038,200,
腰越出張所第４管区4号,腰越１１４７番地４付近,35.317594,139.509953,200,
腰越出張所第４管区5号,津１１４７番地５４付近,35.317188,139.51011,100,
腰越出張所第４管区6号,津１１５１番地５付近,35.316753,139.511496,100,
腰越出張所第４管区7号,津１１５１番地１付近,35.31739,139.511621,100,
腰越出張所第４管区8号,津１１４７番地４２付近,35.317155,139.511176,150,
腰越出張所第４管区9号,津１１４７番地２１付近,35.317867,139.510688,150,
腰越出張所第４管区10号,腰越１５８８番地２０付近,35.318389,139.510051,150,
腰越出張所第４管区11号,津１０３９番地２１付近,35.319262,139.509338,150,
腰越出張所第４管区12号,腰越１５８８番地２５付近,35.318613,139.50908,100,
腰越出張所第４管区13号,腰越１５７０番地１５付近,35.318464,139.508226,100,
腰越出張所第４管区14号,腰越１５８７番地１９付近,35.319158,139.508275,100,
腰越出張所第４管区15号,津１０４０番地１８付近,35.319574,139.508516,150,
腰越出張所第４管区16号,津１０５０番地１８付近,35.319268,139.507474,150,
腰越出張所第４管区17号,腰越１５８２番地１５付近,35.318745,139.506792,100,
腰越出張所第４管区18号,腰越１５８５番地８付近,35.318619,139.50742,100,
腰越出張所第４管区19号,腰越１５８２番地２８付近,35.318262,139.506206,100,
腰越出張所第４管区20号,津１０５０番地１９０付近,35.318935,139.506138,150,
腰越出張所第４管区21号,津１０５０番地３１付近,35.319025,139.504854,150,
腰越出張所第４管区22号,津１０５０番地２１付近,35.319325,139.505359,100,
腰越出張所第４管区23号,津１０５０番地４６付近,35.31927,139.506191,100,
腰越出張所第４管区24号,津１０５０番地１１付近,35.319605,139.507465,100,
腰越出張所第４管区25号,津１０５０番地１２２付近,35.320168,139.508333,100,
腰越出張所第４管区26号,津１０４０番地６付近,35.320823,139.508296,100,
腰越出張所第４管区27号,津１０５０番地１０６付近,35.320246,139.507453,100,
腰越出張所第４管区28号,津１０５０番地８２付近,35.319676,139.506566,100,
腰越出張所第４管区29号,腰越１３７８番地３付近,35.32021,139.506355,150,
腰越出張所第４管区30号,津１０５０番地１０５付近,35.320651,139.50771,100,
腰越出張所第４管区31号,腰越１３３０番地１０１付近,35.32195,139.509536,100,
腰越出張所第４管区32号,津１０６９番地２６３付近,35.322175,139.510148,100,
腰越出張所第４管区33号,津１０６９番地２６２付近,35.321642,139.511285,100,
腰越出張所第４管区34号,津１０６９番地２５１付近,35.321718,139.510544,150,
腰越出張所第４管区35号,腰越１３３０番地１８１付近,35.321516,139.509893,100,
腰越出張所第４管区36号,腰越１３３０番地１８６付近,35.320911,139.510495,100,
腰越出張所第４管区37号,腰越１３３０番地４１付近,35.320825,139.511004,100,
腰越出張所第４管区38号,腰越１３３０番地３２付近,35.320125,139.511191,150,
腰越出張所第４管区39号,腰越１３３０番地２６付近,35.319857,139.511859,100,
腰越出張所第４管区40号,腰越１３３０番地１８付近,35.319123,139.511515,100,
腰越出張所第４管区41号,腰越１５２７番地５付近,35.318225,139.512259,100,
腰越出張所第４管区42号,腰越１５２７番地１３付近,35.318583,139.511446,100,
腰越出張所第４管区43号,腰越１３３０番地付近,35.319053,139.510587,150,
腰越出張所第４管区44号,津１０６９番地２２７付近,35.320704,139.511644,150,
腰越出張所第４管区45号,津１０６９番地２７７付近,35.319978,139.512272,150,
腰越出張所第４管区46号,腰越１３３０番地２付近,35.319497,139.512785,100,
腰越出張所第４管区47号,津１０６９番地３５４付近,35.318709,139.513526,100,
腰越出張所第４管区48号,腰越１５３１番地１９付近,35.318723,139.512745,100,
腰越出張所第４管区49号,腰越１５３１番地３６付近,35.319094,139.512133,150,
腰越出張所第４管区50号,腰越１３３０番地１２４付近,35.319987,139.509652,150,
腰越出張所第４管区51号,腰越１３３０番地５５付近,35.319713,139.509344,100,
腰越出張所第４管区52号,腰越１３３０番地１１５付近,35.320582,139.509615,100,
腰越出張所第４管区53号,腰越１３３０番地２３７付近,35.320977,139.508826,150,
腰越出張所第４管区54号,腰越１３３０番地９０付近,35.321892,139.508649,200,
腰越出張所第４管区55号,津１０５０番地１６５付近,35.318587,139.505682,100,
腰越出張所第５管区1号,西鎌倉一丁目２０番３５号付近,35.319251,139.504258,150,
腰越出張所第５管区2号,西鎌倉一丁目２０番２２号付近,35.319812,139.505477,150,
腰越出張所第５管区3号,西鎌倉一丁目２０番１０号付近,35.320656,139.506343,150,
腰越出張所第５管区4号,西鎌倉一丁目２１番１８号付近,35.321701,139.50655,200,
腰越出張所第５管区5号,西鎌倉一丁目１番５号付近,35.322945,139.506631,200,
腰越出張所第５管区6号,津１０６９番地２１５付近,35.323044,139.507212,200,
腰越出張所第５管区7号,津１０６９番地２００付近,35.322065,139.507063,100,
腰越出張所第５管区8号,津１０６９番地１８６付近,35.322371,139.507958,200,
腰越出張所第５管区9号,手広７０３番地２５付近,35.323289,139.509545,150,
腰越出張所第５管区10号,津１０６９番地付近,35.323392,139.508042,150,
腰越出張所第５管区12号,西鎌倉二丁目２番４号付近,35.322895,139.505708,100,
腰越出張所第５管区13号,西鎌倉二丁目１５番１号付近,35.32334,139.505902,200,
腰越出張所第５管区14号,西鎌倉二丁目１４番８号付近,35.324191,139.504961,150,
腰越出張所第５管区15号,西鎌倉二丁目１３番６号付近,35.323934,139.504828,100,
腰越出張所第５管区16号,西鎌倉二丁目１３番１９号付近,35.323108,139.504651,200,
腰越出張所第５管区17号,西鎌倉二丁目１３番１０号付近,35.324424,139.504378,150,
腰越出張所第５管区18号,西鎌倉二丁目１１番７号付近,35.323883,139.503893,100,
腰越出張所第５管区19号,西鎌倉二丁目１８番２６号付近,35.325047,139.503126,100,
腰越出張所第５管区20号,西鎌倉二丁目１１番１４号付近,35.324648,139.503231,150,
腰越出張所第５管区21号,西鎌倉二丁目１０番１号付近,35.32293,139.503663,200,
腰越出張所第５管区22号,西鎌倉二丁目９番８号付近,35.323758,139.502982,100,
腰越出張所第５管区23号,西鎌倉二丁目９番１４号付近,35.324496,139.502335,150,
腰越出張所第５管区24号,西鎌倉二丁目９番２６号付近,35.322784,139.502842,200,
腰越出張所第５管区25号,西鎌倉二丁目４番７号付近,35.322199,139.501825,100,
腰越出張所第５管区26号,西鎌倉二丁目５番２４号付近,35.322386,139.500685,200,
腰越出張所第５管区27号,西鎌倉二丁目６番１号付近,35.322576,139.501659,200,
腰越出張所第５管区28号,西鎌倉二丁目７番７号付近,35.323585,139.501941,100,
腰越出張所第５管区29号,西鎌倉二丁目１８番１８号付近,35.324806,139.501886,100,
腰越出張所第５管区30号,西鎌倉二丁目７番１５号付近,35.324327,139.501379,150,
腰越出張所第５管区31号,西鎌倉二丁目５番８号付近,35.323389,139.500854,100,
腰越出張所第５管区32号,西鎌倉二丁目５番１３号付近,35.3241,139.500161,150,
腰越出張所第５管区33号,西鎌倉四丁目１３番８号付近,35.3232,139.499972,100,
腰越出張所第５管区34号,西鎌倉四丁目１１番１１号付近,35.323481,139.498847,150,
腰越出張所第５管区35号,西鎌倉四丁目１１番１号付近,35.322085,139.499699,200,
腰越出張所第５管区36号,西鎌倉四丁目１０番７号付近,35.322684,139.498839,100,
腰越出張所第５管区37号,西鎌倉四丁目１０番１２号付近,35.322992,139.49803,100,
腰越出張所第５管区38号,西鎌倉四丁目８番６号付近,35.322099,139.498274,300,
腰越出張所第５管区39号,西鎌倉四丁目２番３２号付近,35.321575,139.498902,200,
腰越出張所第５管区40号,西鎌倉四丁目８番１２号付近,35.322318,139.497394,300,
腰越出張所第５管区41号,西鎌倉四丁目６番１号付近,35.321249,139.498326,100,
腰越出張所第５管区42号,西鎌倉四丁目５番６号付近,35.321297,139.497308,250,
腰越出張所第５管区43号,西鎌倉四丁目４番９号付近,35.320416,139.498056,100,
腰越出張所第５管区44号,西鎌倉四丁目４番１６号付近,35.319854,139.49761,250,
腰越出張所第５管区45号,西鎌倉四丁目２番１６号付近,35.319462,139.498255,250,
腰越出張所第５管区46号,西鎌倉四丁目１８番２２号付近,35.31859,139.497524,100,
腰越出張所第５管区47号,西鎌倉四丁目１８番１９付近,35.317572,139.497191,100,
腰越出張所第５管区48号,西鎌倉四丁目２０番４付近,35.317459,139.495936,100,
腰越出張所第５管区49号,西鎌倉三丁目３番２７号付近,35.317891,139.49835,150,
腰越出張所第５管区50号,西鎌倉三丁目３番３３号付近,35.318637,139.498587,150,
腰越出張所第５管区51号,西鎌倉三丁目２番２０号付近,35.319969,139.499004,150,
腰越出張所第５管区52号,西鎌倉三丁目５番８号付近,35.318641,139.499432,150,
腰越出張所第５管区53号,西鎌倉三丁目６番９号付近,35.319517,139.499619,100,
腰越出張所第５管区54号,西鎌倉三丁目２番２８号付近,35.321041,139.499589,200,
腰越出張所第５管区55号,西鎌倉三丁目７番５号付近,35.320362,139.499823,150,
腰越出張所第５管区56号,西鎌倉三丁目７番１５号付近,35.319107,139.500131,150,
腰越出張所第５管区57号,西鎌倉三丁目９番１３号付近,35.319673,139.500893,100,
腰越出張所第５管区58号,西鎌倉三丁目１０番７号付近,35.320663,139.501052,100,
腰越出張所第５管区59号,西鎌倉三丁目１０番１号付近,35.321415,139.500847,100,
腰越出張所第５管区60号,西鎌倉三丁目１番６号付近,35.321622,139.499861,100,
腰越出張所第５管区61号,西鎌倉一丁目１８番１６号付近,35.319806,139.502078,150,
腰越出張所第５管区62号,西鎌倉一丁目７番８号付近,35.320844,139.502305,100,
腰越出張所第５管区63号,西鎌倉一丁目４番２３号付近,35.321858,139.502565,200,
腰越出張所第５管区64号,西鎌倉一丁目３番９号付近,35.322384,139.50332,100,
腰越出張所第５管区65号,西鎌倉一丁目９番１２号付近,35.320098,139.503449,100,
腰越出張所第５管区66号,西鎌倉一丁目１０番６号付近,35.321066,139.503674,150,
腰越出張所第５管区67号,西鎌倉一丁目１１番１号付近,35.321999,139.503911,100,
腰越出張所第５管区68号,西鎌倉一丁目１２番１５号付近,35.320287,139.504434,150,
腰越出張所第５管区69号,西鎌倉一丁目１２番８号付近,35.321271,139.504572,100,
腰越出張所第５管区70号,西鎌倉一丁目２番１３号付近,35.322273,139.504824,200,
腰越出張所第５管区71号,西鎌倉一丁目１５番５号付近,35.321613,139.505526,150,
腰越出張所第５管区72号,西鎌倉一丁目２番２０号付近,35.322528,139.506185,150,
腰越出張所第５管区73号,西鎌倉一丁目１９番５号付近,35.319887,139.504888,100,
腰越出張所第５管区74号,西鎌倉一丁目２０番５３付近,35.321002,139.505461,100,
腰越出張所第５管区75号,西鎌倉一丁目２１番１８号付近,35.321719,139.506203,100,
腰越出張所第５管区76号,津１０４０番地付近,35.320249,139.506141,100,
腰越出張所第５管区77号,手広７０３番地２２付近,35.323826,139.509013,150,
腰越出張所第５管区78号,津１０６９番地１６１付近,35.322884,139.508489,100,
腰越出張所第５管区79号,津１０６９番地２１６付近,35.322213,139.509015,100,
腰越出張所第５管区80号,腰越１３９５番地５付近,35.322782,139.509732,100,
腰越出張所第５管区81号,西鎌倉四丁目３番１５号付近,35.318446,139.497954,250,
腰越出張所第５管区82号,西鎌倉四丁目２番６号付近,35.320732,139.498713,100,
腰越出張所第６管区1号,津６２７番地２付近,35.312034,139.498978,400,
腰越出張所第６管区2号,津３９９番地付近,35.311258,139.498966,100,
腰越出張所第６管区3号,腰越７９１番地４付近,35.312033,139.500159,100,
腰越出張所第６管区4号,腰越８７６番地２付近,35.313118,139.500273,200,
腰越出張所第６管区5号,腰越８６０番地付近,35.312563,139.501051,100,
腰越出張所第６管区6号,腰越８３９番地付近,35.311687,139.501942,100,
腰越出張所第６管区7号,腰越８３２番地付近,35.310754,139.502708,100,
腰越出張所第６管区8号,津６２０番地付近,35.313931,139.501041,150,
腰越出張所第６管区9号,津西一丁目５番２１号付近,35.31469,139.501033,150,
腰越出張所第６管区10号,津西一丁目６番９号付近,35.315172,139.501871,150,
腰越出張所第６管区11号,津西一丁目２４番２２号付近,35.316435,139.499773,100,
腰越出張所第６管区12号,津西一丁目２４番２８号付近,35.316783,139.499239,100,
腰越出張所第６管区13号,津西一丁目１９番３３号付近,35.316855,139.498385,100,
腰越出張所第６管区14号,津西一丁目２２番９号付近,35.315992,139.498861,100,
腰越出張所第６管区15号,津７０９番地１付近,35.317098,139.503255,150,
腰越出張所第６管区16号,津西一丁目１０番１５号付近,35.318038,139.503305,150,
腰越出張所第６管区17号,津西一丁目１０番８号付近,35.318522,139.503585,150,
腰越出張所第６管区18号,腰越９３３番地１付近,35.316312,139.504111,200,
腰越出張所第６管区19号,腰越９１３番地付近,35.31544,139.503278,200,
腰越出張所第６管区20号,腰越９０７番地付近,35.314766,139.502763,200,
腰越出張所第６管区21号,津６７０番地２付近,35.313902,139.50195,200,
腰越出張所第６管区22号,津５９１番地５付近,35.313276,139.502358,100,
腰越出張所第６管区23号,津６０２番地１９０付近,35.312791,139.503446,100,
腰越出張所第６管区24号,津６０３番地１０付近,35.312158,139.504001,100,
腰越出張所第６管区25号,津６０２番地１０３付近,35.311401,139.504381,100,
腰越出張所第６管区26号,津６０２番地１３６付近,35.311851,139.504799,150,
腰越出張所第６管区27号,津６０２番地１６７付近,35.311245,139.505267,150,
腰越出張所第６管区28号,津６０２番地５６付近,35.31222,139.505538,200,
腰越出張所第６管区29号,津５５４番地２付近,35.312476,139.504872,150,
腰越出張所第６管区30号,津６０２番地１５５付近,35.312927,139.503933,150,
腰越出張所第６管区31号,津６０２番地付近,35.313303,139.503089,150,
腰越出張所第６管区32号,津６０２番地１２２付近,35.31316,139.504555,100,
腰越出張所第６管区33号,津６０２番地３０付近,35.313114,139.505398,200,
腰越出張所第６管区34号,津１６７７番地７５付近,35.313897,139.505544,100,
腰越出張所第６管区35号,津６０１番地１３７付近,35.313773,139.504802,100,
腰越出張所第６管区36号,津６０１番地１０付近,35.314176,139.503153,100,
腰越出張所第６管区37号,津６０１番地付近,35.313826,139.502769,200,
腰越出張所第６管区38号,津６０１番地８３付近,35.314735,139.503501,200,
腰越出張所第６管区39号,津６０１番地４４付近,35.314401,139.504832,200,
腰越出張所第６管区40号,腰越１６７３番地２６付近,35.314986,139.503849,100,
腰越出張所第６管区41号,腰越１６７７番地４２付近,35.314798,139.504655,100,
腰越出張所第６管区42号,腰越１６７７番地５７付近,35.315292,139.504911,150,
腰越出張所第６管区43号,腰越１６７７番地２１付近,35.314966,139.505717,150,
腰越出張所第６管区44号,腰越１６２４番地１付近,35.315664,139.505403,150,
腰越出張所第６管区45号,津１１０１番地７０付近,35.316762,139.504358,100,
腰越出張所第６管区46号,津１０３５番地６付近,35.317356,139.504362,100,
腰越出張所第６管区47号,津１１０１番地４７付近,35.317002,139.505123,150,
腰越出張所第６管区48号,津１１０１番地３８付近,35.316714,139.50577,100,
腰越出張所第６管区49号,津１１０１番地３５付近,35.316987,139.506139,150,
腰越出張所第６管区50号,津１０３５番地１８付近,35.3178554,139.5051774,150,
腰越出張所第６管区51号,腰越１５９８番地１２付近,35.317382,139.50583,100,
腰越出張所第６管区52号,津１０３７番地４４付近,35.3176149,139.5064832,150,
腰越出張所第６管区53号,津１０３７番地付近,35.3172026,139.5068475,100,
腰越出張所第６管区54号,津１１０１番地１２付近,35.3168455,139.5072175,200,
腰越出張所第６管区55号,津１１０１番地５付近,35.31622,139.506973,100,
腰越出張所第６管区56号,腰越１７１８番地１９付近,35.316413,139.507763,100,
腰越出張所第６管区57号,津１０３７番地１５付近,35.317477,139.507573,200,
腰越出張所第６管区59号,津１１４７番地６１付近,35.31693,139.509728,100,
腰越出張所第６管区60号,津１１４７番地７８付近,35.316439,139.510888,150,
腰越出張所第６管区61号,津１１４７番地３５付近,35.315987,139.510108,150,
腰越出張所第６管区62号,腰越１７１６番地２８付近,35.316307,139.509457,100,
腰越出張所第６管区63号,腰越１５９６番地１１付近,35.316645,139.508496,150,
腰越出張所第６管区64号,腰越１７１８番地９５付近,35.315874,139.508178,100,
腰越出張所第６管区65号,腰越１７１８番地１０４付近,35.315669,139.509144,150,
腰越出張所第６管区66号,腰越１７１８番地４９付近,35.315378,139.507993,100,
腰越出張所第６管区67号,津６０１番地１１１付近,35.31423,139.502672,100,
腰越出張所第６管区68号,津１１１７番地３付近,35.3164,139.505914,100,
腰越出張所第６管区69号,腰越１６５１番地２０付近,35.315824,139.506864,100,
腰越出張所第６管区70号,津西一丁目２番１５号付近,35.313086,139.498974,100,
腰越出張所第６管区71号,津５１３番地１付近,35.309037,139.501781,100,
腰越出張所第６管区72号,津５１３番地１付近,35.309776,139.502014,100,
腰越出張所第６管区73号,津西一丁目１９番２５号付近,35.317367,139.499039,100,
腰越出張所第６管区74号,津１１１３番地６付近,35.31648,139.50508,100,
腰越出張所第６管区75号,腰越１６３６番地９付近,35.316027,139.505804,100,
腰越出張所第６管区76号,腰越１６４３番地２１付近,35.315451,139.506759,100,
腰越出張所第６管区77号,腰越１６７９番地１０付近,35.315304,139.507459,100,
腰越出張所第６管区78号,津１１２５番地３付近,35.31487,139.507049,100,
腰越出張所第６管区79号,腰越１６５４番地２３付近,35.315257,139.506357,100,
腰越出張所第６管区80号,津５１５番地１２付近,35.3105,139.500717,100,
腰越出張所第６管区81号,津５３３番地１５付近,35.311171,139.501329,100,
腰越出張所第６管区82号,津５３３番地６付近,35.310684,139.501757,100,
腰越出張所第６管区83号,津５３３番地付近,35.310562,139.501308,100,
腰越出張所第６管区84号,津５１５番地４４付近,35.31007,139.501175,100,
腰越出張所第６管区85号,腰越７５７番地１付近,35.310051,139.500781,100,
腰越出張所第６管区86号,津西一丁目１７番４号付近,35.318102,139.499524,100,
腰越出張所第６管区87号,津西一丁目１６番３０号付近,35.317972,139.50054,100,
腰越出張所第６管区88号,津西一丁目１６番３４号付近,35.318773,139.500822,100,
腰越出張所第６管区89号,津西一丁目１６番２２号付近,35.319082,139.501446,100,
腰越出張所第６管区90号,津西一丁目１６番３号付近,35.318523,139.501471,100,
腰越出張所第６管区91号,津西一丁目１６番１０号付近,35.317692,139.500894,100,
腰越出張所第６管区92号,津西一丁目１４番１１号付近,35.317405,139.500528,100,
腰越出張所第６管区93号,津西一丁目１５番２２号付近,35.317573,139.501261,100,
腰越出張所第６管区94号,津西一丁目１５番１８号付近,35.318228,139.501693,100,
腰越出張所第６管区95号,津西一丁目１５番３号付近,35.317836,139.501856,100,
腰越出張所第６管区96号,津西一丁目１５番８号付近,35.317071,139.501254,100,
腰越出張所第６管区97号,津西一丁目１３番１４号付近,35.3169012,139.5020967,100,
腰越出張所第６管区98号,津４７３番地２０付近,35.311205,139.499679,100,
深沢出張所第１管区1号,寺分二丁目２９番１号付近,35.337715,139.525229,150,
深沢出張所第１管区2号,寺分二丁目２７番１４号付近,35.337778,139.524572,150,
深沢出張所第１管区3号,寺分二丁目２４番１２付近,35.336788,139.5239,100,
深沢出張所第１管区4号,寺分二丁目２４番３付近,35.336681,139.5247,150,
深沢出張所第１管区5号,寺分二丁目２１番４号付近,35.336938,139.525576,150,
深沢出張所第１管区6号,寺分二丁目２１番１号付近,35.33685,139.526148,100,
深沢出張所第１管区7号,寺分二丁目１９番１号付近,35.336386,139.526607,100,
深沢出張所第１管区8号,寺分二丁目１９番６号付近,35.33607,139.525768,150,
深沢出張所第１管区9号,寺分二丁目２３番９号付近,35.335809,139.524881,150,
深沢出張所第１管区10号,寺分二丁目１１番１２号付近,35.335103,139.524258,100,
深沢出張所第１管区11号,寺分二丁目１２番８号付近,35.334844,139.524975,150,
深沢出張所第１管区12号,寺分二丁目８番５号付近,35.334267,139.524962,100,
深沢出張所第１管区13号,寺分二丁目１４番９号付近,35.335098,139.525884,200,
深沢出張所第１管区14号,寺分二丁目１５番５号付近,35.33558,139.526389,100,
深沢出張所第１管区15号,寺分二丁目１４番２号付近,35.335423,139.527024,200,
深沢出張所第１管区16号,寺分二丁目５番４号付近,35.3349,139.526381,100,
深沢出張所第１管区17号,寺分二丁目２番８号付近,35.334563,139.527571,150,
深沢出張所第１管区18号,寺分二丁目３番５号付近,35.334292,139.526515,150,
深沢出張所第１管区19号,寺分三丁目４番５号付近,35.333671,139.526671,100,
深沢出張所第１管区20号,寺分三丁目２４番１号付近,35.333453,139.527467,150,
深沢出張所第１管区21号,寺分三丁目６番６号付近,35.333273,139.525941,150,
深沢出張所第１管区22号,寺分二丁目６番８号付近,35.334096,139.525613,150,
深沢出張所第１管区23号,寺分二丁目１０番３号付近,35.333748,139.524722,150,
深沢出張所第１管区24号,寺分三丁目９番８号付近,35.333163,139.524408,150,
深沢出張所第１管区25号,寺分三丁目２２番７号付近,35.332967,139.525422,150,
深沢出張所第１管区26号,寺分三丁目２３番９号付近,35.332884,139.526566,150,
深沢出張所第１管区27号,寺分三丁目２３番１３号付近,35.332787,139.527471,150,
深沢出張所第１管区28号,寺分三丁目２９番５号付近,35.332033,139.52883,200,
深沢出張所第１管区29号,寺分三丁目２３番１８号付近,35.332158,139.527604,150,
深沢出張所第１管区30号,寺分三丁目１９番４号付近,35.332302,139.526494,150,
深沢出張所第１管区31号,寺分三丁目２１番１０号付近,35.332624,139.525991,100,
深沢出張所第１管区32号,寺分三丁目１１番１３号付近,35.332503,139.524646,150,
深沢出張所第１管区33号,寺分三丁目１０番８号付近,35.332698,139.523797,150,
深沢出張所第１管区34号,寺分三丁目１２番１０号付近,35.332045,139.52368,150,
深沢出張所第１管区35号,寺分三丁目１８番５号付近,35.332078,139.52549,100,
深沢出張所第１管区36号,寺分三丁目１７番１３号付近,35.331708,139.526605,200,
深沢出張所第１管区37号,梶原二丁目３番１５号付近,35.331354,139.525437,200,
深沢出張所第１管区38号,寺分三丁目１５番２３号付近,35.331252,139.524692,200,
深沢出張所第１管区39号,寺分三丁目１４番１０号付近,35.331513,139.52384,100,
深沢出張所第１管区40号,寺分三丁目１４番１９号付近,35.331797,139.523818,100,
深沢出張所第１管区41号,寺分三丁目１４番２号付近,35.331234,139.523651,200,
深沢出張所第１管区42号,梶原二丁目４番１２号付近,35.330722,139.524909,150,
深沢出張所第１管区43号,梶原二丁目１０番１５号付近,35.329854,139.524726,100,
深沢出張所第１管区44号,梶原二丁目１０番８号付近,35.329512,139.524866,100,
深沢出張所第１管区45号,梶原二丁目１１番３号付近,35.32996,139.525739,100,
深沢出張所第１管区46号,梶原二丁目４番７号付近,35.330849,139.525822,150,
深沢出張所第１管区47号,梶原二丁目５番６号付近,35.331134,139.526925,150,
深沢出張所第１管区48号,梶原二丁目５番２号付近,35.331488,139.527591,150,
深沢出張所第１管区49号,梶原二丁目１番６号付近,35.331642,139.528498,200,
深沢出張所第１管区50号,梶原二丁目１５番１５号付近,35.331061,139.529028,100,
深沢出張所第１管区51号,梶原二丁目１５番６号付近,35.330324,139.528061,150,
深沢出張所第１管区52号,梶原二丁目１９番１９号付近,35.330781,139.527243,150,
深沢出張所第１管区53号,梶原二丁目７番５号付近,35.330651,139.526819,100,
深沢出張所第１管区54号,梶原二丁目２２番７号付近,35.329292,139.526339,100,
深沢出張所第１管区55号,梶原二丁目２２番１２号付近,35.329255,139.527203,100,
深沢出張所第１管区56号,梶原二丁目２１番８号付近,35.328618,139.525813,150,
深沢出張所第１管区57号,梶原二丁目２５番３号付近,35.327919,139.52566,150,
深沢出張所第１管区58号,常盤３５５番地１７号付近,35.326886,139.523979,100,
深沢出張所第１管区59号,常盤２７４番地３号付近,35.328369,139.522152,200,
深沢出張所第１管区60号,常盤２０８番地付近,35.32952,139.52086,100,
深沢出張所第１管区61号,常盤２０６番地付近,35.330026,139.520928,200,
深沢出張所第１管区62号,常盤１３７番地４号付近,35.330465,139.519802,200,
深沢出張所第１管区63号,常盤１５０番地３号付近,35.329895,139.519718,150,
深沢出張所第１管区64号,笛田三丁目１６番１号付近,35.330088,139.5187156,150,
深沢出張所第１管区65号,常盤８９番地付近,35.330399,139.517722,400,
深沢出張所第１管区66号,常盤６０番地付近,35.33106,139.517996,150,
深沢出張所第１管区67号,常盤１３５番地付近,35.330636,139.519295,150,
深沢出張所第１管区68号,梶原一丁目１０番２号付近,35.331025,139.519761,150,
深沢出張所第１管区69号,常盤７４番地付近,35.331923,139.518374,100,
深沢出張所第１管区70号,梶原一丁目１０番１６号付近,35.332434,139.519681,100,
深沢出張所第１管区71号,梶原一丁目３番６号付近,35.333059,139.519882,100,
深沢出張所第１管区72号,梶原一丁目３番１３号付近,35.333332,139.520478,100,
深沢出張所第１管区73号,寺分一丁目１４番１１号付近,35.334238,139.520961,150,
深沢出張所第１管区74号,寺分一丁目１６番９号付近,35.334514,139.52196,100,
深沢出張所第１管区75号,寺分一丁目１８番２９号付近,35.334934,139.522903,100,
深沢出張所第１管区76号,寺分一丁目１９番１号付近,35.334564,139.523341,100,
深沢出張所第１管区77号,寺分一丁目１９番１４号付近,35.33387,139.522564,100,
深沢出張所第１管区78号,寺分一丁目５番２号付近,35.333294,139.521499,100,
深沢出張所第１管区79号,寺分一丁目５番１１号付近,35.33287,139.522105,150,
深沢出張所第１管区80号,寺分一丁目７番７号付近,35.332044,139.522571,150,
深沢出張所第１管区81号,梶原一丁目１４番１号付近,35.331206,139.522479,200,
深沢出張所第１管区82号,梶原一丁目１２番１２号付近,35.330309,139.521906,200,
深沢出張所第１管区83号,常盤２２３番地７号付近,35.329575,139.522225,200,
深沢出張所第１管区84号,梶原一丁目１６番８号付近,35.329257,139.522949,200,
深沢出張所第１管区85号,常盤２８９番地付近,35.328847,139.523728,200,
深沢出張所第１管区86号,常盤３３１番地付近,35.328249,139.524387,200,
深沢出張所第１管区87号,梶原一丁目１９番２号付近,35.327751,139.524326,200,
深沢出張所第１管区88号,常盤２９７番地付近,35.327657,139.523269,300,
深沢出張所第１管区89号,寺分三丁目２７番１５号付近,35.332745,139.528528,250,
深沢出張所第１管区90号,寺分三丁目２６番１号付近,35.333566,139.52822,250,
深沢出張所第１管区91号,寺分三丁目３１番７号付近,35.334632,139.528073,200,
深沢出張所第１管区92号,寺分二丁目３６番７号付近,35.334768,139.528787,150,
深沢出張所第１管区93号,寺分二丁目３５番１４号付近,35.335514,139.527725,200,
深沢出張所第１管区94号,寺分二丁目３３番８号付近,35.335789,139.528335,150,
深沢出張所第１管区95号,寺分二丁目３２番６号付近,35.336421,139.528493,150,
深沢出張所第１管区96号,寺分二丁目３１番２１号付近,35.336879,139.527772,150,
深沢出張所第１管区97号,寺分二丁目３４番１４号付近,35.33635,139.527122,200,
深沢出張所第１管区98号,寺分二丁目３１番１号付近,35.3372794,139.5262442,200,
深沢出張所第１管区99号,寺分二丁目２９番付近,35.338177,139.524562,200,
深沢出張所第１管区100号,上町屋７８０番地付近,35.337748,139.523338,100,
深沢出張所第１管区101号,寺分一丁目２７番１号付近,35.335903,139.5222629,100,
深沢出張所第１管区102号,梶原一丁目１７番２２号付近,35.328939,139.524308,100,
深沢出張所第２管区1号,笛田一丁目１４番５号付近,35.33294,139.505293,100,
深沢出張所第２管区2号,笛田一丁目７番３８号付近,35.332675,139.508308,100,
深沢出張所第２管区3号,笛田一丁目６番１号付近,35.332732,139.509148,100,
深沢出張所第２管区4号,笛田一丁目８番４９号付近,35.33136,139.50879,100,
深沢出張所第２管区5号,笛田一丁目５番１６号付近,35.331839,139.509466,100,
深沢出張所第２管区6号,笛田一丁目３番４７号付近,35.331427,139.511359,100,
深沢出張所第２管区7号,笛田一丁目２番３２号付近,35.331186,139.512742,100,
深沢出張所第２管区8号,笛田一丁目２番３２号付近,35.330878,139.514415,100,
深沢出張所第２管区9号,常盤４１番地１付近,35.330434,139.516866,100,
深沢出張所第２管区10号,常盤１０番地付近,35.33229,139.516867,200,
深沢出張所第２管区11号,梶原７７番地付近,35.332786,139.51501,200,
深沢出張所第２管区12号,梶原１０２番地付近,35.333093,139.513837,200,
深沢出張所第２管区13号,梶原２００番地付近,35.333588,139.511955,200,
深沢出張所第２管区14号,上町屋６３３番地付近,35.337669,139.515295,100,
深沢出張所第２管区15号,上町屋６６７番地付近,35.33718,139.516211,100,
深沢出張所第２管区16号,上町屋６３４番地６付近,35.337072,139.515232,100,
深沢出張所第２管区17号,上町屋６３９番地付近,35.33651,139.515369,150,
深沢出張所第２管区18号,上町屋６７０番地付近,35.336274,139.516545,150,
深沢出張所第２管区19号,寺分４１１番地付近,35.3359433,139.5178517,150,
深沢出張所第２管区20号,寺分４４８番地付近,35.335463,139.519203,150,
深沢出張所第２管区21号,寺分４４８番地付近,35.335176,139.519949,100,
深沢出張所第２管区22号,寺分４４８番地付近,35.334432,139.520313,150,
深沢出張所第２管区23号,上町屋７９２番地付近,35.336098,139.522007,200,
深沢出張所第２管区24号,上町屋８１５番地１付近,35.336227,139.521164,100,
深沢出張所第２管区25号,上町屋８１０番地付近,35.336558,139.521057,200,
深沢出張所第２管区26号,上町屋７３０番地付近,35.337247,139.51972,200,
深沢出張所第２管区27号,上町屋２２８番地付近,35.338066,139.520074,100,
深沢出張所第２管区28号,上町屋７４０番地付近,35.337918,139.52137,100,
深沢出張所第２管区29号,上町屋２４６番地付近,35.337998,139.519104,200,
深沢出張所第２管区30号,上町屋６９４番地付近,35.338189,139.517912,200,
深沢出張所第２管区31号,上町屋６６１番地付近,35.337901,139.517252,200,
深沢出張所第２管区32号,上町屋６５８番地付近,35.337977,139.516569,100,
深沢出張所第２管区33号,上町屋５４７番地付近,35.33855,139.516608,200,
深沢出張所第２管区34号,上町屋６２番地付近,35.339002,139.516218,200,
深沢出張所第２管区35号,上町屋５５１番地付近,35.339504,139.515438,200,
深沢出張所第２管区36号,上町屋６７２番地付近,35.337176,139.517298,100,
深沢出張所第２管区37号,笛田一丁目８番２１号付近,35.331632,139.507061,100,
深沢出張所第２管区38号,上町屋６２２番地付近,35.338441,139.514628,100,
深沢出張所第２管区39号,寺分２１４番地１０付近,35.334723,139.511189,100,
深沢出張所第２管区40号,寺分２１４番地付近,35.335386,139.51181,100,
深沢出張所第２管区41号,寺分２１４番地６６付近,35.33679,139.512989,100,
深沢出張所第２管区42号,寺分２１４番地８２付近,35.33564,139.512443,100,
深沢出張所第２管区43号,梶原２番地１号付近,35.330606,139.515914,100,
深沢出張所第２管区44号,笛田一丁目２番１６号付近,35.331004,139.513717,100,
深沢出張所第２管区45号,笛田一丁目３番３６号付近,35.331622,139.510386,100,
深沢出張所第２管区46号,上町屋６６３番地付近,35.337493,139.516725,100,
深沢出張所第２管区47号,上町屋６７３番地付近,35.336677,139.517541,100,
深沢出張所第２管区48号,笛田一丁目２番１号付近,35.329803,139.514678,100,
深沢出張所第２管区49号,梶原一丁目６番１５号付近,35.332525,139.518607,400,
深沢出張所第２管区50号,梶原一丁目１番２１号付近,35.333659,139.519814,400,
深沢出張所第２管区51号,常盤６４番地付近,35.331863,139.517926,400,
深沢出張所第２管区52号,寺分４４８番地付近,35.335011,139.521179,400,
深沢出張所第２管区53号,寺分８１５番地付近,35.336357,139.519535,150,
深沢出張所第２管区54号,寺分８１５番地付近,35.335903,139.520416,150,
深沢出張所第２管区55号,梶原２００番地付近,35.331841,139.514127,100,
深沢出張所第２管区56号,笛田一丁目１１番３４号付近,35.332467,139.507371,100,
深沢出張所第３管区1号,手広一丁目１６番１９号付近,35.328343,139.509447,400,
深沢出張所第３管区2号,手広一丁目８番７号付近,35.329347,139.509497,400,
深沢出張所第３管区3号,手広三丁目１番１２号付近,35.329688,139.50945,100,
深沢出張所第３管区4号,手広三丁目１番７号付近,35.330518,139.509495,100,
深沢出張所第３管区5号,手広三丁目１番１号付近,35.331059,139.509534,100,
深沢出張所第３管区6号,手広一丁目７番２２号付近,35.329654,139.510641,100,
深沢出張所第３管区7号,手広一丁目１１番３４号付近,35.328849,139.510361,100,
深沢出張所第３管区8号,手広一丁目１０番２５号付近,35.328032,139.510055,100,
深沢出張所第３管区9号,手広一丁目１０番１号付近,35.328319,139.511081,150,
深沢出張所第３管区10号,手広一丁目１１番３２号付近,35.32855,139.511806,150,
深沢出張所第３管区11号,手広一丁目１３番５号付近,35.329008,139.513159,150,
深沢出張所第３管区12号,手広二丁目６番１号付近,35.329391,139.514332,150,
深沢出張所第３管区13号,手広二丁目５番２４号付近,35.329575,139.515052,100,
深沢出張所第３管区14号,手広二丁目５番１号付近,35.329728,139.515608,150,
深沢出張所第３管区15号,手広二丁目４番１９号付近,35.328826,139.514715,150,
深沢出張所第３管区16号,手広二丁目８番９号付近,35.328229,139.514561,150,
深沢出張所第３管区17号,手広二丁目１８番１号付近,35.328106,139.513512,150,
深沢出張所第３管区18号,手広二丁目９番１３号付近,35.327484,139.513772,100,
深沢出張所第３管区19号,手広二丁目１３番５号付近,35.326825,139.513811,100,
深沢出張所第３管区20号,手広二丁目１７番１１付近,35.327651,139.512792,100,
深沢出張所第３管区21号,手広二丁目１８番１２号付近,35.327914,139.512168,150,
深沢出張所第３管区22号,手広二丁目１６番１６号付近,35.327269,139.512356,100,
深沢出張所第３管区23号,手広二丁目１５番１０号付近,35.327041,139.512905,100,
深沢出張所第３管区24号,手広二丁目１９番１号付近,35.327554,139.510814,150,
深沢出張所第３管区25号,手広二丁目２４番２号付近,35.326958,139.511139,150,
深沢出張所第３管区26号,手広二丁目２４番１９号付近,35.327427,139.50992,200,
深沢出張所第３管区27号,手広二丁目２５番３号付近,35.326994,139.509659,100,
深沢出張所第３管区28号,手広二丁目２５番８号付近,35.327063,139.509001,400,
深沢出張所第３管区29号,手広二丁目２９番７号付近,35.325356,139.509129,100,
深沢出張所第３管区30号,手広五丁目７番１号付近,35.324627,139.505353,100,
深沢出張所第３管区31号,手広五丁目５番３号付近,35.324692,139.506829,400,
深沢出張所第３管区32号,手広四丁目８番１８号付近,35.326219,139.508564,100,
深沢出張所第３管区33号,手広五丁目１番５号付近,35.326441,139.507864,100,
深沢出張所第３管区34号,手広四丁目１２番５号付近,35.326765,139.507129,100,
深沢出張所第３管区35号,手広四丁目１４番１号付近,35.326587,139.506025,100,
深沢出張所第３管区36号,手広四丁目３８番１９号付近,35.326816,139.505522,100,
深沢出張所第３管区37号,手広四丁目１６番１０号付近,35.327135,139.505884,100,
深沢出張所第３管区38号,手広四丁目１５番１６号付近,35.327592,139.50567,100,
深沢出張所第３管区39号,手広四丁目１７番１号付近,35.328238,139.505979,100,
深沢出張所第３管区40号,手広四丁目１８番２号付近,35.327484,139.506498,100,
深沢出張所第３管区41号,手広四丁目１１番３２号付近,35.327187,139.5069,100,
深沢出張所第３管区42号,手広四丁目９番３４号付近,35.327295,139.508259,100,
深沢出張所第３管区43号,手広四丁目６番３号付近,35.327521,139.507898,150,
深沢出張所第３管区44号,手広四丁目１１番６号付近,35.327739,139.506993,150,
深沢出張所第３管区45号,手広四丁目２３番１８号付近,35.328197,139.507238,100,
深沢出張所第３管区46号,手広四丁目２６番１４号付近,35.32872,139.506976,100,
深沢出張所第３管区47号,手広四丁目４番２１号付近,35.328168,139.508178,150,
深沢出張所第３管区48号,手広三丁目４番１７号付近,35.329319,139.508636,100,
深沢出張所第３管区49号,手広三丁目７番２９号付近,35.330149,139.508274,150,
深沢出張所第３管区50号,手広三丁目７番１３号付近,35.33052,139.509033,100,
深沢出張所第３管区51号,手広三丁目７番３号付近,35.330802,139.508288,100,
深沢出張所第３管区52号,手広三丁目１０番１７号付近,35.330314,139.507556,150,
深沢出張所第３管区53号,手広三丁目１３番３０号付近,35.331429,139.506629,100,
深沢出張所第３管区54号,手広三丁目１６番１３付近,35.330862,139.505716,100,
深沢出張所第３管区55号,手広三丁目１１番１７号付近,35.330585,139.506338,150,
深沢出張所第３管区56号,手広三丁目１１番８号付近,35.330075,139.506643,100,
深沢出張所第３管区57号,手広三丁目１７番３付近,35.330206,139.505803,100,
深沢出張所第３管区58号,手広四丁目２９番１号付近,35.329626,139.506008,150,
深沢出張所第３管区59号,手広六丁目６番１号付近,35.331872,139.504471,100,
深沢出張所第３管区60号,手広六丁目９番１２号付近,35.330394,139.504836,300,
深沢出張所第３管区61号,手広六丁目１０番１号付近,35.329348,139.504515,75,
深沢出張所第３管区62号,手広六丁目１０番１号付近,35.328073,139.504109,75,
腰越出張所第３管区54号,鎌倉山三丁目１６番２２号付近,35.323334,139.513414,150,
腰越出張所第３管区55号,鎌倉山四丁目９番１２号付近,35.324337,139.512696,100,
腰越出張所第３管区56号,鎌倉山四丁目９番２６号付近,35.324445,139.514198,150,
腰越出張所第３管区57号,鎌倉山四丁目５番１０号付近,35.325252,139.515575,100,
深沢出張所第３管区67号,手広四丁目３８番３号付近,35.326899,139.504863,100,
腰越出張所第３管区58号,鎌倉山四丁目７番１号付近,35.325166,139.514422,150,
深沢出張所第３管区69号,手広四丁目４０番１号付近,35.326865,139.504584,100,
深沢出張所第３管区70号,手広四丁目２０番１号付近,35.328826,139.505323,100,
深沢出張所第３管区71号,手広一丁目３番１０号付近,35.3292595,139.5117762,100,
深沢出張所第３管区72号,手広五丁目６番２号付近,35.324052,139.506311,300,
深沢出張所第３管区73号,手広四丁目２６番１８号付近,35.328826,139.506563,100,
深沢出張所第３管区74号,手広二丁目４番２９号付近,35.329204,139.515643,100,
深沢出張所第４管区1号,笛田二丁目１番４６号付近,35.329847,139.516885,200,
深沢出張所第４管区2号,笛田二丁目２番６８号付近,35.329676,139.517686,100,
深沢出張所第４管区3号,笛田三丁目１５番８号付近,35.329458,139.519146,200,
深沢出張所第４管区4号,笛田三丁目１７番１７号付近,35.329328,139.519653,100,
深沢出張所第４管区5号,笛田三丁目２１番１５号付近,35.329137,139.520583,200,
深沢出張所第４管区6号,笛田三丁目２１番１３号付近,35.328794,139.521102,200,
深沢出張所第４管区7号,笛田三丁目２１番２号付近,35.328285,139.521857,200,
深沢出張所第４管区8号,笛田三丁目２３番１号付近,35.327966,139.521893,100,
深沢出張所第４管区9号,笛田三丁目２３番２号付近,35.327359,139.521759,100,
深沢出張所第４管区10号,笛田三丁目２３番１３号付近,35.32766,139.522436,200,
深沢出張所第４管区11号,笛田四丁目２番３２号付近,35.325617,139.523502,200,
深沢出張所第４管区12号,笛田四丁目２５番２１号付近,35.323895,139.524081,200,
深沢出張所第４管区13号,笛田四丁目６番７号付近,35.325837,139.523181,150,
深沢出張所第４管区14号,笛田四丁目３番２号付近,35.324808,139.523499,150,
深沢出張所第４管区15号,笛田四丁目１９番８号付近,35.324428,139.523167,100,
深沢出張所第４管区16号,笛田四丁目２１番１号付近,35.323869,139.522511,100,
深沢出張所第４管区17号,笛田四丁目１９番６号付近,35.3246,139.522848,150,
深沢出張所第４管区18号,笛田四丁目１１番１号付近,35.32564,139.522502,100,
深沢出張所第４管区19号,笛田四丁目４番１２号付近,35.326658,139.522939,150,
深沢出張所第４管区20号,笛田四丁目５番３号付近,35.326852,139.522181,150,
深沢出張所第４管区21号,笛田四丁目１３番７号付近,35.325517,139.521777,100,
深沢出張所第４管区22号,笛田四丁目１５番８号付近,35.324452,139.522164,100,
深沢出張所第４管区23号,笛田三丁目２６番２号付近,35.325711,139.521391,150,
深沢出張所第４管区24号,笛田四丁目１６番９号付近,35.324729,139.521296,150,
深沢出張所第４管区25号,笛田三丁目２６番６号付近,35.325578,139.520737,100,
深沢出張所第４管区26号,笛田三丁目１８番２５号付近,35.324851,139.520761,100,
深沢出張所第４管区27号,笛田三丁目２９番１５号付近,35.324356,139.520126,100,
深沢出張所第４管区28号,笛田三丁目３２番１８号付近,35.323787,139.519429,100,
深沢出張所第４管区29号,笛田三丁目３７番２９号付近,35.323111,139.519421,100,
深沢出張所第４管区30号,笛田三丁目３６番２７号付近,35.322596,139.518918,100,
深沢出張所第４管区31号,笛田三丁目４１番２号付近,35.32194,139.518442,100,
深沢出張所第４管区32号,笛田二丁目３８番２０号付近,35.320991,139.517675,100,
深沢出張所第４管区33号,笛田二丁目３６番１８号付近,35.322523,139.518089,150,
深沢出張所第４管区34号,笛田二丁目３６番５号付近,35.321945,139.518005,100,
深沢出張所第４管区35号,笛田二丁目３０番２号付近,35.3215,139.517124,100,
深沢出張所第４管区36号,笛田二丁目２５番１号付近,35.321629,139.515682,100,
深沢出張所第４管区37号,笛田二丁目２６番７号付近,35.322266,139.515123,150,
深沢出張所第４管区38号,笛田二丁目２９番１９号付近,35.322561,139.51604,100,
深沢出張所第４管区39号,笛田二丁目２８番７号付近,35.321811,139.516194,150,
深沢出張所第４管区40号,笛田二丁目２９番４号付近,35.322394,139.516618,150,
深沢出張所第４管区41号,笛田二丁目３２番７号付近,35.321948,139.51741,150,
深沢出張所第４管区42号,笛田二丁目３３番１５号付近,35.323011,139.517131,150,
深沢出張所第４管区43号,笛田二丁目３３番３号付近,35.322958,139.517567,100,
深沢出張所第４管区44号,笛田二丁目３４番３号付近,35.32336,139.51818,150,
深沢出張所第４管区45号,笛田二丁目１３番１号付近,35.324108,139.517833,200,
深沢出張所第４管区46号,笛田二丁目１４番５号付近,35.32377,139.517574,100,
深沢出張所第４管区47号,笛田二丁目１５番３号付近,35.323656,139.51725,100,
深沢出張所第４管区48号,笛田二丁目１４番１５号付近,35.324432,139.517009,150,
深沢出張所第４管区49号,笛田二丁目１８番４号付近,35.324048,139.516668,150,
深沢出張所第４管区50号,笛田二丁目１９番１３号付近,35.323418,139.516556,100,
深沢出張所第４管区51号,笛田二丁目１９番８号付近,35.324047,139.516021,150,
深沢出張所第４管区52号,笛田二丁目２０番５号付近,35.323295,139.516199,150,
深沢出張所第４管区53号,笛田二丁目２１番５号付近,35.322877,139.515909,100,
深沢出張所第４管区54号,笛田二丁目２２番１１号付近,35.323081,139.515202,100,
深沢出張所第４管区55号,笛田二丁目１２番２８号付近,35.324643,139.517963,200,
深沢出張所第４管区56号,笛田三丁目３３番９号付近,35.324688,139.51889,100,
深沢出張所第４管区57号,笛田三丁目５番２２号付近,35.325311,139.518249,100,
深沢出張所第４管区58号,笛田二丁目１０番２４号付近,35.326723,139.517883,100,
深沢出張所第４管区59号,笛田三丁目３番３９号付近,35.32762,139.517573,100,
深沢出張所第４管区60号,笛田三丁目２番付近,35.328135,139.517477,100,
深沢出張所第４管区61号,笛田三丁目２番６４号付近,35.328958,139.517493,200,
深沢出張所第４管区62号,笛田二丁目２番１８号付近,35.328801,139.516924,100,
深沢出張所第４管区63号,笛田二丁目５番１１号付近,35.327375,139.51596,100,
深沢出張所第４管区64号,笛田三丁目４番３４付近,35.326009,139.518763,100,
深沢出張所第４管区65号,笛田三丁目４番１７号付近,35.326848,139.518743,100,
深沢出張所第４管区66号,笛田三丁目９番１１号付近,35.327496,139.518129,100,
深沢出張所第４管区67号,笛田三丁目３番４号付近,35.327955,139.517883,100,
深沢出張所第４管区68号,笛田三丁目２番３２号付近,35.328256,139.518297,100,
深沢出張所第４管区69号,笛田三丁目２番２２号付近,35.328944,139.51842,100,
深沢出張所第４管区70号,笛田三丁目１５番２５号付近,35.329152,139.519216,100,
腰越出張所第３管区41号,鎌倉山三丁目１９番４号付近,35.323149,139.510481,100,
腰越出張所第３管区42号,鎌倉山三丁目１８番１７号付近,35.32301,139.511991,100,
腰越出張所第３管区43号,鎌倉山三丁目１６番５号付近,35.322214,139.512756,150,
腰越出張所第３管区44号,鎌倉山三丁目２１番２１号付近,35.321925,139.512071,75,
腰越出張所第３管区45号,鎌倉山三丁目２１番８号付近,35.320716,139.512559,150,
腰越出張所第３管区46号,鎌倉山三丁目１４番３４号付近,35.321357,139.514091,100,
腰越出張所第３管区47号,鎌倉山三丁目５番２２号付近,35.320499,139.513939,100,
腰越出張所第３管区48号,鎌倉山三丁目５番２２号付近,35.3202759,139.5135785,200,
腰越出張所第３管区49号,鎌倉山三丁目２２番８号付近,35.319638,139.513889,200,
腰越出張所第３管区50号,鎌倉山三丁目２番１９号付近,35.318232,139.513766,100,
腰越出張所第３管区51号,鎌倉山三丁目５番１号付近,35.318483,139.514712,200,
深沢出張所第４管区82号,笛田五丁目６番２号付近,35.322773,139.524219,100,
深沢出張所第４管区83号,笛田三丁目１３番１号付近,35.328088,139.519692,100,
深沢出張所第４管区84号,笛田三丁目２７番１号付近,35.325929,139.52077,100,
深沢出張所第４管区85号,笛田三丁目１９番３５号付近,35.328298,139.520349,100,
腰越出張所第３管区52号,鎌倉山三丁目１０番２０号付近,35.319924,139.514523,100,
腰越出張所第３管区53号,鎌倉山三丁目１３番４３号付近,35.321453,139.513527,100,
深沢出張所第５管区1号,常盤３６１番地付近,35.326267,139.524612,150,
深沢出張所第５管区2号,常盤３８６番地付近,35.324591,139.524889,150,
深沢出張所第５管区3号,常盤４４５番地付近,35.323933,139.52487,150,
深沢出張所第５管区4号,常盤４０７番地付近,35.323302,139.525303,150,
深沢出張所第５管区5号,常盤４１３番地付近,35.322644,139.525962,150,
深沢出張所第５管区6号,常盤５２８番地付近,35.321985,139.526863,150,
深沢出張所第５管区7号,常盤６２１番地付近,35.322023,139.527887,200,
深沢出張所第５管区8号,常盤６３９番地付近,35.322027,139.529444,200,
深沢出張所第５管区9号,常盤６５０番地付近,35.322011,139.530671,200,
深沢出張所第５管区10号,常盤６５３番地付近,35.322392,139.531289,200,
深沢出張所第５管区11号,常盤７３０番地付近,35.322306,139.532322,200,
深沢出張所第５管区12号,常盤９４７番地２付近,35.322286,139.532822,150,
深沢出張所第５管区13号,常盤９４６番地１付近,35.322104,139.533323,200,
深沢出張所第５管区14号,常盤７７１番地付近,35.322044,139.533985,150,
深沢出張所第５管区15号,常盤８６２番地１８付近,35.321806,139.534787,200,
深沢出張所第５管区16号,常盤９１７番地付近,35.321608,139.535765,200,
深沢出張所第５管区17号,常盤９２２番地１５付近,35.3214,139.534627,150,
深沢出張所第５管区18号,常盤９２８番地２０付近,35.32024,139.533732,150,
深沢出張所第５管区19号,常盤９３７番地１９７付近,35.319584,139.533334,100,
深沢出張所第５管区20号,常盤９３７番地２１９付近,35.318878,139.532622,100,
深沢出張所第５管区21号,常盤９３７番地１３２付近,35.319411,139.532148,150,
深沢出張所第５管区22号,常盤９３７番地１７４付近,35.32015,139.532553,100,
深沢出張所第５管区23号,常盤９３７番地２２０付近,35.320919,139.532836,150,
深沢出張所第５管区24号,常盤９３７番地１４３付近,35.321069,139.533844,100,
深沢出張所第５管区25号,常盤９３７番地５５付近,35.321531,139.531833,100,
深沢出張所第５管区26号,常盤９３７番地５４付近,35.320524,139.53138,100,
深沢出張所第５管区27号,常盤９３７番地１３３付近,35.31915,139.53156,100,
深沢出張所第５管区28号,常盤９３７番地１６付近,35.320274,139.53087,200,
深沢出張所第５管区29号,常盤９８５番地８付近,35.320451,139.5302,100,
深沢出張所第５管区30号,常盤９８５番地付近,35.320706,139.530681,200,
深沢出張所第５管区31号,常盤１００８番地付近,35.321642,139.529435,150,
深沢出張所第５管区32号,常盤６３３番地付近,35.321406,139.528143,150,
深沢出張所第５管区33号,常盤１０２４番地８付近,35.32113,139.527761,150,
深沢出張所第５管区34号,笛田六丁目１番２０号付近,35.320268,139.528217,150,
深沢出張所第５管区35号,笛田六丁目２番３５号付近,35.319722,139.528944,150,
深沢出張所第５管区36号,笛田六丁目２番８号付近,35.319527,139.529837,150,
深沢出張所第５管区37号,笛田六丁目３番１１号付近,35.318951,139.530796,150,
深沢出張所第５管区38号,笛田六丁目６番２６号付近,35.319382,139.528508,100,
深沢出張所第５管区39号,笛田六丁目１４番１５号付近,35.317135,139.527556,100,
深沢出張所第５管区40号,笛田六丁目１５番１１号付近,35.31621,139.527315,100,
深沢出張所第５管区41号,笛田六丁目１９番２６号付近,35.317617,139.527465,100,
深沢出張所第５管区42号,笛田六丁目７番４６号付近,35.31899,139.52773,150,
深沢出張所第５管区43号,笛田五丁目４５番６号付近,35.318422,139.527023,150,
深沢出張所第５管区44号,笛田五丁目４６番１１号付近,35.317836,139.526752,150,
深沢出張所第５管区45号,笛田五丁目５３番８号付近,35.316988,139.526402,150,
深沢出張所第５管区46号,笛田五丁目５３番１４号付近,35.316372,139.526238,100,
深沢出張所第５管区47号,笛田五丁目５１番７号付近,35.317686,139.525978,150,
深沢出張所第５管区48号,笛田五丁目４８番１号付近,35.318039,139.525849,100,
深沢出張所第５管区49号,笛田五丁目４４番４６付近,35.318825,139.527167,100,
深沢出張所第５管区50号,笛田五丁目４４番１１号付近,35.319589,139.526778,200,
深沢出張所第５管区51号,笛田五丁目４４番１１号付近,35.319205,139.526387,200,
深沢出張所第５管区52号,笛田五丁目４０番４号付近,35.32048,139.527575,200,
深沢出張所第５管区53号,笛田五丁目３８番３８号付近,35.320853,139.527456,200,
深沢出張所第５管区54号,笛田五丁目３７番２６号付近,35.321304,139.526984,150,
深沢出張所第５管区55号,笛田五丁目３番６号付近,35.32178,139.526234,150,
深沢出張所第５管区56号,笛田五丁目１番６号付近,35.32297,139.524758,150,
深沢出張所第５管区57号,笛田五丁目１０番３２号付近,35.321435,139.526137,150,
深沢出張所第５管区58号,笛田五丁目３３番１号付近,35.320641,139.525717,150,
深沢出張所第５管区59号,笛田五丁目１９番８号付近,35.320055,139.524817,150,
深沢出張所第５管区60号,笛田五丁目２１番４号付近,35.319849,139.523575,150,
深沢出張所第５管区61号,笛田五丁目３２番１６号付近,35.319669,139.524574,100,
深沢出張所第５管区62号,笛田五丁目２７番６号付近,35.319258,139.525517,100,
深沢出張所第５管区63号,笛田五丁目２８番２号付近,35.319033,139.524455,100,
深沢出張所第５管区64号,笛田五丁目２１番６号付近,35.319494,139.523405,150,
深沢出張所第５管区65号,笛田五丁目２３番６号付近,35.319769,139.522607,150,
深沢出張所第５管区66号,笛田五丁目１４番１号付近,35.320687,139.522994,100,
深沢出張所第５管区67号,笛田五丁目１６番１付近,35.32065,139.523955,100,
深沢出張所第５管区68号,笛田五丁目１３番１３号付近,35.320903,139.524279,100,
深沢出張所第５管区69号,笛田五丁目１１番６号付近,35.320709,139.524741,100,
深沢出張所第５管区70号,笛田五丁目９番２０号付近,35.322096,139.524584,100,
腰越出張所第３管区1号,鎌倉山一丁目１番６号付近,35.321658,139.523163,150,
腰越出張所第３管区2号,鎌倉山一丁目１番１７号付近,35.320843,139.522332,150,
腰越出張所第３管区3号,鎌倉山一丁目６番１１号付近,35.319838,139.522116,150,
腰越出張所第３管区4号,鎌倉山一丁目６番２９号付近,35.319713,139.521319,150,
腰越出張所第３管区5号,鎌倉山一丁目１６番６号付近,35.318978,139.52109,100,
腰越出張所第３管区6号,鎌倉山一丁目２７番１５号付近,35.318997,139.522172,100,
腰越出張所第３管区7号,鎌倉山一丁目２５番８号付近,35.31765,139.52234,100,
腰越出張所第３管区8号,鎌倉山一丁目９番２４号付近,35.319509,139.520635,150,
腰越出張所第３管区9号,鎌倉山一丁目１１番２号付近,35.319215,139.520193,100,
腰越出張所第３管区10号,鎌倉山一丁目１１番１１号付近,35.319734,139.519656,100,
腰越出張所第３管区11号,鎌倉山二丁目８番２２号付近,35.317806,139.519444,200,
腰越出張所第３管区12号,鎌倉山二丁目８番１０号付近,35.318103,139.518446,100,
腰越出張所第３管区13号,鎌倉山二丁目１１番７号付近,35.317911,139.515486,200,
腰越出張所第３管区14号,鎌倉山二丁目１２番１号付近,35.317037,139.51515,200,
腰越出張所第３管区15号,鎌倉山二丁目９番２８号付近,35.31735,139.516086,100,
腰越出張所第３管区16号,鎌倉山二丁目９番３９号付近,35.317213,139.516648,100,
腰越出張所第３管区17号,鎌倉山二丁目１３番１１号付近,35.316705,139.516179,200,
腰越出張所第３管区18号,鎌倉山二丁目９番１０号付近,35.316579,139.517509,200,
腰越出張所第３管区19号,鎌倉山二丁目８番３４号付近,35.317268,139.518881,200,
腰越出張所第３管区20号,鎌倉山二丁目２１番２５号付近,35.313957,139.514806,100,
腰越出張所第３管区21号,鎌倉山二丁目２０番１５号付近,35.314633,139.515345,100,
腰越出張所第３管区22号,鎌倉山二丁目２２番２３号付近,35.315011,139.516551,100,
腰越出張所第３管区23号,鎌倉山二丁目１８番２５号付近,35.315769,139.518781,100,
腰越出張所第３管区24号,鎌倉山二丁目２３番１９号付近,35.316414,139.520393,100,
腰越出張所第３管区25号,鎌倉山二丁目１７番３６号付近,35.317028,139.52103,100,
腰越出張所第３管区26号,鎌倉山一丁目１９番５号付近,35.316176,139.522306,150,
腰越出張所第３管区27号,鎌倉山二丁目２４番１５号付近,35.315675,139.522443,150,
腰越出張所第３管区28号,鎌倉山二丁目２５番１９号付近,35.315094,139.521648,150,
腰越出張所第３管区29号,鎌倉山一丁目２３番１号付近,35.317198,139.524039,100,
腰越出張所第３管区30号,鎌倉山一丁目２４番付近,35.317082,139.523665,200,
腰越出張所第３管区31号,鎌倉山一丁目１９番２４号付近,35.316259,139.522836,250,
腰越出張所第３管区32号,鎌倉山二丁目１９番１２号付近,35.316792,139.522175,250,
腰越出張所第３管区33号,鎌倉山二丁目１７番９号付近,35.317727,139.521459,250,
腰越出張所第３管区34号,鎌倉山一丁目１７番８号付近,35.317774,139.520697,250,
腰越出張所第３管区35号,鎌倉山一丁目１５番１３号付近,35.318368,139.519736,100,
腰越出張所第３管区36号,鎌倉山一丁目１４番１５号付近,35.319505,139.518049,100,
腰越出張所第３管区37号,鎌倉山二丁目１５番２３号付近,35.317324,139.519505,100,
深沢出張所第５管区108号,極楽寺四丁目９番７号付近,35.315646,139.52606,100,
深沢出張所第５管区109号,笛田六丁目１０番１０号付近,35.317643,139.529089,200,
腰越出張所第３管区38号,鎌倉山二丁目２７番８号付近,35.315351,139.523011,100,
深沢出張所第５管区111号,常盤４２２番地１付近,35.3236765,139.5257067,150,
腰越出張所第３管区39号,鎌倉山二丁目１１番２７号付近,35.318128,139.517114,100,
腰越出張所第３管区40号,鎌倉山一丁目７番７号付近,35.321091,139.521197,100,
深沢出張所第６管区1号,梶原三丁目３２番１３号付近,35.33108,139.538537,350,
深沢出張所第６管区2号,梶原三丁目３１番２４号付近,35.331233,139.537268,350,
深沢出張所第６管区3号,梶原三丁目３０番１０号付近,35.331375,139.536505,350,
深沢出張所第６管区4号,梶原三丁目３０番５号付近,35.332104,139.53668,100,
深沢出張所第６管区5号,梶原三丁目２７番１３号付近,35.331704,139.536211,100,
深沢出張所第６管区6号,梶原三丁目２７番９号付近,35.332002,139.535268,100,
深沢出張所第６管区7号,梶原三丁目２５番１４号付近,35.332089,139.534573,100,
深沢出張所第６管区8号,梶原三丁目３番７号付近,35.332636,139.532453,100,
深沢出張所第６管区9号,梶原三丁目３番１９号付近,35.332284,139.532196,250,
深沢出張所第６管区10号,梶原三丁目５番７号付近,35.332152,139.530603,250,
深沢出張所第６管区11号,梶原二丁目１３番２号付近,35.331443,139.529616,150,
深沢出張所第６管区12号,梶原三丁目７番８号付近,35.331724,139.530527,100,
深沢出張所第６管区13号,梶原三丁目１１番１１号付近,35.331187,139.532222,100,
深沢出張所第６管区14号,梶原三丁目４番１４号付近,35.331664,139.53284,100,
深沢出張所第６管区15号,梶原三丁目２４番３号付近,35.331366,139.534147,200,
深沢出張所第６管区16号,梶原三丁目２４番８号付近,35.3319,139.533404,200,
深沢出張所第６管区17号,梶原三丁目２５番１号付近,35.331679,139.534741,300,
深沢出張所第６管区18号,梶原三丁目２８番１号付近,35.331328,139.53552,350,
深沢出張所第６管区19号,梶原三丁目２９番４号付近,35.330707,139.536468,250,
深沢出張所第６管区20号,梶原三丁目１６番８号付近,35.330529,139.536109,100,
深沢出張所第６管区21号,梶原三丁目１７番９号付近,35.330405,139.535326,100,
深沢出張所第６管区22号,梶原三丁目２３番１号付近,35.330348,139.534804,100,
深沢出張所第６管区23号,梶原三丁目２２番４号付近,35.330873,139.534356,100,
深沢出張所第６管区24号,梶原三丁目１９番６号付近,35.330384,139.532637,150,
深沢出張所第６管区25号,梶原三丁目２０番７号付近,35.330254,139.533356,100,
深沢出張所第６管区26号,梶原三丁目１９番３号付近,35.329875,139.532844,100,
深沢出張所第６管区27号,梶原二丁目３４番１号付近,35.330419,139.531835,150,
深沢出張所第６管区28号,梶原二丁目３１番５号付近,35.330645,139.531019,150,
深沢出張所第６管区29号,梶原二丁目１３番８号付近,35.330396,139.530026,150,
深沢出張所第６管区30号,梶原二丁目１６番４号付近,35.330184,139.52916,100,
深沢出張所第６管区31号,梶原二丁目２８番１９号付近,35.329459,139.529343,100,
深沢出張所第６管区32号,梶原二丁目２８番２２号付近,35.329553,139.530252,150,
深沢出張所第６管区33号,梶原二丁目２８番１１号付近,35.32904,139.527933,100,
深沢出張所第６管区34号,梶原二丁目２６番１号付近,35.328282,139.526827,100,
深沢出張所第６管区35号,梶原二丁目２６番１号付近,35.328543,139.527727,100,
深沢出張所第６管区36号,梶原二丁目２６番６号付近,35.328544,139.528874,100,
深沢出張所第６管区37号,梶原二丁目３３番２号付近,35.328685,139.529926,100,
深沢出張所第６管区38号,梶原二丁目３３番８号付近,35.329413,139.531567,100,
深沢出張所第６管区39号,梶原三丁目１２番６号付近,35.329473,139.532375,150,
深沢出張所第６管区40号,梶原三丁目１３番８号付近,35.329536,139.533459,150,
深沢出張所第６管区41号,梶原三丁目１４番７号付近,35.3296519,139.5349484,250,
深沢出張所第６管区42号,梶原三丁目１５番８号付近,35.32981,139.536172,250,
深沢出張所第６管区43号,梶原三丁目１５番２号付近,35.330141,139.537307,250,
深沢出張所第６管区44号,梶原三丁目３６番５号付近,35.329553,139.538437,100,
深沢出張所第６管区45号,梶原五丁目４番８号付近,35.328646,139.539127,100,
深沢出張所第６管区46号,梶原五丁目６番４１号付近,35.328524,139.539877,100,
深沢出張所第６管区47号,梶原五丁目１１番５号付近,35.328022,139.540584,100,
深沢出張所第６管区48号,梶原五丁目２番１号付近,35.327222,139.536971,100,
深沢出張所第６管区49号,梶原五丁目２番１号付近,35.327203,139.535724,100,
深沢出張所第６管区50号,梶原五丁目２番１号付近,35.327964,139.535646,150,
深沢出張所第６管区51号,梶原五丁目１番５号付近,35.329089,139.535793,150,
深沢出張所第６管区52号,梶原二丁目３３番５号付近,35.328627,139.530907,150,
深沢出張所第６管区53号,梶原二丁目２６番７号付近,35.328083,139.529582,150,
深沢出張所第６管区54号,梶原二丁目２６番５号付近,35.328048,139.528398,150,
深沢出張所第６管区55号,梶原二丁目２６番１号付近,35.328041,139.527298,150,
深沢出張所第６管区56号,梶原一丁目２０番５号付近,35.327299,139.52473,150,
深沢出張所第６管区57号,梶原四丁目２番４号付近,35.32754,139.526587,150,
深沢出張所第６管区58号,梶原四丁目２番９号付近,35.327366,139.52877,75,
深沢出張所第６管区59号,梶原三丁目８番６号付近,35.331918,139.531667,100,
深沢出張所第６管区60号,梶原三丁目９番４号付近,35.331461,139.531344,100,
深沢出張所第６管区61号,梶原四丁目６番２９号付近,35.328464,139.5316185,100,
深沢出張所第６管区62号,梶原五丁目１０番８号付近,35.327167,139.541473,100,
深沢出張所第６管区63号,梶原五丁目７番１３号付近,35.328809,139.541169,100,
鎌倉消防署第１０管区1号,長谷一丁目３番６号付近,35.314529,139.541058,150,
鎌倉消防署第１０管区2号,長谷一丁目２番１１号付近,35.314291,139.540422,150,
鎌倉消防署第１０管区3号,長谷一丁目９番２２号付近,35.314088,139.539434,150,
鎌倉消防署第１０管区4号,長谷一丁目９番１４号付近,35.314032,139.538776,150,
鎌倉消防署第１０管区5号,長谷一丁目１２番６号付近,35.313827,139.537066,100,
鎌倉消防署第１０管区6号,長谷一丁目１４番３０号付近,35.31374,139.535447,100,
鎌倉消防署第１０管区7号,長谷四丁目２番１４号付近,35.315281,139.535676,150,
鎌倉消防署第１０管区8号,長谷四丁目２番２７号付近,35.316091,139.536201,150,
鎌倉消防署第１０管区9号,長谷五丁目４番１２号付近,35.316191,139.537004,100,
鎌倉消防署第１０管区10号,長谷四丁目１番２５号付近,35.316657,139.536954,150,
鎌倉消防署第１０管区11号,長谷五丁目７番２２号付近,35.317402,139.537623,150,
鎌倉消防署第１０管区12号,長谷五丁目１０番２３号付近,35.318706,139.537988,150,
鎌倉消防署第１０管区13号,長谷五丁目１１番３３号付近,35.319309,139.537897,100,
鎌倉消防署第１０管区14号,長谷五丁目１１番２３号付近,35.320014,139.538358,150,
鎌倉消防署第１０管区15号,長谷五丁目１５番１７号付近,35.321364,139.53873,150,
鎌倉消防署第１０管区16号,長谷五丁目１７番９号付近,35.322718,139.538859,100,
鎌倉消防署第１０管区17号,長谷四丁目１番６号付近,35.317414,139.53659,100,
鎌倉消防署第１０管区18号,長谷四丁目１２番１６号付近,35.31756,139.535273,100,
鎌倉消防署第１０管区19号,長谷四丁目７番１号付近,35.316501,139.534911,150,
鎌倉消防署第１０管区20号,長谷四丁目７番１２号付近,35.316991,139.534065,150,
鎌倉消防署第１０管区21号,長谷四丁目６番９号付近,35.317427,139.533278,150,
鎌倉消防署第１０管区22号,長谷四丁目５番２３号付近,35.316686,139.534267,100,
鎌倉消防署第１０管区23号,長谷四丁目２番２６号付近,35.315391,139.535227,150,
鎌倉消防署第１０管区24号,長谷三丁目１番２４号付近,35.314562,139.535003,300,
鎌倉消防署第１０管区25号,長谷三丁目７番６号付近,35.31452,139.533634,150,
鎌倉消防署第１０管区26号,長谷三丁目５番７号付近,35.314697,139.532766,150,
鎌倉消防署第１０管区27号,長谷三丁目４番７号付近,35.315514,139.532406,150,
鎌倉消防署第１０管区28号,長谷三丁目８番８号付近,35.313701,139.535095,300,
鎌倉消防署第１０管区29号,長谷三丁目８番２９号付近,35.313074,139.534547,100,
鎌倉消防署第１０管区30号,長谷三丁目９番３号付近,35.313234,139.533025,100,
鎌倉消防署第１０管区31号,長谷三丁目１０番３５号付近,35.312598,139.534254,100,
鎌倉消防署第１０管区32号,長谷五丁目６番２号付近,35.316876,139.53869,100,
鎌倉消防署第１０管区33号,長谷五丁目１３番３０号付近,35.321085,139.538811,200,
鎌倉消防署第１０管区34号,長谷五丁目１１番１０号付近,35.321114,139.538332,200,
鎌倉消防署第１０管区35号,長谷一丁目１５番３号付近,35.312914,139.535764,200,
鎌倉消防署第１０管区36号,長谷一丁目１１番２０号付近,35.313143,139.537751,200,
鎌倉消防署第１０管区37号,長谷一丁目１番１３号付近,35.313835,139.541266,200,
鎌倉消防署第１０管区38号,長谷一丁目１１番５０号付近,35.313679,139.537532,100,
鎌倉消防署第１０管区39号,長谷一丁目１１番１０号付近,35.313992,139.538266,100,
鎌倉消防署第１０管区40号,長谷三丁目８番３３号付近,35.313416,139.534147,100,
鎌倉消防署第１０管区41号,長谷四丁目１１番１５号付近,35.318936,139.535472,100,
鎌倉消防署第１０管区42号,長谷五丁目９番２３号付近,35.319163,139.539361,100,
鎌倉消防署第１１管区1号,長谷二丁目３番１号付近,35.313063,139.539745,100,
鎌倉消防署第１１管区2号,長谷二丁目３番１１号付近,35.312821,139.54067,100,
鎌倉消防署第１１管区3号,長谷二丁目１番７号付近,35.312578,139.541606,150,
鎌倉消防署第１１管区4号,長谷二丁目２番４号付近,35.312366,139.540488,100,
鎌倉消防署第１１管区5号,長谷二丁目１番１４号付近,35.311613,139.541026,150,
鎌倉消防署第１１管区6号,長谷二丁目６番５号付近,35.311816,139.539178,150,
鎌倉消防署第１１管区7号,長谷二丁目５番９号付近,35.312433,139.538775,100,
鎌倉消防署第１１管区8号,長谷二丁目５番４３号付近,35.313227,139.538454,150,
鎌倉消防署第１１管区9号,長谷二丁目１０番４３号付近,35.313056,139.537504,150,
鎌倉消防署第１１管区10号,長谷二丁目５番２５号付近,35.311989,139.537783,100,
鎌倉消防署第１１管区11号,長谷二丁目７番３２号付近,35.311342,139.538161,100,
鎌倉消防署第１１管区12号,長谷二丁目６番１８号付近,35.310889,139.539859,150,
鎌倉消防署第１１管区13号,長谷二丁目７番１５号付近,35.310519,139.539089,150,
鎌倉消防署第１１管区14号,長谷二丁目７番２２号付近,35.310315,139.538418,150,
鎌倉消防署第１１管区15号,長谷二丁目２０番１号付近,35.310736,139.537583,150,
鎌倉消防署第１１管区16号,長谷二丁目１９番３号付近,35.311259,139.537337,100,
鎌倉消防署第１１管区17号,長谷二丁目１０番３０号付近,35.312195,139.537208,100,
鎌倉消防署第１１管区18号,長谷二丁目１１番４４号付近,35.312919,139.536325,150,
鎌倉消防署第１１管区19号,長谷二丁目１３番９号付近,35.312123,139.536213,100,
鎌倉消防署第１１管区20号,長谷二丁目２０番３４号付近,35.310907,139.536602,100,
鎌倉消防署第１１管区21号,長谷二丁目２１番５号付近,35.3101056,139.5370542,150,
鎌倉消防署第１１管区22号,長谷二丁目１６番１３号付近,35.310096,139.535921,300,
鎌倉消防署第１１管区23号,長谷二丁目１６番３号付近,35.311033,139.535788,300,
鎌倉消防署第１１管区24号,長谷二丁目１５番１２号付近,35.311934,139.535509,300,
鎌倉消防署第１１管区25号,長谷二丁目１４番２６号付近,35.312806,139.535345,150,
鎌倉消防署第１１管区26号,長谷二丁目１５番５号付近,35.312056,139.534689,150,
鎌倉消防署第１１管区27号,坂ノ下２番４５号付近,35.31188,139.533837,150,
鎌倉消防署第１１管区28号,坂ノ下８番２２号付近,35.310872,139.534788,100,
鎌倉消防署第１１管区29号,坂ノ下１７番２号付近,35.310468,139.533748,150,
鎌倉消防署第１１管区30号,坂ノ下１３番１８号付近,35.310008,139.534998,300,
鎌倉消防署第１１管区31号,坂ノ下１４番４号付近,35.309498,139.535388,100,
鎌倉消防署第１１管区32号,坂ノ下１５番７号付近,35.309373,139.534486,100,
鎌倉消防署第１１管区33号,坂ノ下１９番１７号付近,35.309893,139.533877,300,
鎌倉消防署第１１管区34号,坂ノ下２３番１２号付近,35.30969,139.532936,300,
鎌倉消防署第１１管区35号,坂ノ下２１番６号付近,35.309023,139.533673,150,
鎌倉消防署第１１管区36号,坂ノ下２４番１９号付近,35.309033,139.532714,100,
鎌倉消防署第１１管区37号,坂ノ下２８番３２号付近,35.307854,139.5324,150,
鎌倉消防署第１１管区38号,坂ノ下２５番１４号付近,35.308071,139.53317,150,
鎌倉消防署第１１管区39号,坂ノ下２７番２２号付近,35.306978,139.5326,150,
鎌倉消防署第１１管区40号,坂ノ下３２番１３号付近,35.306546,139.533102,150,
鎌倉消防署第１１管区41号,坂ノ下３３番３号付近,35.305718,139.532618,150,
鎌倉消防署第１１管区42号,坂ノ下３３番６号付近,35.305604,139.531722,100,
鎌倉消防署第１１管区43号,坂ノ下３４番１号付近,35.304695,139.532028,150,
鎌倉消防署第１１管区44号,坂ノ下６番１２号付近,35.310685,139.53323,100,
鎌倉消防署第１１管区45号,長谷二丁目７番３号付近,35.311295,139.539164,100,
七里ガ浜出張所第４管区1号,極楽寺二丁目１番１３号付近,35.309488,139.530711,300,
七里ガ浜出張所第４管区2号,極楽寺二丁目２６番１９号付近,35.310669,139.530207,100,
七里ガ浜出張所第４管区3号,極楽寺二丁目３番１号付近,35.310977,139.530704,100,
七里ガ浜出張所第４管区4号,極楽寺二丁目３番５号付近,35.311544,139.531071,100,
七里ガ浜出張所第４管区5号,極楽寺三丁目６番１７号付近,35.310516,139.528855,200,
七里ガ浜出張所第４管区6号,極楽寺三丁目２番２０号付近,35.310239,139.527749,100,
七里ガ浜出張所第４管区7号,極楽寺二丁目９番６号付近,35.311742,139.528579,200,
七里ガ浜出張所第４管区8号,極楽寺二丁目１２番３号付近,35.312755,139.529126,200,
七里ガ浜出張所第４管区9号,極楽寺二丁目１４番１５号付近,35.314086,139.530025,200,
七里ガ浜出張所第４管区10号,極楽寺二丁目１５番１１号付近,35.315244,139.530482,200,
七里ガ浜出張所第４管区11号,極楽寺三丁目２番３号付近,35.310955,139.528195,100,
七里ガ浜出張所第４管区12号,極楽寺四丁目１番８号付近,35.311662,139.527257,100,
七里ガ浜出張所第４管区13号,極楽寺四丁目５番２０号付近,35.312769,139.526268,100,
七里ガ浜出張所第４管区14号,極楽寺四丁目７番１７号付近,35.313724,139.526199,100,
七里ガ浜出張所第４管区15号,極楽寺四丁目１１番６号付近,35.314747,139.525828,100,
七里ガ浜出張所第４管区16号,極楽寺二丁目１番２１号付近,35.309739,139.52959,200,
七里ガ浜出張所第４管区17号,極楽寺一丁目３番１号付近,35.309136,139.528886,200,
七里ガ浜出張所第４管区18号,極楽寺一丁目４番３号付近,35.308441,139.528184,200,
七里ガ浜出張所第４管区19号,極楽寺三丁目１１番３号付近,35.307713,139.5275,200,
七里ガ浜出張所第４管区20号,極楽寺三丁目１３番１６号付近,35.307379,139.525924,150,
七里ガ浜出張所第４管区21号,極楽寺三丁目１５番１４号付近,35.30808,139.525415,150,
七里ガ浜出張所第４管区22号,極楽寺三丁目１７番６号付近,35.309113,139.525489,150,
七里ガ浜出張所第４管区23号,極楽寺一丁目６番１０号付近,35.306796,139.526954,200,
七里ガ浜出張所第４管区24号,極楽寺一丁目６番１８号付近,35.306454,139.527321,150,
七里ガ浜出張所第４管区25号,極楽寺一丁目１３番５号付近,35.305848,139.528267,150,
七里ガ浜出張所第４管区26号,極楽寺一丁目１０番１１号付近,35.306722,139.528922,100,
七里ガ浜出張所第４管区27号,極楽寺一丁目１０番１号付近,35.305816,139.528613,150,
七里ガ浜出張所第４管区28号,極楽寺一丁目１２番１５号付近,35.306095,139.529892,150,
七里ガ浜出張所第４管区29号,極楽寺一丁目１１番１４号付近,35.306442,139.530429,100,
七里ガ浜出張所第４管区30号,極楽寺一丁目１３番２６号付近,35.305807,139.530311,100,
七里ガ浜出張所第４管区31号,極楽寺一丁目１３番１６号付近,35.305741,139.52957,150,
七里ガ浜出張所第４管区32号,極楽寺一丁目１５番２３号付近,35.30525,139.528278,100,
七里ガ浜出張所第４管区33号,極楽寺一丁目１４番１３号付近,35.30445,139.528582,100,
七里ガ浜出張所第３管区1号,稲村ガ崎一丁目３番７号付近,35.305471,139.526322,100,
七里ガ浜出張所第３管区2号,稲村ガ崎一丁目５番１１号付近,35.304817,139.526891,75,
七里ガ浜出張所第３管区3号,稲村ガ崎一丁目８番１４号付近,35.304739,139.525769,100,
七里ガ浜出張所第３管区4号,稲村ガ崎一丁目９番２０号付近,35.304145,139.525288,100,
七里ガ浜出張所第３管区5号,稲村ガ崎一丁目９番２７号付近,35.303372,139.524785,100,
七里ガ浜出張所第３管区6号,稲村ガ崎一丁目１５番３１号付近,35.303708,139.523952,100,
七里ガ浜出張所第３管区7号,稲村ガ崎一丁目１０番１０付近,35.304495,139.524755,100,
七里ガ浜出張所第４管区34号,極楽寺三丁目１１番１３号付近,35.307463,139.526958,150,
七里ガ浜出張所第３管区8号,稲村ガ崎一丁目１番６付近,35.306112,139.526567,100,
七里ガ浜出張所第４管区35号,極楽寺二丁目８番１２号付近,35.311072,139.529313,100,
七里ガ浜出張所第４管区36号,極楽寺四丁目３番８号付近,35.312643,139.527483,100,
七里ガ浜出張所第４管区37号,極楽寺一丁目４番３２号付近,35.306723,139.527864,100,
七里ガ浜出張所第３管区9号,稲村ガ崎一丁目２番９号付近,35.306174,139.526116,200,
七里ガ浜出張所第３管区10号,稲村ガ崎一丁目２番１９号付近,35.305642,139.525335,200,
七里ガ浜出張所第３管区11号,稲村ガ崎二丁目４番４号付近,35.305645,139.524577,150,
七里ガ浜出張所第３管区12号,稲村ガ崎一丁目１２番８号付近,35.305146,139.524412,200,
七里ガ浜出張所第３管区13号,稲村ガ崎一丁目１３番２４号付近,35.304378,139.523714,200,
七里ガ浜出張所第３管区14号,稲村ガ崎一丁目１５番１８号付近,35.303715,139.522943,200,
七里ガ浜出張所第３管区15号,稲村ガ崎二丁目７番５号付近,35.303709,139.52204,200,
七里ガ浜出張所第３管区16号,稲村ガ崎三丁目５番６号付近,35.303899,139.520898,150,
七里ガ浜出張所第３管区17号,稲村ガ崎三丁目６番４７号付近,35.303892,139.519993,150,
七里ガ浜出張所第３管区18号,稲村ガ崎三丁目６番３３号４付近,35.303885,139.51885,150,
七里ガ浜出張所第３管区19号,稲村ガ崎三丁目１３番５３号付近,35.30447,139.518781,150,
七里ガ浜出張所第３管区20号,稲村ガ崎三丁目１０番５号付近,35.305842,139.519102,100,
七里ガ浜出張所第３管区21号,稲村ガ崎三丁目１１番１３号付近,35.305102,139.518018,150,
七里ガ浜出張所第３管区22号,稲村ガ崎三丁目１４番４号付近,35.305266,139.516613,100,
七里ガ浜出張所第３管区23号,稲村ガ崎三丁目１２番１号付近,35.305675,139.516808,100,
七里ガ浜出張所第３管区24号,稲村ガ崎三丁目１５番３６号付近,35.303927,139.517679,150,
七里ガ浜出張所第３管区25号,稲村ガ崎三丁目１５番２３号付近,35.303987,139.515964,150,
七里ガ浜出張所第３管区26号,稲村ガ崎二丁目８番３号付近,35.304528,139.521848,200,
七里ガ浜出張所第３管区27号,稲村ガ崎三丁目３番１６号付近,35.304602,139.520885,100,
七里ガ浜出張所第３管区28号,稲村ガ崎二丁目８番２７号付近,35.304331,139.522755,100,
七里ガ浜出張所第３管区29号,稲村ガ崎二丁目８番１９付近,35.304917,139.522425,100,
七里ガ浜出張所第３管区30号,稲村ガ崎二丁目１０番２号付近,35.3055,139.522016,200,
七里ガ浜出張所第３管区31号,稲村ガ崎四丁目１番８号付近,35.30624,139.521055,100,
七里ガ浜出張所第３管区32号,稲村ガ崎四丁目５番１６号付近,35.307101,139.52056,100,
七里ガ浜出張所第３管区33号,稲村ガ崎二丁目１０番１２号付近,35.306356,139.522217,200,
七里ガ浜出張所第３管区34号,稲村ガ崎四丁目１０番５３号付近,35.308651,139.520985,100,
七里ガ浜出張所第３管区35号,稲村ガ崎二丁目１１番５号付近,35.307392,139.522605,200,
七里ガ浜出張所第３管区36号,稲村ガ崎四丁目９番２０号付近,35.308324,139.522806,200,
七里ガ浜出張所第３管区37号,稲村ガ崎二丁目１番３６号付近,35.30688,139.524251,100,
浄明寺出張所第１管区1号,十二所３１６番地８付近,35.324411,139.584541,100,
浄明寺出張所第１管区2号,十二所６５８番地付近,35.324443,139.582969,100,
浄明寺出張所第１管区3号,十二所２８７番地付近,35.325524,139.582503,150,
浄明寺出張所第１管区4号,十二所２９７番地付近,35.324455,139.582054,150,
浄明寺出張所第１管区5号,十二所２９０番地１付近,35.323606,139.581645,150,
浄明寺出張所第１管区6号,十二所１６１番地付近,35.323056,139.581248,150,
浄明寺出張所第１管区7号,十二所１２４番地付近,35.322399,139.580726,150,
浄明寺出張所第１管区8号,十二所７６４番地付近,35.320757,139.580637,150,
浄明寺出張所第１管区9号,十二所１１８番地付近,35.321612,139.580493,150,
浄明寺出張所第１管区10号,十二所７７２番地付近,35.320432,139.579754,150,
浄明寺出張所第１管区11号,十二所７８７番地付近,35.319993,139.580464,150,
浄明寺出張所第１管区12号,十二所８３６番地１６付近,35.319381,139.579773,150,
浄明寺出張所第１管区13号,十二所８３９番地付近,35.318903,139.579993,150,
浄明寺出張所第１管区14号,十二所９０１番地付近,35.318346,139.579285,100,
浄明寺出張所第１管区15号,十二所９１６番地付近,35.319034,139.578999,100,
浄明寺出張所第１管区16号,十二所９２１番地３付近,35.319451,139.578255,100,
浄明寺出張所第１管区17号,十二所８６番地１付近,35.319743,139.578873,200,
浄明寺出張所第１管区18号,十二所９３７番地８付近,35.319116,139.577325,200,
浄明寺出張所第１管区19号,浄明寺五丁目６番３０号付近,35.318529,139.575837,200,
浄明寺出張所第１管区20号,十二所９５２番地７付近,35.318153,139.576213,100,
浄明寺出張所第１管区21号,十二所９６４番地７付近,35.318203,139.577029,200,
浄明寺出張所第１管区22号,十二所９６７番地１４付近,35.317014,139.577967,100,
浄明寺出張所第１管区23号,十二所９６７番地４７付近,35.315995,139.578644,100,
浄明寺出張所第１管区24号,浄明寺六丁目２番８号付近,35.316454,139.576679,200,
浄明寺出張所第１管区25号,浄明寺六丁目３番３１号付近,35.31588,139.577777,100,
浄明寺出張所第１管区26号,浄明寺六丁目５番１号付近,35.315193,139.576731,200,
浄明寺出張所第１管区27号,浄明寺六丁目６番１０号付近,35.314146,139.575989,100,
浄明寺出張所第１管区28号,浄明寺六丁目６番３７号付近,35.315229,139.575447,150,
浄明寺出張所第１管区29号,浄明寺六丁目１０番５号付近,35.31445,139.574588,100,
浄明寺出張所第１管区30号,浄明寺六丁目１０番１２号付近,35.313466,139.574307,150,
浄明寺出張所第１管区31号,浄明寺六丁目１０番２３号付近,35.31493,139.574143,150,
浄明寺出張所第１管区32号,浄明寺六丁目１３番１付近,35.314377,139.572873,200,
浄明寺出張所第１管区33号,浄明寺六丁目１４番５付近,35.314492,139.571886,100,
浄明寺出張所第１管区34号,浄明寺六丁目１５番２２号付近,35.313599,139.571826,100,
浄明寺出張所第１管区35号,浄明寺六丁目１６番６号付近,35.312933,139.570644,200,
浄明寺出張所第１管区36号,浄明寺六丁目１５番５号付近,35.314368,139.571189,200,
浄明寺出張所第１管区37号,浄明寺六丁目１７番６号付近,35.313254,139.569433,200,
浄明寺出張所第１管区38号,浄明寺六丁目１７番１９号付近,35.312958,139.568914,100,
浄明寺出張所第１管区39号,浄明寺六丁目１７番２２号付近,35.313509,139.568691,100,
浄明寺出張所第１管区40号,浄明寺六丁目１９番１号付近,35.312465,139.568312,100,
浄明寺出張所第１管区41号,十二所９７番地１付近,35.319889,139.579389,100,
浄明寺出張所第１管区42号,十二所７９３番地付近,35.319999,139.581196,100,
浄明寺出張所第１管区43号,十二所８０４番地付近,35.319832,139.582032,100,
浄明寺出張所第１管区44号,十二所６６５番地１９付近,35.323947,139.582326,100,
浄明寺出張所第１管区45号,十二所８６４番地４付近,35.318451,139.581005,100,
浄明寺出張所第１管区46号,浄明寺六丁目４番４０号付近,35.315304,139.577791,100,
浄明寺出張所第１管区47号,十二所９６７番地６４付近,35.315018,139.578204,100,
浄明寺出張所第１管区48号,浄明寺六丁目１９番２９号付近,35.3120186,139.5686057,100,
浄明寺出張所第２管区1号,十二所７番地付近,35.319345,139.576503,150,
浄明寺出張所第２管区2号,十二所３３番地付近,35.319967,139.576522,150,
浄明寺出張所第２管区3号,十二所６７番地付近,35.320125,139.577836,150,
浄明寺出張所第２管区4号,十二所１７２番地付近,35.322964,139.580397,100,
浄明寺出張所第２管区5号,十二所１７９番地５付近,35.323457,139.579436,100,
浄明寺出張所第２管区6号,十二所２００番地付近,35.324279,139.579013,100,
浄明寺出張所第２管区7号,十二所１８番地７付近,35.319855,139.575848,100,
浄明寺出張所第２管区8号,十二所２１番地付近,35.320375,139.575307,100,
浄明寺出張所第２管区9号,十二所２１３番地付近,35.324923,139.578862,100,
浄明寺出張所第２管区10号,十二所２３４番地２付近,35.325807,139.578872,100,
浄明寺出張所第２管区11号,十二所１３５番地付近,35.32276,139.5803,100,
浄明寺出張所第３管区1号,雪ノ下６３６番地付近,35.324031,139.562593,150,
浄明寺出張所第３管区2号,二階堂３５番地付近,35.324251,139.563074,150,
浄明寺出張所第３管区3号,二階堂２７番地付近,35.324688,139.563931,250,
浄明寺出張所第３管区4号,二階堂１１番地付近,35.323871,139.563665,250,
浄明寺出張所第３管区5号,二階堂９３６番地１２付近,35.323771,139.564978,100,
浄明寺出張所第３管区6号,二階堂２２番地付近,35.324327,139.564642,250,
浄明寺出張所第３管区7号,二階堂９９番地付近,35.324798,139.564312,150,
浄明寺出張所第３管区8号,二階堂９３番地１４付近,35.325224,139.565277,150,
浄明寺出張所第３管区9号,二階堂１０２番地付近,35.324655,139.565299,250,
浄明寺出張所第３管区10号,二階堂１０８番地付近,35.325145,139.566293,200,
浄明寺出張所第３管区11号,二階堂８５番地付近,35.326219,139.56585,150,
浄明寺出張所第３管区12号,二階堂３７３番地付近,35.326939,139.565588,150,
浄明寺出張所第３管区13号,二階堂３６１番地付近,35.327909,139.565152,150,
浄明寺出張所第３管区14号,二階堂３３８番地付近,35.328724,139.564822,150,
浄明寺出張所第３管区15号,二階堂４１３番地付近,35.329584,139.564376,150,
浄明寺出張所第３管区16号,二階堂１１５番地付近,35.325371,139.56662,250,
浄明寺出張所第３管区17号,二階堂１１８番地付近,35.325796,139.567144,250,
浄明寺出張所第３管区18号,二階堂１２０番地２１付近,35.326232,139.567832,250,
浄明寺出張所第３管区19号,二階堂１４３番地付近,35.326455,139.568171,250,
浄明寺出張所第３管区20号,二階堂１３５番地付近,35.326862,139.568646,250,
浄明寺出張所第３管区21号,二階堂１７８番地付近,35.327154,139.569067,250,
浄明寺出張所第３管区22号,二階堂１９１番地付近,35.327678,139.568539,250,
浄明寺出張所第３管区23号,二階堂２１８番地付近,35.328317,139.568522,100,
浄明寺出張所第３管区24号,二階堂２６３番地付近,35.329211,139.568461,150,
浄明寺出張所第３管区25号,二階堂２６７番地１２１付近,35.329652,139.566261,150,
浄明寺出張所第３管区26号,二階堂２６７番地３７付近,35.330399,139.566457,100,
浄明寺出張所第３管区27号,二階堂２６７番地２２０付近,35.330603,139.565558,150,
浄明寺出張所第３管区28号,二階堂２６７番地６５付近,35.331078,139.566063,100,
浄明寺出張所第３管区29号,二階堂２６７番地２１３付近,35.331275,139.565301,150,
浄明寺出張所第３管区30号,二階堂２６７番地１７５付近,35.331772,139.565661,150,
浄明寺出張所第３管区31号,二階堂２６７番地７３付近,35.331672,139.566439,150,
浄明寺出張所第３管区32号,二階堂２６７番地５１付近,35.331077,139.566965,150,
浄明寺出張所第３管区33号,二階堂２６７番地１５付近,35.330486,139.567303,150,
浄明寺出張所第３管区34号,二階堂４５７番地１４付近,35.330702,139.567727,100,
浄明寺出張所第３管区35号,二階堂２６７番地１０付近,35.329974,139.56758,150,
浄明寺出張所第３管区36号,二階堂２２７番地４付近,35.329332,139.568528,100,
浄明寺出張所第３管区37号,二階堂２４７番地１０付近,35.330504,139.568812,100,
浄明寺出張所第３管区38号,二階堂４５９番地１２付近,35.331226,139.568325,100,
浄明寺出張所第３管区39号,二階堂８５１番地付近,35.323423,139.567599,100,
浄明寺出張所第３管区40号,二階堂８５３番地付近,35.324077,139.567582,100,
浄明寺出張所第３管区41号,二階堂８３８番地１付近,35.32478,139.567509,200,
浄明寺出張所第３管区42号,二階堂８０２番地８付近,35.325458,139.568502,150,
浄明寺出張所第３管区43号,二階堂７５０番地付近,35.326052,139.569206,150,
浄明寺出張所第３管区44号,二階堂７４３番地２付近,35.327248,139.570051,200,
浄明寺出張所第３管区45号,二階堂６８３番地２付近,35.327456,139.571014,150,
浄明寺出張所第３管区46号,二階堂６８５番地１付近,35.327168,139.57174,200,
浄明寺出張所第３管区47号,二階堂７２２番地付近,35.326856,139.572735,200,
浄明寺出張所第３管区48号,二階堂７２５番地付近,35.326215,139.57324,200,
浄明寺出張所第３管区49号,二階堂３９８番地付近,35.330844,139.563832,100,
浄明寺出張所第３管区50号,二階堂８７２番地付近,35.324005,139.565979,100,
浄明寺出張所第３管区51号,二階堂２２７番地２付近,35.32883,139.568859,100,
浄明寺出張所第３管区52号,二階堂２３２番地１付近,35.329468,139.569153,100,
浄明寺出張所第３管区53号,二階堂２４４番地８付近,35.330168,139.569406,100,
浄明寺出張所第３管区54号,二階堂５９５番地付近,35.33075,139.570017,100,
浄明寺出張所第３管区55号,二階堂６０８番地付近,35.331275,139.570948,100,
浄明寺出張所第３管区56号,二階堂６９１番地３付近,35.327579,139.57255,100,
浄明寺出張所第３管区57号,二階堂６９５番地付近,35.328114,139.573061,100,
浄明寺出張所第３管区58号,二階堂２４７番地付近,35.330936,139.569088,100,
浄明寺出張所第３管区59号,二階堂７７３番地４７付近,35.324813,139.569632,100,
浄明寺出張所第３管区60号,二階堂７７３番地１１４付近,35.325205,139.571722,100,
浄明寺出張所第３管区61号,二階堂７５番地付近,35.325432,139.56419,100,
浄明寺出張所第３管区62号,二階堂６７７番地７付近,35.32833,139.571719,100,
浄明寺出張所第３管区63号,二階堂７７３番地１８付近,35.324607,139.571184,100,
浄明寺出張所第３管区64号,二階堂４６５番地２付近,35.332037,139.567788,100,
浄明寺出張所第４管区1号,浄明寺三丁目２番２６号付近,35.3216666,139.5683302,150,
浄明寺出張所第４管区2号,浄明寺三丁目５番３１号付近,35.321328,139.569515,150,
浄明寺出張所第４管区3号,浄明寺三丁目７番４３号付近,35.321257,139.570477,150,
浄明寺出張所第４管区4号,浄明寺三丁目１０番３３号付近,35.320601,139.571401,150,
浄明寺出張所第４管区5号,浄明寺五丁目１番２１号付近,35.320272,139.572078,200,
浄明寺出張所第４管区6号,浄明寺三丁目１３番２８号付近,35.319937,139.572941,150,
浄明寺出張所第４管区7号,浄明寺四丁目２番２９号付近,35.319055,139.573931,150,
浄明寺出張所第４管区8号,浄明寺四丁目２番２号付近,35.319543,139.573659,100,
浄明寺出張所第４管区9号,浄明寺四丁目２番１８号付近,35.319457,139.574404,100,
浄明寺出張所第４管区10号,浄明寺四丁目１番１４付近,35.320392,139.574018,100,
浄明寺出張所第４管区11号,浄明寺四丁目６番３号付近,35.32107,139.573316,100,
浄明寺出張所第４管区12号,浄明寺四丁目５番２０号付近,35.321509,139.573635,150,
浄明寺出張所第４管区13号,浄明寺四丁目５番４８号付近,35.321873,139.573857,100,
浄明寺出張所第４管区14号,浄明寺四丁目６番４０号付近,35.322618,139.573984,150,
浄明寺出張所第４管区15号,浄明寺四丁目１１番４号付近,35.323244,139.574288,100,
浄明寺出張所第４管区16号,浄明寺四丁目１１番１号付近,35.323339,139.574851,100,
浄明寺出張所第４管区17号,浄明寺四丁目１２番１号付近,35.323687,139.574826,100,
浄明寺出張所第４管区18号,浄明寺四丁目１１番７号付近,35.323575,139.574179,100,
浄明寺出張所第４管区19号,浄明寺四丁目１２番１１号付近,35.323905,139.573844,100,
浄明寺出張所第４管区20号,浄明寺四丁目１５番２号付近,35.324047,139.574723,100,
浄明寺出張所第４管区21号,浄明寺四丁目１３番３号付近,35.324146,139.575283,100,
浄明寺出張所第４管区22号,浄明寺四丁目１４番７付近,35.324576,139.575832,100,
浄明寺出張所第４管区23号,浄明寺四丁目１４番３号付近,35.324481,139.575291,100,
浄明寺出張所第４管区24号,浄明寺四丁目１５番１７号付近,35.324391,139.574748,100,
浄明寺出張所第４管区25号,浄明寺四丁目１５番１２号付近,35.324258,139.573914,100,
浄明寺出張所第４管区26号,浄明寺四丁目１７番１０号付近,35.324556,139.573632,100,
浄明寺出張所第４管区27号,浄明寺四丁目１７番１５号付近,35.324687,139.574431,100,
浄明寺出張所第４管区28号,浄明寺四丁目１８番２号付近,35.324777,139.574952,100,
浄明寺出張所第４管区29号,浄明寺四丁目１８番５号付近,35.324859,139.575443,100,
浄明寺出張所第４管区30号,浄明寺四丁目１９番３号付近,35.324734,139.575903,150,
浄明寺出張所第４管区31号,浄明寺四丁目２０番１号付近,35.325088,139.574719,100,
浄明寺出張所第４管区32号,浄明寺四丁目２１番９号付近,35.324921,139.573787,150,
浄明寺出張所第４管区33号,浄明寺四丁目２２番９号付近,35.325337,139.574123,150,
浄明寺出張所第４管区34号,浄明寺四丁目２２番１２号付近,35.325461,139.574898,150,
浄明寺出張所第４管区35号,浄明寺三丁目１１番２３号付近,35.320779,139.57263,150,
浄明寺出張所第４管区36号,浄明寺三丁目１１番３９号付近,35.320949,139.57208,100,
浄明寺出張所第４管区37号,浄明寺三丁目７番１３号付近,35.322062,139.570794,150,
浄明寺出張所第４管区38号,浄明寺三丁目４番２０号付近,35.323128,139.570752,100,
浄明寺出張所第４管区39号,浄明寺三丁目５番１２号付近,35.322108,139.569683,150,
浄明寺出張所第４管区40号,浄明寺三丁目２番９号付近,35.322194,139.568481,150,
浄明寺出張所第４管区41号,浄明寺三丁目１番１９号付近,35.32267,139.568595,100,
浄明寺出張所第４管区42号,浄明寺三丁目７番３１号付近,35.321665,139.571062,100,
浄明寺出張所第４管区43号,浄明寺四丁目７番５３号付近,35.323834,139.572956,100,
浄明寺出張所第４管区44号,浄明寺四丁目７番４５号付近,35.324312,139.572634,100,
浄明寺出張所第４管区45号,浄明寺四丁目５番３８号付近,35.32198,139.574865,100,
浄明寺出張所第４管区46号,浄明寺三丁目６番８号付近,35.321725,139.570159,100,
浄明寺出張所第５管区1号,雪ノ下５６２番地１６付近,35.323177,139.56285,250,
浄明寺出張所第５管区2号,雪ノ下五丁目１番７号付近,35.322961,139.563411,150,
浄明寺出張所第５管区3号,二階堂４番地５付近,35.322829,139.564323,150,
浄明寺出張所第５管区4号,二階堂９３０番地付近,35.322545,139.565286,150,
浄明寺出張所第５管区5号,二階堂９１２番地２２付近,35.322055,139.566453,150,
浄明寺出張所第５管区6号,二階堂９１０番地付近,35.321813,139.567219,150,
浄明寺出張所第５管区7号,雪ノ下五丁目４番１号付近,35.321138,139.563001,100,
浄明寺出張所第５管区8号,雪ノ下五丁目４番６号付近,35.320448,139.563179,100,
浄明寺出張所第５管区9号,浄明寺一丁目１番２号付近,35.322427,139.563295,500,
浄明寺出張所第５管区10号,浄明寺一丁目２番２５号付近,35.322235,139.564069,500,
浄明寺出張所第５管区11号,浄明寺一丁目１番２４号付近,35.32169,139.564882,500,
浄明寺出張所第５管区12号,浄明寺一丁目３番６号付近,35.321014,139.56567,500,
浄明寺出張所第５管区13号,浄明寺一丁目４番３５号付近,35.320377,139.564767,100,
浄明寺出張所第５管区14号,浄明寺一丁目１４番４８号付近,35.3193,139.564102,100,
浄明寺出張所第５管区15号,浄明寺二丁目１番２０号付近,35.320617,139.566506,150,
浄明寺出張所第５管区16号,浄明寺一丁目１１番１３号付近,35.319574,139.566298,100,
浄明寺出張所第５管区17号,浄明寺二丁目２番２２号付近,35.320532,139.567643,150,
浄明寺出張所第５管区18号,浄明寺二丁目４番３２号付近,35.320777,139.568463,150,
浄明寺出張所第５管区19号,浄明寺二丁目５番２６号付近,35.320463,139.569577,100,
浄明寺出張所第５管区20号,浄明寺二丁目６番１１号付近,35.3195,139.569706,100,
浄明寺出張所第５管区21号,浄明寺二丁目７番２３号付近,35.318546,139.569715,100,
浄明寺出張所第５管区22号,浄明寺二丁目１０番３号付近,35.317283,139.570014,100,
浄明寺出張所第５管区23号,浄明寺二丁目１０番１３号付近,35.316556,139.570404,100,
浄明寺出張所第５管区24号,浄明寺二丁目１０番３５号付近,35.315456,139.570604,100,
浄明寺出張所第５管区25号,浄明寺二丁目９番２１号付近,35.314482,139.570352,100,
浄明寺出張所第５管区26号,浄明寺五丁目３番５号付近,35.319367,139.572907,100,
浄明寺出張所第５管区27号,浄明寺五丁目２番３６号付近,35.318145,139.5724,100,
浄明寺出張所第５管区28号,浄明寺五丁目５番１号付近,35.318056,139.57497,100,
浄明寺出張所第５管区29号,浄明寺五丁目７番２９号付近,35.317203,139.574721,100,
浄明寺出張所第５管区30号,浄明寺五丁目９番１７号付近,35.317247,139.573963,100,
浄明寺出張所第５管区31号,浄明寺五丁目１２番１５号付近,35.315647,139.574027,100,
浄明寺出張所第５管区32号,浄明寺五丁目１１番１６号付近,35.316471,139.574509,100,
浄明寺出張所第５管区33号,浄明寺五丁目１１番４４号付近,35.315173,139.573479,100,
浄明寺出張所第５管区34号,浄明寺五丁目１０番２６号付近,35.31651,139.572933,100,
浄明寺出張所第５管区35号,浄明寺五丁目８番２号付近,35.318387,139.574202,100,
浄明寺出張所第５管区36号,浄明寺五丁目４番１９号付近,35.318387,139.573336,100,
浄明寺出張所第５管区37号,浄明寺一丁目５番６号付近,35.319367,139.563306,100,
浄明寺出張所第５管区38号,浄明寺一丁目７番１０号付近,35.319038,139.56384,100,
浄明寺出張所第５管区39号,浄明寺二丁目２番４１号付近,35.321202,139.567831,100,
浄明寺出張所第６管区1号,雪ノ下二丁目１２番２７号付近,35.328928,139.55546,100,
浄明寺出張所第６管区2号,雪ノ下二丁目１２番７号付近,35.328819,139.555969,100,
浄明寺出張所第６管区3号,雪ノ下二丁目１１番８号付近,35.328427,139.555282,200,
浄明寺出張所第６管区4号,雪ノ下二丁目１６番８号付近,35.329571,139.557303,100,
浄明寺出張所第６管区5号,雪ノ下二丁目１４番２５号付近,35.328702,139.556842,100,
浄明寺出張所第６管区6号,雪ノ下二丁目１４番１３号付近,35.327659,139.556209,200,
浄明寺出張所第６管区7号,雪ノ下二丁目１８番１号付近,35.32684,139.556006,200,
浄明寺出張所第６管区8号,雪ノ下二丁目８番２２号付近,35.326209,139.555333,200,
浄明寺出張所第６管区9号,雪ノ下二丁目７番２号付近,35.327245,139.554595,100,
浄明寺出張所第６管区10号,雪ノ下二丁目７番１１号付近,35.328138,139.554696,100,
浄明寺出張所第６管区11号,雪ノ下二丁目１番５３号付近,35.325109,139.554441,200,
浄明寺出張所第６管区12号,雪ノ下二丁目４番３３号付近,35.325465,139.55364,100,
浄明寺出張所第６管区13号,雪ノ下一丁目８番２０号付近,35.324328,139.55377,200,
浄明寺出張所第６管区14号,雪ノ下三丁目２番２号付近,35.323789,139.556951,100,
浄明寺出張所第６管区15号,雪ノ下三丁目２番９号付近,35.32422,139.557292,100,
浄明寺出張所第６管区16号,小町三丁目６番１号付近,35.322604,139.557362,300,
浄明寺出張所第６管区17号,小町三丁目６番１１号付近,35.323364,139.558115,300,
浄明寺出張所第６管区18号,雪ノ下三丁目４番６号付近,35.323975,139.558702,300,
浄明寺出張所第６管区19号,雪ノ下三丁目８番１０号付近,35.32447,139.559768,300,
浄明寺出張所第６管区20号,雪ノ下三丁目６番４号付近,35.325436,139.559989,300,
浄明寺出張所第６管区21号,西御門一丁目４番７号付近,35.325925,139.559477,200,
浄明寺出張所第６管区22号,西御門一丁目３番７号付近,35.326324,139.558594,200,
浄明寺出張所第６管区23号,西御門二丁目２番８号付近,35.326583,139.560103,200,
浄明寺出張所第６管区24号,西御門一丁目１０番４号付近,35.327582,139.560214,200,
浄明寺出張所第６管区25号,西御門一丁目１３番６号付近,35.328525,139.560339,200,
浄明寺出張所第６管区26号,西御門一丁目１５番３号付近,35.329092,139.560066,100,
浄明寺出張所第６管区27号,西御門一丁目１８番９号付近,35.32982,139.559938,100,
浄明寺出張所第６管区28号,西御門一丁目１７番３号付近,35.330614,139.559591,100,
浄明寺出張所第６管区29号,西御門一丁目１９番１１号付近,35.329756,139.560924,100,
浄明寺出張所第６管区30号,西御門一丁目２２番２１号付近,35.33073,139.560929,100,
浄明寺出張所第６管区31号,西御門一丁目２２番５号付近,35.330929,139.561569,100,
浄明寺出張所第６管区32号,西御門二丁目１４番３号付近,35.328462,139.56226,100,
浄明寺出張所第６管区33号,西御門二丁目９番２０号付近,35.327088,139.562966,150,
浄明寺出張所第６管区34号,西御門二丁目８番１８号付近,35.325758,139.563044,150,
浄明寺出張所第６管区35号,二階堂５８番地付近,35.325356,139.562974,250,
浄明寺出張所第６管区36号,西御門二丁目７番２３号付近,35.325442,139.562328,250,
浄明寺出張所第６管区37号,西御門二丁目６番１号付近,35.325507,139.561187,250,
浄明寺出張所第６管区38号,雪ノ下三丁目６番２６号付近,35.324497,139.561166,100,
浄明寺出張所第６管区39号,二階堂３３番地付近,35.324882,139.562893,100,
浄明寺出張所第６管区40号,西御門二丁目３番１２号付近,35.326742,139.561139,100,
浄明寺出張所第６管区41号,雪ノ下二丁目５番２６号付近,35.325691,139.554784,100,
浄明寺出張所第６管区42号,西御門二丁目６番８号付近,35.325961,139.561644,100,
浄明寺出張所第６管区43号,西御門一丁目２１番１８号付近,35.331543,139.560852,100,
浄明寺出張所第７管区1号,雪ノ下一丁目１番１９号付近,35.323927,139.55141,200,
浄明寺出張所第７管区2号,雪ノ下一丁目２番１１号付近,35.323199,139.551046,100,
浄明寺出張所第７管区3号,雪ノ下一丁目５番２２号付近,35.323381,139.552269,100,
浄明寺出張所第７管区4号,雪ノ下二丁目２番１２号付近,35.324107,139.552485,200,
浄明寺出張所第７管区5号,雪ノ下一丁目６番１０号付近,35.323074,139.553111,100,
浄明寺出張所第７管区6号,雪ノ下一丁目８番３２号付近,35.323661,139.55488,300,
浄明寺出張所第７管区7号,雪ノ下一丁目９番２２号付近,35.322719,139.554305,300,
浄明寺出張所第７管区8号,雪ノ下一丁目９番３０号付近,35.322012,139.553857,300,
浄明寺出張所第７管区9号,雪ノ下一丁目１０番１４号付近,35.322095,139.555063,100,
浄明寺出張所第７管区10号,雪ノ下一丁目１２番３０号付近,35.322438,139.555417,100,
浄明寺出張所第７管区11号,小町三丁目３番２号付近,35.321902,139.556671,200,
浄明寺出張所第７管区12号,雪ノ下一丁目１４番１０号付近,35.322986,139.556428,250,
浄明寺出張所第７管区13号,小町三丁目１番３０号付近,35.32078,139.557204,100,
浄明寺出張所第７管区14号,小町三丁目７番１０号付近,35.322796,139.558881,100,
浄明寺出張所第７管区15号,小町三丁目６番２５号付近,35.322638,139.558028,100,
浄明寺出張所第７管区16号,雪ノ下三丁目４番２３号付近,35.323568,139.559033,200,
浄明寺出張所第７管区17号,雪ノ下三丁目８番３０号付近,35.323565,139.560078,200,
浄明寺出張所第７管区18号,雪ノ下三丁目１０番３号付近,35.323532,139.561252,200,
浄明寺出張所第７管区19号,雪ノ下６３６番地１０付近,35.323453,139.562348,150,
浄明寺出張所第７管区20号,雪ノ下四丁目４番３１号付近,35.322904,139.561793,100,
浄明寺出張所第７管区21号,雪ノ下四丁目６番１３号付近,35.321664,139.562172,400,
浄明寺出張所第７管区22号,雪ノ下四丁目６番２３号付近,35.321223,139.56173,400,
浄明寺出張所第７管区23号,雪ノ下四丁目１２番７号付近,35.320583,139.561294,400,
浄明寺出張所第７管区24号,雪ノ下四丁目１２番２０号付近,35.319587,139.560884,400,
浄明寺出張所第７管区25号,雪ノ下四丁目１２番２８号付近,35.31903,139.56107,400,
浄明寺出張所第７管区26号,小町三丁目４番１４号付近,35.321855,139.557865,100,
浄明寺出張所第７管区27号,小町三丁目２番２９号付近,35.32118,139.557579,100,
浄明寺出張所第７管区28号,小町三丁目９番５号付近,35.320839,139.558264,100,
浄明寺出張所第７管区29号,小町三丁目１１番３４号付近,35.320396,139.559177,100,
浄明寺出張所第７管区30号,小町三丁目１０番６号付近,35.321385,139.559421,100,
浄明寺出張所第７管区31号,小町三丁目１１番９号付近,35.319436,139.55831,100,
浄明寺出張所第７管区32号,雪ノ下一丁目１０番６号付近,35.322332,139.554237,150,
浄明寺出張所第７管区33号,雪ノ下一丁目１２番４号付近,35.323234,139.554797,150,
浄明寺出張所第７管区34号,小町三丁目９番５４号付近,35.321873,139.559089,100,
浄明寺出張所第７管区35号,雪ノ下四丁目１４番３号付近,35.319147,139.559889,100,
浄明寺出張所第７管区36号,雪ノ下一丁目９番４号付近,35.322063,139.553288,100,
大船消防署第１管区1号,山ノ内４番地付近,35.329785,139.553328,200,
大船消防署第１管区2号,山ノ内８番地付近,35.330853,139.552611,150,
大船消防署第１管区3号,山ノ内１３２番地付近,35.3316,139.551267,150,
大船消防署第１管区4号,山ノ内１４６番地付近,35.332076,139.550499,150,
大船消防署第１管区5号,山ノ内１４８９番地５付近,35.332962,139.549954,150,
大船消防署第１管区6号,山ノ内１４８３番地付近,35.33355,139.549456,150,
大船消防署第１管区7号,山ノ内１４７６番地付近,35.334014,139.548696,150,
大船消防署第１管区8号,山ノ内１８４番地付近,35.334705,139.548215,100,
大船消防署第１管区9号,山ノ内３１１番地付近,35.335193,139.549247,300,
大船消防署第１管区10号,山ノ内１８８番地付近,35.335555,139.550388,300,
今泉出張所第４管区91号,山ノ内２０７番地付近,35.339078,139.553918,300,
今泉出張所第４管区90号,山ノ内２１７番地付近,35.337729,139.555236,300,
今泉出張所第４管区86号,山ノ内２４６番地付近,35.337778,139.55422,300,
今泉出張所第４管区89号,山ノ内１９７番地付近,35.336464,139.55397,100,
今泉出張所第４管区88号,山ノ内１９７番地５０付近,35.335976,139.553341,100,
今泉出張所第４管区87号,山ノ内２２１番地２付近,35.336609,139.553138,100,
大船消防署第１管区17号,山ノ内３２１番地付近,35.335456,139.548477,100,
大船消防署第１管区18号,山ノ内３７９番地付近,35.335433,139.547406,100,
大船消防署第１管区19号,山ノ内３９０番地付近,35.335994,139.54681,100,
大船消防署第１管区20号,山ノ内４１０番地付近,35.336703,139.54605,100,
大船消防署第１管区21号,山ノ内６９６番地付近,35.341182,139.54112,100,
大船消防署第１管区22号,山ノ内６３６番地付近,35.340689,139.54215,100,
大船消防署第１管区23号,山ノ内６０９番地付近,35.34001,139.543097,75,
大船消防署第１管区24号,山ノ内６２５番地付近,35.341055,139.5428,100,
大船消防署第１管区25号,山ノ内６５４番地付近,35.341693,139.54324,100,
今泉出張所第４管区85号,山ノ内２３４番地付近,35.336967,139.552918,100,
大船消防署第１管区27号,山ノ内１４３番地付近,35.332119,139.55109,100,
今泉出張所第４管区84号,山ノ内２５６番地２０付近,35.336434,139.551794,100,
大船消防署第１管区29号,山ノ内１５３番地付近,35.332724,139.550551,100,
大船消防署第１管区30号,山ノ内１５０８番地付近,35.330668,139.550346,100,
大船消防署第１管区31号,山ノ内４９７番地付近,35.337856,139.544817,100,
大船消防署第２管区1号,山ノ内１３９７番地付近,35.334641,139.54752,200,
大船消防署第２管区2号,山ノ内１４０９番地付近,35.332497,139.546819,100,
大船消防署第２管区3号,山ノ内１３８５番地付近,35.335319,139.54668,200,
大船消防署第２管区4号,山ノ内１３５６番地付近,35.336101,139.545806,200,
大船消防署第２管区5号,山ノ内５０１番地付近,35.336756,139.545225,200,
大船消防署第２管区6号,山ノ内１３４５番地付近,35.336903,139.544883,400,
大船消防署第２管区7号,山ノ内５１１番地付近,35.337521,139.544393,200,
大船消防署第２管区8号,山ノ内１３３４番地付近,35.337274,139.543532,250,
大船消防署第２管区9号,山ノ内９５９番地付近,35.336907,139.543367,100,
大船消防署第２管区10号,山ノ内１２９８番地付近,35.336164,139.543068,500,
大船消防署第２管区11号,山ノ内９６７番地付近,35.335633,139.542774,100,
大船消防署第２管区12号,山ノ内１０４７番地付近,35.335013,139.542648,500,
大船消防署第２管区13号,山ノ内１１０５番地付近,35.334069,139.542519,100,
大船消防署第２管区14号,山ノ内１１０７番地付近,35.333462,139.542463,500,
大船消防署第２管区15号,山ノ内１１１９番地付近,35.332839,139.542242,100,
大船消防署第２管区16号,山ノ内１１６３番地付近,35.332238,139.541728,100,
大船消防署第２管区17号,山ノ内１１６２番地１０付近,35.331284,139.541823,500,
大船消防署第２管区18号,山ノ内１１８３番地１３付近,35.330186,139.541968,500,
大船消防署第２管区19号,山ノ内１１８３番地１付近,35.330329,139.540831,500,
大船消防署第２管区20号,山ノ内１０９５番地付近,35.331888,139.540738,100,
大船消防署第２管区21号,山ノ内１０９５番地付近,35.332037,139.539934,100,
大船消防署第２管区22号,山ノ内１０８１番地付近,35.333167,139.540432,100,
大船消防署第２管区23号,山ノ内１０８２番地付近,35.332385,139.539935,100,
大船消防署第２管区24号,山ノ内９７２番地付近,35.335402,139.541789,100,
大船消防署第２管区25号,山ノ内９９９番地付近,35.334825,139.541003,100,
大船消防署第２管区26号,山ノ内９８８番地付近,35.334842,139.539844,100,
大船消防署第２管区27号,山ノ内９０４番地付近,35.335748,139.541552,150,
大船消防署第２管区28号,山ノ内９１３番地付近,35.336325,139.541424,150,
大船消防署第２管区29号,山ノ内８７０番地付近,35.337344,139.541271,150,
大船消防署第２管区30号,山ノ内８６８番地付近,35.337735,139.540319,150,
大船消防署第２管区31号,山ノ内８５６番地付近,35.338726,139.541191,100,
大船消防署第２管区32号,山ノ内８１５番地付近,35.339447,139.540094,100,
大船消防署第２管区33号,山ノ内８５０番地付近,35.338275,139.542335,100,
大船消防署第２管区34号,山ノ内９５１番地付近,35.337631,139.543344,250,
大船消防署第２管区35号,山ノ内７５０番地付近,35.3381,139.543679,200,
大船消防署第２管区36号,山ノ内７４６番地付近,35.338715,139.542763,200,
大船消防署第２管区37号,山ノ内７３９番地付近,35.339299,139.542009,200,
大船消防署第２管区38号,山ノ内７３３番地付近,35.339912,139.541233,200,
大船消防署第２管区39号,山ノ内７２９番地付近,35.340406,139.540275,200,
大船消防署第２管区40号,山ノ内１０６１番地４付近,35.333977,139.541508,100,
大船消防署第２管区41号,山ノ内８８２番地付近,35.336652,139.540667,100,
大船消防署第２管区42号,山ノ内１３２１番地付近,35.337199,139.544068,100,
大船消防署第２管区43号,山ノ内１４１５番地付近,35.331489,139.546393,100,
大船消防署第２管区44号,山ノ内８５４番地付近,35.338365,139.541707,100,
大船消防署第２管区45号,山ノ内１２１７番地付近,35.33328,139.542883,100,
大船消防署第３管区1号,小袋谷二丁目２１番２５号付近,35.341892,139.53751,200,
大船消防署第３管区2号,小袋谷二丁目２１番３６号付近,35.342734,139.536863,100,
大船消防署第３管区3号,小袋谷二丁目２０番３２号付近,35.342743,139.537797,200,
大船消防署第３管区4号,小袋谷二丁目２０番１２号付近,35.342961,139.538398,75,
大船消防署第３管区5号,小袋谷二丁目１７番２０号付近,35.343652,139.538465,100,
大船消防署第３管区6号,小袋谷二丁目１５番２４号付近,35.3444,139.53758,100,
大船消防署第３管区7号,小袋谷二丁目１６番３６号付近,35.344069,139.536949,100,
大船消防署第３管区8号,小袋谷二丁目１２番１３号付近,35.343397,139.53659,150,
大船消防署第３管区9号,小袋谷二丁目１０番４号付近,35.344141,139.535125,100,
大船消防署第３管区10号,小袋谷二丁目８番２号付近,35.344192,139.535961,100,
大船消防署第３管区11号,小袋谷二丁目６番２号付近,35.34458,139.536122,150,
大船消防署第３管区12号,小袋谷二丁目７番１７号付近,35.344652,139.535375,100,
大船消防署第３管区14号,小袋谷二丁目１４番４１号付近,35.345438,139.535811,150,
大船消防署第３管区15号,小袋谷二丁目４番１１号付近,35.345269,139.53476,100,
大船消防署第３管区16号,小袋谷一丁目８番２２号付近,35.346368,139.533243,200,
大船消防署第３管区17号,小袋谷一丁目７番３号付近,35.347347,139.532416,200,
大船消防署第３管区18号,小袋谷一丁目６番１１号付近,35.348579,139.532392,200,
大船消防署第３管区19号,小袋谷一丁目３番１２号付近,35.349759,139.530785,150,
大船消防署第３管区20号,大船一丁目１番２０号付近,35.34939,139.52967,150,
大船消防署第３管区21号,小袋谷６１５番地５付近,35.342726,139.53931,200,
大船消防署第３管区22号,小袋谷二丁目１８番２号付近,35.343826,139.539415,200,
大船消防署第３管区23号,小袋谷一丁目５番１８号付近,35.348996,139.531351,100,
大船消防署第３管区24号,大船四丁目１７番３５号付近,35.344408,139.538562,200,
大船消防署第３管区25号,大船四丁目１７番４５号付近,35.344862,139.53774,200,
大船消防署第３管区26号,大船四丁目１６番２３号付近,35.345252,139.537036,200,
大船消防署第３管区27号,大船四丁目１６番３３号付近,35.345633,139.536316,200,
大船消防署第３管区28号,大船三丁目１７番２１号付近,35.346813,139.534806,200,
大船消防署第３管区29号,大船１１６８番地付近,35.344402,139.540349,100,
大船消防署第３管区30号,小袋谷一丁目９番４１号付近,35.347669,139.533763,200,
大船消防署第３管区31号,小袋谷一丁目７番２７号付近,35.348418,139.532968,200,
大船消防署第３管区32号,小袋谷一丁目６番７号付近,35.349091,139.532217,200,
大船消防署第３管区33号,大船三丁目５番１０号付近,35.348687,139.532763,100,
大船消防署第３管区34号,小袋谷二丁目１６番２６号付近,35.343698,139.537886,100,
大船消防署第３管区35号,小袋谷二丁目２番１３号付近,35.34589,139.534685,100,
大船消防署第３管区36号,小袋谷二丁目１５番３５号付近,35.34459,139.536657,150,
大船消防署第３管区37号,小袋谷二丁目１番１２号付近,35.346107,139.535531,300,
大船消防署第３管区38号,小袋谷二丁目２１番１６号付近,35.341598,139.538237,200,
大船消防署第３管区39号,小袋谷二丁目２番４３号付近,35.346667,139.533914,250,
大船消防署第４管区1号,大船一丁目１２番１７号付近,35.350834,139.531223,150,
大船消防署第４管区2号,大船一丁目１１番１７号付近,35.351578,139.53149,150,
大船消防署第４管区3号,大船一丁目１１番２３号付近,35.352198,139.531667,150,
大船消防署第４管区4号,大船一丁目４番１号付近,35.352989,139.531678,150,
大船消防署第４管区5号,大船一丁目７番１号付近,35.353734,139.532125,100,
大船消防署第４管区6号,大船一丁目２６番３３号付近,35.354156,139.532911,100,
大船消防署第４管区7号,大船一丁目２７番３０号付近,35.354742,139.533257,100,
大船消防署第４管区8号,大船一丁目２７番２２号付近,35.354354,139.534447,150,
大船消防署第４管区9号,大船一丁目２４番３０号付近,35.353373,139.533634,100,
大船消防署第４管区10号,大船一丁目２５番３７号付近,35.353594,139.532737,200,
大船消防署第４管区11号,大船一丁目２３番１１号付近,35.35293,139.533232,100,
大船消防署第４管区12号,大船一丁目２３番２６号付近,35.352584,139.533189,100,
大船消防署第４管区13号,大船一丁目２３番１号付近,35.352777,139.532434,100,
大船消防署第４管区14号,大船一丁目２１番９号付近,35.352016,139.533373,150,
大船消防署第４管区15号,大船一丁目１８番１３号付近,35.351366,139.532623,150,
大船消防署第４管区16号,大船二丁目３番１号付近,35.351613,139.533288,150,
大船消防署第４管区17号,大船二丁目３番９号付近,35.351408,139.53425,150,
大船消防署第４管区18号,大船一丁目１６番付近,35.350929,139.532251,100,
大船消防署第４管区19号,大船一丁目１５番２号付近,35.351047,139.531774,100,
大船消防署第４管区20号,大船一丁目１３番７号付近,35.350611,139.532187,150,
大船消防署第４管区21号,大船三丁目１番８号付近,35.350325,139.531982,200,
大船消防署第４管区22号,大船一丁目１４番１７号付近,35.34993,139.532842,200,
大船消防署第４管区23号,大船三丁目８番１７号付近,35.349359,139.533683,100,
大船消防署第４管区24号,大船二丁目１０番３７号付近,35.350171,139.534061,150,
大船消防署第４管区25号,大船二丁目１０番３号付近,35.350709,139.534516,200,
大船消防署第４管区26号,大船二丁目６番３９号付近,35.352324,139.534313,100,
大船消防署第４管区27号,大船二丁目１６番４５号付近,35.352519,139.534945,100,
大船消防署第４管区28号,大船二丁目１７番４５号付近,35.353192,139.534401,200,
大船消防署第４管区29号,大船二丁目１８番２８号付近,35.353576,139.535348,100,
大船消防署第４管区30号,大船二丁目１９番１２号付近,35.354623,139.535487,100,
大船消防署第４管区31号,大船二丁目１８番２０号付近,35.353999,139.535897,150,
大船消防署第４管区32号,大船二丁目２１番３号付近,35.353489,139.536115,200,
大船消防署第４管区33号,大船二丁目１６番３３号付近,35.352774,139.536204,100,
大船消防署第４管区34号,大船二丁目１４番２８号付近,35.35222,139.536263,200,
大船消防署第４管区35号,大船二丁目９番４号付近,35.351279,139.535833,200,
大船消防署第４管区36号,大船二丁目６番２５号付近,35.35196,139.535783,100,
大船消防署第４管区37号,大船二丁目９番１３号付近,35.350564,139.53542,200,
大船消防署第４管区38号,大船二丁目１０番２０号付近,35.349729,139.535005,200,
大船消防署第４管区39号,大船二丁目１０番２５号付近,35.349624,139.534567,200,
大船消防署第４管区40号,大船三丁目１２番２号付近,35.348868,139.535374,200,
大船消防署第４管区41号,大船三丁目１１番１１号付近,35.348451,139.534952,100,
大船消防署第４管区42号,大船三丁目１２番１７号付近,35.347678,139.53539,250,
大船消防署第４管区43号,大船三丁目１７番９号付近,35.346505,139.53539,150,
大船消防署第４管区44号,大船三丁目１３番８号付近,35.348362,139.536075,250,
大船消防署第４管区45号,大船二丁目２４番２２号付近,35.352044,139.537344,200,
大船消防署第４管区46号,大船二丁目２３番１４号付近,35.352708,139.537292,200,
大船消防署第４管区47号,大船二丁目２１番１４号付近,35.353565,139.537206,150,
大船消防署第４管区48号,大船二丁目２６番７号付近,35.35364,139.53758,100,
大船消防署第４管区49号,大船二丁目２６番２１号付近,35.354259,139.537559,100,
大船消防署第４管区50号,大船二丁目２０番２３号付近,35.354564,139.537165,150,
大船消防署第４管区51号,大船三丁目６番２１号付近,35.347446,139.534193,100,
大船消防署第４管区52号,大船三丁目６番６号付近,35.348685,139.533426,100,
大船消防署第４管区53号,大船一丁目２５番３０号付近,35.353942,139.533643,200,
大船消防署第４管区54号,大船三丁目３番３号付近,35.349364,139.532599,200,
大船消防署第４管区55号,大船三丁目１５番１６号付近,35.347113,139.536123,100,
大船消防署第４管区56号,大船三丁目１５番５号付近,35.347915,139.53646,100,
大船消防署第４管区57号,大船二丁目１番１号付近,35.351001,139.533379,150,
大船消防署第４管区58号,大船一丁目２７番１１号付近,35.354854,139.534277,100,
大船消防署第４管区59号,大船二丁目１４番３３付近,35.351825,139.536993,300,
大船消防署第４管区60号,大船一丁目１９番１９号付近,35.351661,139.53187,150,
大船消防署第４管区61号,大船一丁目２２番２１号付近,35.35216,139.532034,150,
大船消防署第４管区62号,大船三丁目８番６号付近,35.348862,139.534108,100,
大船消防署第４管区63号,大船三丁目２番１号付近,35.349743,139.531739,200,
大船消防署第４管区64号,大船二丁目１９番２０号付近,35.354657,139.536242,150,
大船消防署第４管区65号,大船二丁目１番２３号付近,35.349712,139.533699,200,
大船消防署第４管区66号,大船二丁目２１番２３号付近,35.353194,139.536603,100,
大船消防署第４管区67号,大船三丁目１１番４１号付近,35.349055,139.534752,100,
大船消防署第４管区68号,大船三丁目１１番２９号付近,35.347946,139.534724,100,
大船消防署第４管区69号,大船一丁目５番１号付近,35.354211,139.532153,150,
大船消防署第４管区70号,大船一丁目１９番６号付近,35.351603,139.532507,100,
大船消防署第４管区71号,大船二丁目３番１８号付近,35.351286,139.533644,100,
大船消防署第４管区72号,大船二丁目１番３４号付近,35.350575,139.533173,100,
大船消防署第４管区73号,大船二丁目７番２６号付近,35.351721,139.53479,100,
大船消防署第４管区74号,大船二丁目１２番７号付近,35.350615,139.536297,100,
大船消防署第４管区75号,大船二丁目２６番８号付近,35.354291,139.537244,300,
大船消防署第４管区76号,大船一丁目１２番１７号付近,35.350896,139.531121,200,
大船消防署第４管区77号,大船一丁目１１番１７号付近,35.351674,139.531385,200,
大船消防署第４管区78号,大船一丁目１０番１４号付近,35.352452,139.531662,200,
大船消防署第４管区79号,大船一丁目２４番１号付近,35.353144,139.532474,100,
大船消防署第５管区4号,大船四丁目１番２５号付近,35.348265,139.536897,150,
大船消防署第５管区5号,大船四丁目３番３２号付近,35.347665,139.53844,150,
大船消防署第５管区6号,大船四丁目５番１８号付近,35.34716,139.538727,100,
大船消防署第５管区7号,大船四丁目１１番２４号付近,35.346179,139.538252,100,
大船消防署第５管区8号,大船四丁目２番１９付近,35.346492,139.537568,100,
大船消防署第５管区9号,大船四丁目１１番１６号付近,35.34543,139.537873,100,
大船消防署第５管区10号,大船四丁目９番１号付近,35.346025,139.538893,100,
大船消防署第５管区11号,大船四丁目２０番４号付近,35.347119,139.539918,150,
大船消防署第５管区12号,大船四丁目２１番１５号付近,35.346523,139.541403,150,
大船消防署第５管区13号,大船五丁目２番３３号付近,35.348301,139.538314,100,
大船消防署第５管区14号,大船五丁目３番６号付近,35.348957,139.538636,100,
大船消防署第５管区15号,大船五丁目３番１２号付近,35.349707,139.539099,100,
大船消防署第５管区16号,大船五丁目４番１７号付近,35.35066,139.539218,100,
大船消防署第５管区17号,大船五丁目１３番１８号付近,35.350443,139.539749,100,
大船消防署第５管区18号,大船五丁目１３番１１号付近,35.34953,139.540183,100,
大船消防署第５管区19号,大船五丁目１４番２７号付近,35.348917,139.541086,100,
大船消防署第５管区20号,大船五丁目１４番１８号付近,35.348588,139.542352,100,
大船消防署第５管区21号,大船五丁目１２番１５号付近,35.349214,139.541533,100,
大船消防署第５管区22号,大船六丁目１２番５３号付近,35.350106,139.540611,200,
大船消防署第５管区23号,大船六丁目５番８号付近,35.350787,139.540345,100,
大船消防署第５管区24号,大船六丁目５番２３号付近,35.350036,139.541767,100,
大船消防署第５管区25号,大船六丁目８番１４号付近,35.351086,139.54217,100,
大船消防署第５管区26号,大船六丁目８番８号付近,35.351469,139.54203,100,
大船消防署第５管区27号,大船六丁目１１番１５号付近,35.352319,139.542375,100,
大船消防署第５管区28号,大船六丁目９番２３号付近,35.352611,139.542835,100,
大船消防署第５管区29号,大船六丁目１１番３号付近,35.353014,139.542825,100,
大船消防署第５管区30号,大船六丁目１０番５４号付近,35.352966,139.541185,150,
大船消防署第５管区31号,大船六丁目１０番４７号付近,35.352285,139.541119,150,
大船消防署第５管区32号,大船六丁目１０番３１号付近,35.35173,139.541547,100,
大船消防署第５管区33号,大船六丁目４番４４号付近,35.351766,139.540798,150,
大船消防署第５管区34号,大船六丁目４番３８号付近,35.351165,139.541168,100,
大船消防署第５管区35号,大船五丁目１０番１号付近,35.348221,139.542023,100,
大船消防署第５管区36号,大船四丁目１９番２７号付近,35.345991,139.539808,100,
大船消防署第５管区37号,大船四丁目１８番３号付近,35.345256,139.540017,100,
大船消防署第５管区38号,大船五丁目９番７号付近,35.347031,139.542042,300,
大船消防署第５管区39号,大船五丁目１１番１２号付近,35.347957,139.542519,300,
大船消防署第５管区40号,大船六丁目７番２０号付近,35.350757,139.541645,100,
大船消防署第５管区41号,大船五丁目７番１３号付近,35.348472,139.539827,100,
大船消防署第５管区42号,大船五丁目８番２９号付近,35.347799,139.540406,100,
大船消防署第５管区43号,大船五丁目９番３２号付近,35.347959,139.541263,100,
大船消防署第５管区44号,大船四丁目１９番４７号付近,35.345124,139.539073,100,
大船消防署第５管区45号,大船六丁目９番２９号付近,35.352061,139.542617,400,
大船消防署第５管区46号,大船五丁目３番２７号付近,35.348911,139.539586,100,
大船消防署第６管区1号,大船２２１６番地付近,35.344047,139.544407,100,
大船消防署第６管区2号,大船２１４３番地付近,35.343271,139.540219,200,
大船消防署第６管区3号,大船２３０４番地付近,35.344049,139.541875,200,
大船消防署第６管区4号,大船１２６１番地付近,35.345334,139.542659,200,
大船消防署第６管区5号,大船１２４４番地付近,35.345124,139.541612,100,
大船消防署第６管区6号,大船１１８２番地付近,35.345282,139.540873,100,
大船消防署第６管区7号,大船１２７３番地付近,35.34585,139.541234,100,
大船消防署第６管区8号,大船２１７２番地付近,35.344714,139.543915,100,
大船消防署第６管区9号,大船１２９８番地付近,35.346164,139.542684,200,
大船消防署第６管区10号,大船１４６０番地付近,35.346561,139.543836,200,
大船消防署第６管区11号,大船２０６１番地付近,35.346303,139.544897,150,
大船消防署第６管区12号,大船１４６９番地付近,35.347565,139.544096,150,
大船消防署第６管区13号,大船１９４５番地付近,35.347593,139.54438,100,
大船消防署第６管区14号,大船１８９０番地付近,35.348787,139.543515,100,
大船消防署第６管区15号,大船１８７７番地付近,35.348951,139.542932,100,
大船消防署第６管区16号,大船１７６１番地付近,35.349828,139.542758,150,
大船消防署第６管区17号,大船１７６７番地４付近,35.349894,139.543306,150,
大船消防署第６管区18号,大船１８０３番地２付近,35.349906,139.544025,150,
大船消防署第６管区19号,大船１８０６番地７付近,35.350267,139.54492,150,
大船消防署第６管区20号,大船１８０６番地１２１付近,35.350998,139.545002,150,
大船消防署第６管区21号,大船１８０６番地１３付近,35.351645,139.5449,100,
大船消防署第６管区22号,大船１８０６番地５４付近,35.351372,139.545817,150,
大船消防署第６管区23号,大船１８０６番地４６付近,35.350873,139.546333,150,
大船消防署第６管区24号,大船１８０６番地５９付近,35.350387,139.545824,150,
大船消防署第６管区25号,大船１８２０番地２０付近,35.350373,139.546334,150,
大船消防署第６管区26号,大船１８０６番地６８付近,35.350903,139.546809,100,
大船消防署第６管区27号,大船１８２０番地１６付近,35.350156,139.546982,150,
大船消防署第６管区28号,大船１８２０番地３５付近,35.349528,139.546367,150,
大船消防署第６管区29号,大船１８２０番地４６付近,35.349654,139.545674,150,
大船消防署第６管区30号,大船１９５６番地３付近,35.349082,139.545955,150,
大船消防署第６管区31号,大船１８２０番地６４付近,35.349403,139.545206,100,
大船消防署第６管区32号,大船１７５０番地付近,35.351294,139.542494,100,
大船消防署第６管区33号,大船１７０９番地２２付近,35.351765,139.543263,100,
大船消防署第６管区34号,大船１７８０番地９付近,35.351426,139.543536,100,
大船消防署第６管区35号,大船１４５９番地付近,35.34736,139.543235,100,
大船消防署第６管区36号,大船１６９２番地付近,35.352064,139.544195,100,
大船消防署第６管区37号,大船２１５９番地付近,35.344995,139.54319,200,
大船消防署第６管区38号,大船１９４９番地付近,35.347462,139.545135,100,
大船消防署第６管区39号,大船１９６１番地付近,35.348285,139.545802,100,
大船消防署第６管区40号,大船２０９８番地付近,35.345708,139.543647,150,
大船消防署第６管区41号,大船２０８４番地付近,35.346149,139.544211,150,
大船消防署第６管区42号,大船２０２８番地６付近,35.346469,139.545409,150,
大船消防署第６管区43号,大船１９８０番地７付近,35.34674,139.54704,150,
大船消防署第６管区44号,大船１９８３番地４付近,35.34658,139.547673,100,
大船消防署第６管区45号,高野６番地１付近,35.343316,139.54368,100,
大船消防署第６管区46号,高野２０番地５付近,35.342941,139.544726,150,
大船消防署第６管区47号,高野２１番地９付近,35.341724,139.545551,150,
大船消防署第６管区48号,高野２１番地１７付近,35.341523,139.546483,150,
大船消防署第６管区49号,高野２４番地２付近,35.342535,139.54652,150,
大船消防署第６管区50号,高野２４番地２４付近,35.342746,139.545933,100,
大船消防署第６管区51号,高野１８番地１付近,35.343486,139.545798,150,
大船消防署第６管区52号,高野９番地８付近,35.343889,139.546537,200,
大船消防署第６管区53号,高野１７番地４付近,35.34411,139.547643,200,
大船消防署第６管区54号,高野１６番地２付近,35.344436,139.548376,100,
大船消防署第６管区55号,高野１４番地１付近,35.345852,139.547876,100,
大船消防署第６管区56号,高野１６番地１３付近,35.344885,139.549146,100,
大船消防署第６管区57号,高野２７番地１８付近,35.343915,139.548774,150,
大船消防署第６管区58号,高野１７番地１８付近,35.343745,139.547779,150,
大船消防署第６管区59号,高野２７番地４付近,35.343611,139.546835,150,
大船消防署第６管区60号,高野２７番地３８付近,35.343021,139.546599,100,
大船消防署第６管区61号,高野２６番地１７付近,35.342758,139.546918,100,
大船消防署第６管区62号,高野２６番地１１付近,35.34332,139.547557,100,
大船消防署第６管区63号,高野２７番地２３付近,35.343376,139.548094,100,
大船消防署第６管区64号,大船１７８３番地３付近,35.350465,139.543389,100,
大船消防署第６管区65号,台１９８０番地５８付近,35.342743,139.542896,100,
大船消防署第６管区66号,台１９８０番地４２付近,35.342366,139.541759,100,
大船消防署第６管区67号,山ノ内６７２番地付近,35.34179,139.54203,100,
大船消防署第６管区68号,山ノ内６７２番地付近,35.342284,139.542684,100,
大船消防署第６管区69号,大船２２００番地２５付近,35.342688,139.544065,100,
玉縄出張所第１管区1号,玉縄三丁目７２４番地付近,35.35049,139.52078,100,
玉縄出張所第１管区2号,玉縄一丁目１４番地３付近,35.350098,139.521428,200,
玉縄出張所第１管区3号,玉縄一丁目９番地５付近,35.350802,139.522441,200,
玉縄出張所第１管区4号,玉縄三丁目７１０番地１付近,35.351083,139.521577,100,
玉縄出張所第１管区5号,玉縄三丁目６０４番地付近,35.351955,139.522659,100,
玉縄出張所第１管区6号,玉縄一丁目３番地７付近,35.351707,139.523226,200,
玉縄出張所第１管区7号,玉縄一丁目５番地１０付近,35.352123,139.524308,100,
玉縄出張所第１管区8号,玉縄一丁目６番地６付近,35.351266,139.524159,100,
玉縄出張所第１管区9号,玉縄一丁目６番地２０付近,35.351616,139.524554,100,
玉縄出張所第１管区10号,玉縄一丁目６番地１２付近,35.352148,139.52496,100,
玉縄出張所第１管区11号,玉縄一丁目６番地１付近,35.352634,139.524901,100,
玉縄出張所第１管区12号,玉縄一丁目２番地５付近,35.352861,139.524173,200,
玉縄出張所第１管区13号,玉縄三丁目５９２番地付近,35.3529,139.523519,100,
玉縄出張所第１管区14号,玉縄三丁目５８６番地１付近,35.354088,139.523301,100,
玉縄出張所第１管区15号,玉縄三丁目５７７番地付近,35.353886,139.524029,100,
玉縄出張所第１管区16号,玉縄一丁目１番地２付近,35.354115,139.524738,200,
玉縄出張所第１管区17号,玉縄一丁目１番地１５付近,35.353497,139.52515,100,
玉縄出張所第１管区18号,玉縄一丁目１番地９付近,35.352943,139.525006,100,
玉縄出張所第１管区19号,玉縄二丁目２番地８付近,35.355096,139.525213,100,
玉縄出張所第１管区20号,玉縄二丁目２番地４付近,35.354848,139.524497,100,
玉縄出張所第１管区21号,玉縄二丁目３番地３付近,35.355569,139.524659,150,
玉縄出張所第１管区22号,玉縄二丁目５２３番地付近,35.356064,139.523951,100,
玉縄出張所第１管区23号,玉縄二丁目５番地８付近,35.355388,139.524233,100,
玉縄出張所第１管区24号,玉縄二丁目８番地１２付近,35.355817,139.523443,100,
玉縄出張所第１管区25号,玉縄二丁目８番地５付近,35.356463,139.522647,100,
玉縄出張所第１管区26号,玉縄二丁目６番地１２付近,35.355334,139.523219,100,
玉縄出張所第１管区27号,玉縄三丁目１番地２付近,35.354617,139.523839,200,
玉縄出張所第１管区28号,玉縄三丁目１番地１付近,35.355275,139.522819,200,
玉縄出張所第１管区29号,玉縄二丁目９番地付近,35.355684,139.522477,200,
玉縄出張所第１管区30号,玉縄四丁目１番地１付近,35.356691,139.520632,200,
玉縄出張所第１管区31号,玉縄二丁目１４番地１０付近,35.357039,139.52081,150,
玉縄出張所第１管区32号,玉縄二丁目１２番地１付近,35.356984,139.521594,100,
玉縄出張所第１管区33号,玉縄二丁目２２番地１３付近,35.357583,139.521648,150,
玉縄出張所第１管区34号,玉縄二丁目２２番地７付近,35.35803,139.522582,150,
玉縄出張所第１管区35号,玉縄二丁目２０番地４付近,35.358914,139.522529,150,
玉縄出張所第１管区36号,玉縄二丁目２１番地４付近,35.358503,139.522039,100,
玉縄出張所第１管区37号,玉縄二丁目２２番地３付近,35.357962,139.521456,100,
玉縄出張所第１管区38号,玉縄二丁目１６番地１付近,35.357975,139.520369,100,
玉縄出張所第１管区39号,玉縄二丁目１４番地５付近,35.357644,139.519909,200,
玉縄出張所第１管区40号,玉縄二丁目１５番地５付近,35.358352,139.519512,200,
玉縄出張所第１管区41号,玉縄二丁目１６番地４付近,35.358632,139.519966,150,
玉縄出張所第１管区42号,玉縄二丁目１８番地２３付近,35.359031,139.52106,150,
玉縄出張所第１管区43号,玉縄五丁目２９番地３付近,35.359577,139.521563,100,
玉縄出張所第１管区44号,玉縄五丁目３１番地９付近,35.360189,139.522288,150,
玉縄出張所第１管区45号,玉縄五丁目２０番地８付近,35.36007,139.520887,100,
玉縄出張所第１管区46号,玉縄五丁目２４番地２付近,35.360623,139.521273,150,
玉縄出張所第１管区47号,玉縄五丁目１６番地２１付近,35.361391,139.520956,100,
玉縄出張所第１管区48号,玉縄五丁目１６番地１６付近,35.36152,139.520134,100,
玉縄出張所第１管区49号,玉縄五丁目１２番地２５付近,35.360846,139.519758,100,
玉縄出張所第１管区50号,玉縄五丁目１２番地５付近,35.359731,139.520202,100,
玉縄出張所第１管区51号,玉縄五丁目１２番地３１付近,35.360403,139.51943,150,
玉縄出張所第１管区52号,玉縄五丁目８番地６付近,35.359564,139.519195,150,
玉縄出張所第１管区53号,玉縄五丁目１番地３付近,35.358921,139.518916,100,
玉縄出張所第１管区54号,玉縄四丁目３番地２７付近,35.358192,139.518481,100,
玉縄出張所第１管区55号,玉縄四丁目３番地７付近,35.357666,139.517491,100,
玉縄出張所第１管区56号,玉縄四丁目４番地４付近,35.357344,139.516402,100,
玉縄出張所第１管区57号,玉縄五丁目３４番地１８付近,35.358957,139.523216,100,
玉縄出張所第１管区58号,玉縄五丁目３５番地２付近,35.359409,139.523012,75,
玉縄出張所第１管区59号,玉縄二丁目４８４番地付近,35.356666,139.524434,100,
玉縄出張所第１管区60号,玉縄二丁目８番地７付近,35.356494,139.523199,100,
玉縄出張所第１管区61号,玉縄三丁目６０２番地７付近,35.352769,139.522242,100,
玉縄出張所第１管区62号,玉縄二丁目５０５番地付近,35.357085,139.5232,100,
玉縄出張所第１管区63号,玉縄三丁目６８２番地７付近,35.352557,139.521724,100,
玉縄出張所第１管区64号,玉縄四丁目２番地２付近,35.35719,139.518402,100,
玉縄出張所第１管区65号,玉縄二丁目２４番地４付近,35.358756,139.523743,100,
玉縄出張所第１管区66号,玉縄四丁目２５８番地３２付近,35.356408,139.518812,100,
玉縄出張所第１管区67号,玉縄二丁目４６９番地９付近,35.356244,139.525131,100,
玉縄出張所第１管区68号,玉縄二丁目４５７番地３付近,35.357246,139.524576,100,
玉縄出張所第２管区1号,岡本一丁目２４番８号付近,35.357457,139.528791,100,
玉縄出張所第２管区2号,岡本一丁目２１番２４号付近,35.356563,139.530043,100,
玉縄出張所第２管区3号,岡本一丁目２１番２０号付近,35.356423,139.529641,150,
玉縄出張所第２管区4号,岡本一丁目２０番１０号付近,35.355487,139.529172,150,
玉縄出張所第２管区5号,岡本一丁目２１番１号付近,35.355616,139.529989,100,
玉縄出張所第２管区6号,岡本一丁目３番３０号付近,35.3548,139.529904,100,
玉縄出張所第２管区7号,岡本一丁目３番４１号付近,35.353898,139.529685,100,
玉縄出張所第２管区8号,岡本一丁目２番４号付近,35.353447,139.52947,150,
玉縄出張所第２管区9号,岡本一丁目５番８号付近,35.35285,139.529266,150,
玉縄出張所第２管区10号,岡本二丁目５番１６号付近,35.35308,139.527545,100,
玉縄出張所第２管区11号,岡本一丁目６番１４号付近,35.353381,139.52731,150,
玉縄出張所第２管区12号,岡本一丁目６番３３号付近,35.353759,139.526583,100,
玉縄出張所第２管区13号,岡本一丁目７番１９号付近,35.354277,139.525345,100,
玉縄出張所第２管区14号,岡本二丁目５５番１９号付近,35.351731,139.529004,150,
玉縄出張所第２管区15号,岡本二丁目１番１９号付近,35.351546,139.528193,150,
玉縄出張所第２管区16号,岡本二丁目２番１号付近,35.350831,139.528113,200,
玉縄出張所第２管区17号,岡本二丁目１２番２号付近,35.350178,139.526742,300,
玉縄出張所第２管区18号,岡本二丁目７番１６号付近,35.350649,139.525914,100,
玉縄出張所第２管区19号,岡本二丁目１０番３号付近,35.350941,139.524799,100,
玉縄出張所第２管区20号,玉縄一丁目７番地２付近,35.351374,139.524756,100,
玉縄出張所第２管区21号,岡本二丁目１２番１１号付近,35.349927,139.526034,300,
玉縄出張所第２管区22号,岡本二丁目１１番１９号付近,35.350112,139.524682,300,
玉縄出張所第２管区23号,岡本二丁目１３番３３号付近,35.34943,139.525107,150,
玉縄出張所第２管区24号,岡本二丁目１９番５１号付近,35.348857,139.524157,150,
玉縄出張所第２管区25号,岡本二丁目１９番４２号付近,35.348292,139.523239,150,
玉縄出張所第２管区26号,岡本二丁目１９番１９号付近,35.347722,139.522482,300,
玉縄出張所第２管区27号,岡本二丁目２０番１８号付近,35.348376,139.521947,300,
玉縄出張所第２管区28号,岡本二丁目２１番２４号付近,35.349234,139.521176,300,
玉縄出張所第２管区29号,岡本二丁目２１番２６号付近,35.349342,139.52121,300,
玉縄出張所第２管区30号,岡本二丁目２１番３３号付近,35.349638,139.52208,300,
玉縄出張所第２管区31号,岡本二丁目１６番３３号付近,35.350046,139.523404,300,
玉縄出張所第２管区32号,岡本７４８番地付近,35.349634,139.519816,300,
玉縄出張所第２管区33号,岡本１３２０番地付近,35.344747,139.518312,100,
玉縄出張所第２管区34号,岡本１１８８番地４付近,35.348317,139.518005,400,
玉縄出張所第２管区35号,岡本１２４１番地付近,35.346116,139.515739,300,
玉縄出張所第２管区36号,岡本１３４３番地５付近,35.345811,139.516916,200,
玉縄出張所第２管区37号,岡本１２４１番地４付近,35.345283,139.51846,200,
玉縄出張所第２管区38号,岡本一丁目２４番２７号付近,35.358333,139.529524,150,
玉縄出張所第２管区39号,岡本一丁目２２番１２号付近,35.357331,139.52965,150,
玉縄出張所第２管区40号,岡本一丁目３番１１号付近,35.354553,139.529454,150,
玉縄出張所第２管区41号,岡本二丁目２番２９号付近,35.350843,139.527506,150,
玉縄出張所第２管区42号,岡本一丁目２４番１７号付近,35.358163,139.528772,100,
玉縄出張所第２管区43号,岡本一丁目２５番１９号付近,35.357032,139.52809,100,
玉縄出張所第２管区44号,岡本一丁目６番３号付近,35.35274,139.528339,150,
玉縄出張所第２管区45号,岡本一丁目１０番付近,35.354375,139.527142,100,
玉縄出張所第２管区46号,岡本１４５１番地１付近,35.344219,139.518088,100,
玉縄出張所第２管区47号,岡本１０６１番地付近,35.347697,139.519283,75,
玉縄出張所第２管区48号,岡本二丁目１８番１４号付近,35.349064,139.523188,100,
玉縄出張所第２管区49号,岡本二丁目１８番９号付近,35.349133,139.522493,100,
玉縄出張所第２管区50号,岡本一丁目１３番２５号付近,35.356641,139.526553,100,
玉縄出張所第２管区51号,岡本一丁目１１番２２号付近,35.355292,139.527318,100,
玉縄出張所第２管区52号,岡本一丁目１５番１７号付近,35.355881,139.526947,150,
玉縄出張所第２管区53号,岡本二丁目９番９号付近,35.350598,139.524359,100,
玉縄出張所第２管区54号,岡本１５００番地１２１付近,35.345018,139.517552,150,
玉縄出張所第２管区55号,岡本１５００番地５３付近,35.344486,139.51705,150,
玉縄出張所第２管区56号,岡本１５００番地１７付近,35.343835,139.516366,150,
玉縄出張所第３管区1号,植木２３番地１付近,35.354506,139.517342,150,
玉縄出張所第３管区2号,植木１１５番地４６付近,35.35147,139.518619,100,
玉縄出張所第３管区3号,植木１２９番地付近,35.351455,139.518807,100,
玉縄出張所第３管区4号,植木７６番地１６付近,35.352249,139.51796,150,
玉縄出張所第３管区5号,植木１８３番地３付近,35.351266,139.517892,150,
玉縄出張所第３管区6号,植木１６９番地２付近,35.350379,139.517426,150,
玉縄出張所第３管区7号,植木２３３番地１２付近,35.349837,139.518446,150,
玉縄出張所第３管区8号,植木２３１番地１８付近,35.349714,139.517567,150,
玉縄出張所第３管区9号,植木５０１番地付近,35.350296,139.509402,200,
玉縄出張所第３管区10号,植木２６１番地１付近,35.349089,139.516391,150,
玉縄出張所第３管区11号,植木２９０番地付近,35.348879,139.515401,400,
玉縄出張所第３管区12号,植木５９８番地付近,35.34817,139.515064,150,
玉縄出張所第３管区13号,植木６２４番地付近,35.347734,139.515022,100,
玉縄出張所第３管区14号,植木６７６番地１付近,35.346979,139.51475,400,
玉縄出張所第３管区15号,植木６８３番地付近,35.346403,139.514879,100,
玉縄出張所第３管区16号,植木６９２番地付近,35.346762,139.513724,400,
玉縄出張所第３管区17号,植木７４２番地付近,35.346379,139.512532,400,
玉縄出張所第３管区18号,植木７５９番地１付近,35.345553,139.511021,400,
玉縄出張所第３管区19号,植木６２５番地付近,35.34789,139.514476,100,
玉縄出張所第３管区20号,植木６３９番地付近,35.348578,139.514062,100,
玉縄出張所第３管区21号,植木３５６番地２付近,35.349232,139.514561,200,
玉縄出張所第３管区22号,植木４４３番地付近,35.350015,139.512873,200,
玉縄出張所第３管区23号,植木５５８番地付近,35.34956,139.512442,100,
玉縄出張所第３管区24号,植木４８１番地付近,35.350794,139.511079,200,
玉縄出張所第３管区25号,植木４２５番地１９付近,35.350022,139.514454,150,
玉縄出張所第３管区26号,植木３９５番地２付近,35.350117,139.513856,75,
玉縄出張所第３管区27号,植木４４０番地付近,35.350601,139.513284,100,
玉縄出張所第３管区28号,植木３７０番地１付近,35.350837,139.513914,100,
玉縄出張所第３管区29号,植木３７７番地付近,35.351,139.514548,150,
玉縄出張所第３管区30号,植木４２２番地１付近,35.351554,139.513183,150,
玉縄出張所第３管区31号,植木２１７番地付近,35.350095,139.516353,100,
玉縄出張所第３管区32号,植木６９０番地付近,35.3466,139.513968,300,
玉縄出張所第３管区33号,植木７０７番地１付近,35.345998,139.512944,100,
玉縄出張所第３管区34号,植木６６０番地４付近,35.349244,139.513109,100,
玉縄出張所第３管区35号,植木２５５番地１０付近,35.349559,139.517066,150,
玉縄出張所第３管区36号,植木４２５番地１付近,35.351116,139.514547,100,
玉縄出張所第３管区37号,植木５３１番地２１付近,35.350402,139.512024,100,
玉縄出張所第３管区38号,植木６５３番地付近,35.348233,139.513209,100,
玉縄出張所第３管区39号,植木２１０番地３付近,35.352256,139.516079,100,
玉縄出張所第３管区40号,植木４７８番地１１付近,35.351271,139.510742,100,
玉縄出張所第４管区1号,城廻３２９番地付近,35.352612,139.51384,150,
玉縄出張所第４管区2号,城廻３３５番地付近,35.352302,139.512769,150,
玉縄出張所第４管区3号,城廻３９３番地３付近,35.353244,139.511024,100,
玉縄出張所第４管区4号,城廻３９４番地２２付近,35.352382,139.510365,100,
玉縄出張所第４管区5号,城廻６０番地付近,35.358119,139.512097,100,
玉縄出張所第４管区6号,城廻４８番地１付近,35.358422,139.513334,100,
玉縄出張所第４管区7号,城廻３５番地付近,35.357847,139.514712,100,
玉縄出張所第４管区8号,城廻３５番地付近,35.357039,139.515154,150,
玉縄出張所第４管区9号,城廻１００番地６２付近,35.356711,139.514538,150,
玉縄出張所第４管区10号,城廻１４０番地４付近,35.356283,139.515483,150,
玉縄出張所第４管区11号,城廻１４５番地１７付近,35.35535,139.515653,100,
玉縄出張所第４管区12号,城廻１４０番地３７付近,35.355027,139.515009,100,
玉縄出張所第４管区13号,城廻１００番地８１付近,35.355939,139.514556,150,
玉縄出張所第４管区14号,城廻１００番地５１付近,35.355862,139.513551,150,
玉縄出張所第４管区15号,城廻１００番地５７付近,35.356547,139.513685,150,
玉縄出張所第４管区16号,城廻１００番地１７付近,35.357331,139.513452,100,
玉縄出張所第４管区17号,城廻１００番地３付近,35.357093,139.512676,100,
玉縄出張所第４管区18号,城廻１００番地３７付近,35.356252,139.51277,150,
玉縄出張所第４管区19号,城廻１１９番地７付近,35.357234,139.512331,100,
玉縄出張所第４管区20号,城廻６００番地１付近,35.354647,139.508837,100,
玉縄出張所第４管区21号,城廻４６５番地１付近,35.357243,139.507714,100,
玉縄出張所第４管区22号,城廻５２３番地付近,35.358434,139.506883,200,
玉縄出張所第４管区23号,城廻８０１番地１付近,35.355775,139.503293,100,
玉縄出張所第４管区24号,城廻６６５番地付近,35.35453,139.509491,150,
玉縄出張所第４管区25号,城廻２８３番地２３付近,35.35448,139.510555,100,
玉縄出張所第４管区26号,城廻２８３番地７０付近,35.354286,139.511385,100,
玉縄出張所第４管区27号,城廻２８３番地４２付近,35.355031,139.510993,100,
玉縄出張所第４管区28号,城廻２８３番地８付近,35.355502,139.510062,100,
玉縄出張所第４管区29号,城廻２４５番地付近,35.356199,139.510176,100,
玉縄出張所第４管区30号,城廻６７２番地７付近,35.354544,139.508508,150,
玉縄出張所第４管区31号,城廻４４０番地１付近,35.354556,139.507433,150,
玉縄出張所第４管区32号,城廻４２３番地１０１付近,35.353832,139.507085,150,
玉縄出張所第４管区33号,城廻７００番地１４付近,35.353214,139.506654,150,
玉縄出張所第４管区34号,城廻４２３番地２９付近,35.353549,139.505758,150,
玉縄出張所第４管区35号,城廻４２３番地５付近,35.353924,139.506263,100,
玉縄出張所第４管区36号,城廻４２３番地付近,35.354397,139.505928,150,
玉縄出張所第４管区37号,城廻７７５番地８付近,35.355212,139.505474,200,
玉縄出張所第４管区38号,城廻８０４番地１３付近,35.354641,139.504939,100,
玉縄出張所第４管区39号,城廻４８７番地１４付近,35.354923,139.506194,100,
玉縄出張所第４管区40号,城廻４２３番地８１付近,35.35476,139.506806,100,
玉縄出張所第４管区41号,城廻４２３番地２１６付近,35.355333,139.506912,150,
玉縄出張所第４管区42号,城廻４８２番地３付近,35.355592,139.506278,100,
玉縄出張所第４管区43号,城廻４８２番地８付近,35.356008,139.506493,150,
玉縄出張所第４管区44号,城廻５００番地９５付近,35.357113,139.50649,150,
玉縄出張所第４管区45号,城廻５１１番地４付近,35.358014,139.506596,150,
玉縄出張所第４管区46号,城廻５０１番地５付近,35.35705,139.505718,100,
玉縄出張所第４管区47号,城廻５００番地８２付近,35.35648,139.505655,150,
玉縄出張所第４管区48号,城廻５００番地８６付近,35.355834,139.505623,100,
玉縄出張所第４管区49号,城廻４９１番地９付近,35.355916,139.505051,150,
玉縄出張所第４管区50号,城廻７９１番地２付近,35.355727,139.504261,100,
玉縄出張所第４管区51号,城廻３８２番地付近,35.353928,139.510375,100,
玉縄出張所第４管区52号,城廻６７７番地４付近,35.353947,139.508345,150,
玉縄出張所第４管区53号,城廻７００番地付近,35.352921,139.50769,150,
玉縄出張所第４管区54号,城廻７３５番地２付近,35.352345,139.507225,150,
玉縄出張所第４管区55号,城廻７４４番地１付近,35.352389,139.505492,150,
玉縄出張所第４管区56号,城廻３１１番地３付近,35.353965,139.511645,100,
玉縄出張所第４管区57号,城廻３１１番地１３付近,35.353519,139.512156,100,
玉縄出張所第４管区58号,城廻３５７番地８付近,35.353578,139.511612,100,
玉縄出張所第４管区59号,城廻５３４番地付近,35.358824,139.508171,200,
玉縄出張所第４管区60号,城廻８２番地付近,35.358239,139.510874,150,
玉縄出張所第４管区61号,城廻５９３番地付近,35.358258,139.509942,150,
玉縄出張所第４管区62号,城廻５８番地１付近,35.358321,139.512531,100,
玉縄出張所第４管区63号,城廻７８番地１付近,35.358184,139.511444,100,
玉縄出張所第４管区64号,城廻７５２番地１９付近,35.352995,139.505341,300,
玉縄出張所第４管区65号,城廻６６８番地５付近,35.354253,139.508972,150,
玉縄出張所第４管区66号,城廻６６８番地４付近,35.353384,139.509023,100,
玉縄出張所第４管区67号,城廻３９４番地１１付近,35.353229,139.510037,100,
玉縄出張所第４管区68号,城廻３９４番地付近,35.352582,139.509518,100,
玉縄出張所第４管区69号,城廻６８２番地３４付近,35.352971,139.509003,100,
玉縄出張所第４管区70号,城廻６８２番地３０付近,35.35261,139.508853,100,
玉縄出張所第４管区71号,城廻４１３番地２６付近,35.351998,139.509696,100,
玉縄出張所第４管区72号,城廻７２１番地８付近,35.351782,139.508176,100,
玉縄出張所第４管区73号,城廻７１９番地１３付近,35.352449,139.508462,100,
玉縄出張所第４管区74号,城廻６８２番地１０付近,35.352152,139.507687,100,
玉縄出張所第４管区75号,城廻７２０番地付近,35.351907,139.508906,100,
玉縄出張所第４管区76号,城廻６３６番地２８付近,35.35598,139.508112,100,
玉縄出張所第５管区1号,関谷１１３８番地付近,35.364788,139.502323,150,
玉縄出張所第５管区2号,関谷１１７５番地１付近,35.363853,139.50188,150,
玉縄出張所第５管区3号,関谷１７８１番地１付近,35.363091,139.501529,150,
玉縄出張所第５管区4号,関谷１４７４番地付近,35.361868,139.500948,150,
玉縄出張所第５管区5号,関谷１５２７番地付近,35.361262,139.500587,150,
玉縄出張所第５管区6号,関谷１５５９番地付近,35.360629,139.500194,150,
玉縄出張所第５管区7号,関谷１６７５番地付近,35.359442,139.499787,150,
玉縄出張所第５管区8号,関谷１７０１番地２付近,35.35857,139.499487,150,
玉縄出張所第５管区9号,関谷１６４１番地付近,35.357434,139.499423,150,
玉縄出張所第５管区10号,関谷１６４０番地付近,35.356811,139.499674,150,
玉縄出張所第５管区11号,関谷１５８１番地付近,35.356707,139.502976,150,
玉縄出張所第５管区12号,関谷１５７５番地付近,35.357244,139.50418,100,
玉縄出張所第５管区13号,関谷７４２番地１付近,35.359279,139.509371,200,
玉縄出張所第５管区14号,関谷７１４番地付近,35.360017,139.510657,200,
玉縄出張所第５管区15号,関谷６７６番地付近,35.361051,139.511816,150,
玉縄出張所第５管区16号,関谷９０３番地２付近,35.361607,139.511038,150,
玉縄出張所第５管区17号,関谷９０３番地１５付近,35.362258,139.51093,150,
玉縄出張所第５管区18号,関谷９３８番地付近,35.36293,139.510732,150,
玉縄出張所第５管区19号,関谷８９８番地付近,35.363568,139.51034,150,
玉縄出張所第５管区20号,関谷８９８番地１０６付近,35.364103,139.510019,100,
玉縄出張所第５管区21号,関谷８９８番地１０５付近,35.36404,139.51112,100,
玉縄出張所第５管区22号,関谷９３７番地１付近,35.363383,139.511553,100,
玉縄出張所第５管区23号,関谷８９８番地５５付近,35.362708,139.511766,100,
玉縄出張所第５管区24号,関谷６３３番地１５付近,35.362054,139.512035,100,
玉縄出張所第５管区25号,関谷６４４番地１付近,35.361777,139.512857,100,
玉縄出張所第５管区26号,関谷４２５番地付近,35.361035,139.515785,150,
玉縄出張所第５管区27号,関谷３１２番地８付近,35.360244,139.516843,100,
玉縄出張所第５管区28号,関谷３８６番地５付近,35.359232,139.516859,100,
玉縄出張所第５管区29号,関谷３６１番地１付近,35.360185,139.517488,100,
玉縄出張所第５管区30号,関谷３６６番地２２付近,35.359497,139.517803,100,
玉縄出張所第５管区31号,関谷３６６番地４付近,35.358818,139.518052,100,
玉縄出張所第５管区32号,関谷３５１番地２３付近,35.359483,139.518511,100,
玉縄出張所第５管区33号,関谷４０４番地２付近,35.359349,139.516597,100,
玉縄出張所第５管区34号,関谷３８７番地３２付近,35.358757,139.51625,100,
玉縄出張所第５管区35号,関谷３８７番地付近,35.358416,139.516826,100,
玉縄出張所第５管区36号,関谷１１２７番地付近,35.366067,139.501808,100,
玉縄出張所第５管区37号,関谷６５３番地１付近,35.360562,139.512347,150,
玉縄出張所第５管区38号,関谷４６６番地４付近,35.360311,139.513788,150,
玉縄出張所第５管区39号,関谷４２９番地付近,35.360663,139.51483,150,
玉縄出張所第５管区40号,関谷１３７１番地付近,35.357698,139.504991,200,
玉縄出張所第５管区41号,関谷１３６１番地付近,35.358151,139.506041,200,
玉縄出張所第５管区42号,関谷１５７１番地付近,35.358265,139.50364,100,
玉縄出張所第５管区43号,関谷１４０１番地８付近,35.35894,139.502656,100,
玉縄出張所第５管区44号,関谷７７０番地付近,35.359958,139.50552,100,
玉縄出張所第５管区45号,関谷７７７番地１付近,35.361041,139.506371,100,
玉縄出張所第５管区46号,関谷７９２番地付近,35.361323,139.508912,100,
玉縄出張所第５管区47号,関谷１１２５番地９付近,35.366077,139.502924,100,
玉縄出張所第５管区48号,関谷１４２５番地付近,35.36018,139.501803,100,
大船消防署第９管区1号,台一丁目１番６号付近,35.353918,139.530592,100,
大船消防署第９管区2号,台一丁目１番付近,35.352975,139.530182,150,
大船消防署第９管区3号,台一丁目２番１９号付近,35.352217,139.529912,100,
大船消防署第９管区4号,台一丁目２番２５号付近,35.35128,139.529491,150,
大船消防署第９管区5号,台一丁目３番９号付近,35.350347,139.528905,150,
大船消防署第９管区6号,台一丁目４番２号付近,35.34985,139.528233,300,
大船消防署第９管区7号,台一丁目５番１９号付近,35.35013,139.527838,150,
大船消防署第９管区8号,台一丁目５番８号付近,35.349625,139.527717,100,
大船消防署第９管区9号,台一丁目７番１６号付近,35.349721,139.526999,150,
大船消防署第９管区10号,台一丁目９番１０号付近,35.349155,139.525993,100,
大船消防署第９管区11号,台一丁目９番１８号付近,35.348978,139.526604,100,
大船消防署第９管区12号,台一丁目１１番１８号付近,35.348529,139.525834,100,
大船消防署第９管区13号,台一丁目１２番１０号付近,35.348632,139.525123,100,
大船消防署第９管区14号,台二丁目９番６号付近,35.348913,139.529016,200,
大船消防署第９管区15号,台二丁目２番６号付近,35.348216,139.529727,200,
大船消防署第９管区16号,台二丁目３番８号付近,35.347847,139.530411,200,
大船消防署第９管区17号,台二丁目６番４号付近,35.347563,139.530336,200,
大船消防署第９管区18号,台二丁目１０番２号付近,35.348789,139.528216,100,
大船消防署第９管区19号,台二丁目８番６号付近,35.348264,139.528889,150,
大船消防署第９管区20号,台二丁目１１番５号付近,35.348623,139.527651,100,
大船消防署第９管区21号,台二丁目１６番２８号付近,35.347598,139.528151,150,
大船消防署第９管区22号,台二丁目１５番４１号付近,35.346798,139.527545,150,
大船消防署第９管区23号,山崎９７８番地号付近,35.345996,139.527118,150,
大船消防署第９管区24号,台二丁目１５番８号付近,35.347006,139.528443,100,
大船消防署第９管区25号,台二丁目１７番１号付近,35.346996,139.529368,100,
大船消防署第９管区26号,台二丁目７番１号付近,35.347436,139.529828,150,
大船消防署第９管区27号,台二丁目７番４号付近,35.347211,139.530114,100,
大船消防署第９管区28号,台二丁目１８番１９付近,35.346442,139.529948,300,
大船消防署第９管区29号,台三丁目１番１４号付近,35.346858,139.531067,200,
大船消防署第９管区30号,台三丁目６番１４号付近,35.345494,139.532477,200,
大船消防署第９管区31号,台三丁目６番２３号付近,35.344775,139.533234,200,
大船消防署第９管区32号,台三丁目１０番１８号付近,35.344385,139.530567,150,
大船消防署第９管区33号,台三丁目３番２号付近,35.346097,139.531849,200,
大船消防署第９管区34号,台一丁目１３番２号付近,35.348082,139.52417,100,
大船消防署第９管区35号,台一丁目１３番３２号付近,35.347222,139.523062,100,
大船消防署第９管区36号,台一丁目１５番１９号付近,35.346828,139.522453,100,
大船消防署第９管区37号,台一丁目１５番４６号付近,35.345925,139.521345,100,
大船消防署第９管区38号,台二丁目１８番３号付近,35.346148,139.528764,300,
大船消防署第９管区39号,台三丁目１２番１号付近,35.344858,139.528878,100,
大船消防署第７管区1号,台１９８６番地付近,35.342863,139.541652,100,
大船消防署第７管区2号,台１９７４番地付近,35.342425,139.540863,100,
大船消防署第７管区3号,台１９６９番地付近,35.342444,139.540105,150,
大船消防署第７管区4号,小袋谷二丁目２１番９号付近,35.342143,139.538658,150,
大船消防署第７管区5号,台四丁目１５番９号付近,35.342018,139.531033,100,
大船消防署第７管区6号,台五丁目１３番１２号付近,35.341619,139.537258,250,
大船消防署第７管区7号,台五丁目８番２５号付近,35.34222,139.53639,200,
大船消防署第７管区8号,台五丁目８番１４号付近,35.342753,139.535532,200,
大船消防署第７管区9号,台五丁目３番１４号付近,35.343444,139.534653,200,
大船消防署第７管区10号,台五丁目２番２号付近,35.344157,139.533879,200,
大船消防署第７管区11号,台三丁目７番１５号付近,35.3437,139.533116,100,
大船消防署第７管区12号,台五丁目５番２号付近,35.343041,139.532369,250,
大船消防署第７管区13号,台五丁目５番２４号付近,35.34228,139.533089,150,
大船消防署第７管区14号,台五丁目７番１１号付近,35.3421,139.534263,75,
大船消防署第７管区15号,台四丁目１８番９号付近,35.340443,139.534326,150,
大船消防署第７管区16号,台四丁目１７番１１号付近,35.340928,139.533399,150,
大船消防署第７管区17号,台五丁目６番２０号付近,35.341658,139.532665,150,
大船消防署第７管区18号,台五丁目５番３６号付近,35.342723,139.531983,150,
大船消防署第７管区19号,台四丁目３番１７号付近,35.343462,139.531146,150,
大船消防署第７管区20号,台四丁目１番５号付近,35.344308,139.529158,100,
大船消防署第７管区21号,台四丁目４番２８号付近,35.343878,139.529593,150,
大船消防署第７管区22号,台四丁目４番１９号付近,35.343807,139.528735,300,
大船消防署第７管区23号,台四丁目４番５号付近,35.343016,139.52957,100,
大船消防署第７管区24号,台四丁目９番２２号付近,35.340816,139.531246,100,
大船消防署第７管区25号,台四丁目８番１８号付近,35.342035,139.530682,100,
大船消防署第７管区26号,台四丁目１３番１９号付近,35.341322,139.531393,100,
大船消防署第７管区27号,台四丁目１３番１１号付近,35.340792,139.5318,100,
大船消防署第７管区28号,台四丁目１３番２号付近,35.340262,139.532539,150,
大船消防署第７管区29号,台四丁目１２番２６号付近,35.34022,139.532056,100,
大船消防署第７管区30号,台四丁目１１番３９号付近,35.340193,139.531476,100,
大船消防署第７管区31号,台四丁目１８番１７号付近,35.340247,139.533853,150,
大船消防署第７管区32号,台四丁目２０番１９号付近,35.339634,139.534063,200,
大船消防署第７管区33号,台１６５６番地４号付近,35.339848,139.535146,150,
大船消防署第７管区34号,台１６４７番地付近,35.339141,139.536178,150,
大船消防署第７管区35号,台１８５５番地付近,35.338427,139.536056,100,
大船消防署第７管区36号,台１６１０番地付近,35.338498,139.537196,100,
大船消防署第７管区37号,台１６１２番地付近,35.338262,139.538018,100,
大船消防署第７管区38号,台１６２０番地付近,35.337758,139.539129,100,
大船消防署第７管区39号,台１７１７番地付近,35.337157,139.53907,100,
大船消防署第７管区40号,台１７３１番地付近,35.338039,139.54015,150,
大船消防署第７管区41号,台１４１９番地２号付近,35.338554,139.539566,150,
大船消防署第７管区42号,台１４２４番地付近,35.338977,139.538756,150,
大船消防署第７管区43号,台１４０４番地付近,35.339614,139.538888,100,
大船消防署第７管区44号,台１４３８番地付近,35.339344,139.538049,150,
大船消防署第７管区45号,台１４５２番地７号付近,35.339906,139.536962,150,
大船消防署第７管区46号,台五丁目１０番６号付近,35.340185,139.535571,150,
大船消防署第７管区47号,台五丁目１１番７号付近,35.340323,139.53624,150,
大船消防署第７管区48号,台１５４０番地付近,35.340776,139.537105,150,
大船消防署第７管区49号,台１５０１番地付近,35.340452,139.538836,250,
大船消防署第７管区50号,台１８８３番地付近,35.340953,139.539341,200,
大船消防署第７管区51号,台１９１７番地付近,35.341438,139.540297,100,
大船消防署第７管区52号,台四丁目７番１９号付近,35.34207,139.529799,100,
大船消防署第７管区53号,台五丁目１０番４５号付近,35.340209,139.535032,100,
大船消防署第７管区54号,台五丁目８番５３号付近,35.342178,139.535579,100,
大船消防署第７管区55号,台五丁目７番２２号付近,35.341673,139.53476,100,
大船消防署第７管区56号,台１６８０番地９号付近,35.338608,139.536317,100,
大船消防署第７管区57号,台四丁目８番７号付近,35.341303,139.530816,100,
大船消防署第７管区58号,台１９９３番地付近,35.343067,139.542798,100,
大船消防署第８管区1号,山崎９６８番地３付近,35.339943,139.523858,350,
大船消防署第８管区2号,山崎３５４番地２付近,35.344952,139.524236,200,
大船消防署第８管区3号,山崎２４０１番地付近,35.33818,139.533457,100,
大船消防署第８管区4号,山崎６１６番地６付近,35.3459251,139.5240634,300,
大船消防署第８管区5号,山崎５３６番地付近,35.344276,139.522703,100,
大船消防署第８管区6号,山崎１０６番地２付近,35.344288,139.521256,100,
大船消防署第８管区7号,台二丁目２０番４１号付近,35.345687,139.527172,400,
大船消防署第８管区8号,台二丁目２０番２２号付近,35.34444,139.52774,100,
大船消防署第８管区9号,山崎１０３４番地付近,35.344242,139.526922,150,
大船消防署第８管区10号,山崎６０４番地付近,35.345395,139.52574,100,
大船消防署第８管区11号,山崎５８５番地付近,35.345164,139.525123,100,
大船消防署第８管区12号,山崎７３５番地付近,35.344304,139.525146,150,
大船消防署第８管区13号,山崎６６２番地付近,35.34423,139.524187,150,
大船消防署第８管区14号,山崎５４４番地付近,35.344106,139.523362,150,
大船消防署第８管区15号,山崎２８２番地２付近,35.343448,139.522737,150,
大船消防署第８管区16号,山崎１０３０番地１付近,35.344371,139.526026,150,
大船消防署第８管区17号,山崎１１７０番地１付近,35.343011,139.525931,150,
大船消防署第８管区18号,山崎１１６７番地付近,35.343253,139.52681,100,
大船消防署第８管区19号,山崎１０９０番地５付近,35.343926,139.527922,350,
大船消防署第８管区20号,山崎７６０番地付近,35.341448,139.525346,150,
大船消防署第８管区21号,山崎９１９番地付近,35.338272,139.522735,150,
大船消防署第８管区22号,台四丁目５番５０号付近,35.342093,139.528981,200,
大船消防署第８管区23号,台四丁目５番３３号付近,35.341221,139.529534,200,
大船消防署第８管区24号,山崎１３９０番地３９付近,35.340465,139.529338,200,
大船消防署第８管区25号,山崎２２８９番地付近,35.339751,139.531051,200,
大船消防署第８管区26号,山崎２３０６番地付近,35.339406,139.531689,200,
大船消防署第８管区27号,山崎２５０７番地７付近,35.338862,139.532296,100,
大船消防署第８管区28号,山崎２５００番地付近,35.339183,139.533089,200,
大船消防署第８管区29号,山崎１８７９番地４付近,35.339096,139.533706,200,
大船消防署第８管区30号,山崎１５５９番地付近,35.338922,139.529412,100,
大船消防署第８管区31号,山崎１７９６番地１１付近,35.339241,139.529216,100,
大船消防署第８管区32号,山崎１３１６番地３付近,35.339754,139.528534,150,
大船消防署第８管区33号,山崎１５２６番地付近,35.339626,139.527302,100,
大船消防署第８管区34号,山崎１５２０番地付近,35.33888,139.52701,100,
大船消防署第８管区35号,山崎１４８２番地付近,35.33843,139.527679,100,
大船消防署第８管区36号,山崎１５０５番地３付近,35.337957,139.528086,100,
大船消防署第８管区37号,山崎１２９０番地付近,35.340036,139.526523,150,
大船消防署第８管区38号,山崎１２８４番地８付近,35.340612,139.52683,100,
大船消防署第８管区39号,山崎１２４５番地付近,35.340634,139.525808,150,
大船消防署第８管区40号,山崎８６２番地５付近,35.339457,139.526049,100,
大船消防署第８管区41号,山崎８６０番地付近,35.338448,139.525195,100,
大船消防署第８管区42号,山崎１００５番地９７付近,35.345002,139.5263,100,
大船消防署第８管区43号,山崎１００５番１１０付近,35.34466,139.526223,100,
大船消防署第８管区44号,山崎１３９０番地付近,35.342747,139.528754,200,
大船消防署第８管区45号,山崎１３９０番地付近,35.341232,139.528057,150,
大船消防署第８管区46号,山崎１３９０番地付近,35.3414108,139.5291022,150,
大船消防署第８管区47号,山崎１８２１番地付近,35.337929,139.529462,100,
大船消防署第８管区48号,山崎１４９５番地付近,35.337327,139.528769,100,
大船消防署第８管区49号,山崎６９２番地２付近,35.341563,139.522465,150,
大船消防署第８管区50号,山崎９６３番地１付近,35.339916,139.522978,150,
大船消防署第８管区51号,山崎１８１５番地１付近,35.337742,139.530077,100,
大船消防署第８管区52号,山崎１３９０番地３付近,35.340957,139.528734,100,
今泉出張所第１管区1号,岩瀬一丁目１５番２８号付近,35.353888,139.543445,300,
今泉出張所第１管区2号,岩瀬一丁目１６番１８号付近,35.354045,139.542773,300,
今泉出張所第１管区3号,岩瀬一丁目１７番５号付近,35.354358,139.541583,300,
今泉出張所第１管区4号,岩瀬一丁目１２番５号付近,35.3538,139.541371,150,
今泉出張所第１管区5号,岩瀬一丁目５番２３号付近,35.354752,139.540415,300,
今泉出張所第１管区6号,岩瀬一丁目１７番２０号付近,35.355329,139.541142,200,
今泉出張所第１管区7号,岩瀬一丁目１７番２８号付近,35.355118,139.542021,200,
今泉出張所第１管区8号,岩瀬一丁目２５番２０号付近,35.35605,139.542744,200,
今泉出張所第１管区9号,岩瀬一丁目２８番１０号付近,35.356851,139.543097,200,
今泉出張所第１管区10号,岩瀬一丁目３０番５号付近,35.3566,139.54231,100,
今泉出張所第１管区11号,岩瀬一丁目２７番７号付近,35.356805,139.542095,200,
今泉出張所第１管区12号,岩瀬一丁目１０番１号付近,35.356933,139.540435,200,
今泉出張所第１管区13号,岩瀬一丁目７番４号付近,35.355705,139.539029,200,
今泉出張所第１管区14号,岩瀬一丁目５番９号付近,35.355186,139.539317,200,
今泉出張所第１管区15号,岩瀬一丁目５番３６号付近,35.354688,139.539169,300,
今泉出張所第１管区16号,岩瀬一丁目４番１０付近,35.354806,139.538415,300,
今泉出張所第１管区17号,岩瀬一丁目１番３号付近,35.354876,139.537447,300,
今泉出張所第１管区18号,岩瀬一丁目１番３号付近,35.355469,139.53784,150,
今泉出張所第１管区19号,岩瀬一丁目１番３号付近,35.355395,139.537165,300,
今泉出張所第１管区20号,岩瀬１１６１番地付近,35.357809,139.543115,150,
今泉出張所第１管区21号,岩瀬１２０７番地付近,35.35894,139.543094,150,
今泉出張所第１管区22号,岩瀬１１３１番地１付近,35.359019,139.543617,150,
今泉出張所第１管区23号,岩瀬１２２０番地２付近,35.359587,139.544184,150,
今泉出張所第１管区24号,岩瀬９５５番地３付近,35.357114,139.544383,150,
今泉出張所第１管区25号,岩瀬９６１番地付近,35.357774,139.544649,150,
今泉出張所第１管区26号,岩瀬９７４番地付近,35.358779,139.545052,150,
今泉出張所第１管区27号,岩瀬１１１１番地付近,35.359963,139.545543,150,
今泉出張所第１管区28号,岩瀬１０７９番地付近,35.36009,139.547427,150,
今泉出張所第１管区29号,岩瀬１４２０番地付近,35.360709,139.545181,150,
今泉出張所第１管区30号,岩瀬１３９９番地付近,35.361279,139.546333,100,
今泉出張所第１管区31号,岩瀬１３６３番地付近,35.361352,139.545414,150,
今泉出張所第１管区32号,岩瀬１３６８番地３付近,35.362226,139.545639,100,
今泉出張所第１管区33号,岩瀬１２７４番地付近,35.362576,139.544113,100,
今泉出張所第１管区34号,岩瀬一丁目２６番１０号付近,35.356136,139.54143,100,
今泉出張所第１管区35号,岩瀬１０５６番地付近,35.356945,139.545353,100,
今泉出張所第１管区36号,岩瀬９３４番地付近,35.35793,139.545784,100,
今泉出張所第１管区37号,岩瀬９７４番地付近,35.358366,139.546158,150,
今泉出張所第１管区38号,岩瀬１３８０番地付近,35.361853,139.545994,150,
今泉出張所第１管区39号,岩瀬１３９４番地１付近,35.361576,139.54697,150,
今泉出張所第１管区40号,岩瀬一丁目５番２３号付近,35.35451,139.540625,200,
今泉出張所第１管区41号,岩瀬一丁目８番１１号付近,35.356677,139.539257,200,
今泉出張所第１管区42号,岩瀬一丁目３４番２１号付近,35.356597,139.545092,200,
今泉出張所第１管区43号,岩瀬一丁目３４番１９号付近,35.355811,139.545032,100,
今泉出張所第１管区44号,岩瀬一丁目２２番１５号付近,35.355867,139.543818,100,
今泉出張所第１管区45号,岩瀬一丁目２３番５号付近,35.355387,139.542711,100,
今泉出張所第１管区46号,岩瀬一丁目２３番２６号付近,35.355457,139.543231,100,
今泉出張所第１管区47号,岩瀬一丁目１８番１４号付近,35.354604,139.543381,100,
今泉出張所第１管区48号,岩瀬一丁目２５番８号付近,35.355746,139.541871,100,
今泉出張所第１管区49号,岩瀬１１７７番地５付近,35.35722,139.543751,100,
今泉出張所第１管区50号,岩瀬一丁目１１番７号付近,35.35561,139.540167,100,
今泉出張所第１管区51号,岩瀬一丁目１８番２５号付近,35.354575,139.542385,100,
今泉出張所第１管区52号,岩瀬一丁目３３番１１号付近,35.356418,139.543844,100,
今泉出張所第１管区53号,岩瀬一丁目７番２２号付近,35.355441,139.539504,100,
今泉出張所第１管区54号,岩瀬１２５７番地１付近,35.361094,139.54378,100,
今泉出張所第１管区55号,岩瀬一丁目１４番２０号付近,35.35327,139.543388,100,
今泉出張所第１管区56号,岩瀬一丁目２０番３０号付近,35.354706,139.544499,300,
今泉出張所第１管区57号,岩瀬一丁目１２番６２号付近,35.35336,139.542143,100,
今泉出張所第２管区1号,岩瀬８４０番地付近,35.347539,139.548957,150,
今泉出張所第２管区2号,岩瀬８６１番地付近,35.348015,139.549522,150,
今泉出張所第２管区3号,岩瀬８２４番地付近,35.34844,139.550552,150,
今泉出張所第２管区4号,岩瀬８１９番地６付近,35.349001,139.550756,100,
今泉出張所第２管区5号,岩瀬７９０番地付近,35.349988,139.550288,100,
今泉出張所第２管区6号,岩瀬１６４７番地２付近,35.350047,139.550752,150,
今泉出張所第２管区7号,岩瀬１６４２番地１付近,35.350603,139.54983,150,
今泉出張所第２管区8号,岩瀬７４４番地５付近,35.351328,139.549058,150,
今泉出張所第２管区9号,岩瀬７１９番地１付近,35.352167,139.548449,150,
今泉出張所第２管区10号,岩瀬１５６２番地付近,35.351884,139.549386,100,
今泉出張所第２管区11号,岩瀬６２９番地付近,35.353234,139.547778,150,
今泉出張所第２管区12号,岩瀬１５０１番地付近,35.353573,139.547127,200,
今泉出張所第２管区13号,岩瀬１４９３番地付近,35.354186,139.546651,200,
今泉出張所第２管区14号,岩瀬１７０９番地付近,35.354692,139.547537,100,
今泉出張所第２管区15号,岩瀬１４８３番地付近,35.355038,139.546139,200,
今泉出張所第２管区16号,岩瀬５１０番地付近,35.355928,139.545638,200,
今泉出張所第２管区17号,岩瀬８１１番地付近,35.349239,139.549945,150,
今泉出張所第２管区18号,岩瀬７７３番地付近,35.350013,139.549178,150,
今泉出張所第２管区19号,岩瀬７５１番地付近,35.350804,139.548045,200,
今泉出張所第２管区20号,岩瀬９０６番地６付近,35.349979,139.548178,100,
今泉出張所第２管区21号,岩瀬７１５番地３付近,35.351537,139.54759,200,
今泉出張所第２管区22号,岩瀬７１７番地付近,35.351975,139.548106,100,
今泉出張所第２管区23号,岩瀬６４０番地１付近,35.352306,139.546857,200,
今泉出張所第２管区24号,岩瀬６８１番地１付近,35.352626,139.546034,100,
今泉出張所第２管区25号,岩瀬６９４番地付近,35.352994,139.546166,300,
今泉出張所第２管区26号,岩瀬５６７番地付近,35.353445,139.545309,300,
今泉出張所第２管区27号,岩瀬５７４番地付近,35.353744,139.544261,300,
今泉出張所第２管区28号,岩瀬５６０番地付近,35.354485,139.544608,200,
今泉出張所第２管区29号,岩瀬５２５番地１付近,35.355499,139.545104,200,
今泉出張所第２管区30号,岩瀬１０７４番地付近,35.359351,139.547308,150,
今泉出張所第２管区31号,岩瀬１４５７番地付近,35.360274,139.548694,100,
今泉出張所第２管区32号,岩瀬６２４番地４付近,35.352981,139.546982,100,
今泉出張所第２管区33号,岩瀬１５２４番地付近,35.352378,139.5492,100,
今泉出張所第２管区34号,岩瀬５５３番地付近,35.354146,139.545934,100,
今泉出張所第２管区35号,岩瀬７２８番地付近,35.351372,139.547769,100,
今泉出張所第２管区36号,岩瀬７００番地４付近,35.352735,139.544481,100,
今泉出張所第２管区37号,岩瀬６８４番地付近,35.352129,139.545254,100,
今泉出張所第３管区1号,今泉一丁目９番１６号付近,35.349468,139.551624,150,
今泉出張所第３管区2号,今泉一丁目１番１０号付近,35.348644,139.551413,150,
今泉出張所第３管区3号,今泉一丁目２番１３号付近,35.348248,139.552085,150,
今泉出張所第３管区4号,今泉一丁目１５番９号付近,35.348173,139.553303,100,
今泉出張所第３管区5号,今泉一丁目３番６号付近,35.347828,139.552132,150,
今泉出張所第３管区6号,今泉三丁目１番７号付近,35.346862,139.552481,150,
今泉出張所第３管区7号,今泉三丁目３番１号付近,35.345647,139.553828,150,
今泉出張所第３管区8号,今泉三丁目４番８号付近,35.345341,139.554715,150,
今泉出張所第３管区9号,今泉三丁目６番２号付近,35.344889,139.555832,150,
今泉出張所第３管区10号,今泉三丁目１０番１２付近,35.344814,139.55711,150,
今泉出張所第３管区11号,今泉三丁目１１番１９号付近,35.344754,139.558437,100,
今泉出張所第３管区12号,今泉三丁目１７番３号付近,35.344243,139.559931,100,
今泉出張所第３管区13号,今泉三丁目１８番３号付近,35.344216,139.561244,100,
今泉出張所第３管区14号,今泉四丁目１番２５号付近,35.344189,139.562825,100,
今泉出張所第３管区15号,今泉四丁目１番１号付近,35.343742,139.564442,100,
今泉出張所第３管区16号,今泉三丁目２２番地付近,35.343149,139.562689,100,
今泉出張所第３管区17号,今泉台七丁目１番地付近,35.340784,139.563342,100,
今泉出張所第３管区18号,今泉台七丁目１番地付近,35.340073,139.563901,100,
今泉出張所第３管区19号,今泉台六丁目１５番１０号付近,35.33943,139.565164,150,
今泉出張所第３管区20号,今泉台六丁目１番１号付近,35.338961,139.564327,100,
今泉出張所第３管区21号,今泉台七丁目４番１０号付近,35.340537,139.56427,150,
今泉出張所第３管区22号,今泉台七丁目８番８号付近,35.341555,139.564743,150,
今泉出張所第３管区23号,今泉台七丁目９番９号付近,35.342352,139.564002,100,
今泉出張所第３管区24号,今泉台七丁目１１番９号付近,35.342058,139.565051,150,
今泉出張所第３管区25号,今泉台七丁目１１番２２号付近,35.3416,139.565795,150,
今泉出張所第３管区26号,今泉台七丁目５番１６号付近,35.34102,139.565983,150,
今泉出張所第３管区27号,今泉台七丁目５番２３号付近,35.340195,139.565423,150,
今泉出張所第３管区28号,今泉台七丁目７番３号付近,35.340812,139.565027,100,
今泉出張所第３管区29号,今泉台七丁目１３番１０号付近,35.340657,139.567197,150,
今泉出張所第３管区30号,今泉台七丁目１４番１１付近,35.340092,139.566803,100,
今泉出張所第３管区31号,今泉台七丁目２４番１３号付近,35.339565,139.567595,100,
今泉出張所第３管区32号,今泉台七丁目２５番９号付近,35.33993,139.568211,150,
今泉出張所第３管区33号,今泉台七丁目２３番１２号付近,35.339023,139.5675,150,
今泉出張所第３管区34号,今泉台七丁目１６番１０号付近,35.339574,139.566289,100,
今泉出張所第３管区35号,今泉台七丁目２１番付近,35.33911,139.566538,100,
今泉出張所第３管区36号,今泉台六丁目１６番付近,35.338453,139.566468,200,
今泉出張所第３管区37号,今泉台六丁目２４番７号付近,35.338478,139.567432,100,
今泉出張所第３管区38号,今泉台六丁目２６番１６号付近,35.337727,139.56798,100,
今泉出張所第３管区39号,今泉台六丁目２３番１４号付近,35.336913,139.567417,100,
今泉出張所第３管区40号,今泉台六丁目２１番７号付近,35.337665,139.567142,100,
今泉出張所第３管区41号,今泉台六丁目１９番８号付近,35.337777,139.566644,200,
今泉出張所第３管区42号,今泉台六丁目１８番１号付近,35.33698,139.566393,200,
今泉出張所第３管区43号,今泉台六丁目１４番２６号付近,35.338119,139.566121,100,
今泉出張所第３管区44号,今泉台六丁目１４番５付近,35.338467,139.565435,100,
今泉出張所第３管区45号,今泉台六丁目１２番１号付近,35.337811,139.56518,100,
今泉出張所第３管区46号,今泉台六丁目１０番２号付近,35.336978,139.565386,100,
今泉出張所第３管区47号,今泉台六丁目７番付近,35.336233,139.565371,100,
今泉出張所第３管区48号,今泉台六丁目６番６号付近,35.335859,139.564359,100,
今泉出張所第３管区49号,今泉台六丁目４番１号付近,35.336732,139.563912,200,
今泉出張所第３管区50号,今泉台六丁目１０番１３付近,35.337559,139.56413,150,
今泉出張所第３管区51号,今泉台六丁目１１番６号付近,35.338159,139.564178,150,
今泉出張所第３管区52号,今泉三丁目３番８号付近,35.346126,139.553132,150,
今泉出張所第３管区53号,今泉一丁目１２番２２号付近,35.350102,139.552278,100,
今泉出張所第３管区54号,今泉三丁目１５番１号付近,35.344042,139.559003,100,
今泉出張所第４管区1号,今泉二丁目８番１号付近,35.346366,139.551678,150,
今泉出張所第４管区2号,今泉二丁目１８番１８号付近,35.34499,139.552042,150,
今泉出張所第４管区3号,今泉二丁目１８番７号付近,35.34459,139.553085,150,
今泉出張所第４管区4号,今泉二丁目２０番５号付近,35.344283,139.554086,150,
今泉出張所第４管区5号,今泉二丁目２２番２号付近,35.34445,139.551886,150,
今泉出張所第４管区6号,今泉二丁目２４番１４号付近,35.343814,139.553012,100,
今泉出張所第４管区7号,今泉二丁目２５番７号付近,35.343326,139.553795,150,
今泉出張所第４管区8号,今泉二丁目２７番１０号付近,35.343313,139.552851,100,
今泉出張所第４管区9号,今泉二丁目２７番７号付近,35.343482,139.552225,100,
今泉出張所第４管区10号,今泉台一丁目９番５号付近,35.342859,139.553849,100,
今泉出張所第４管区11号,今泉二丁目３０番９号付近,35.343415,139.551174,150,
今泉出張所第４管区12号,今泉台一丁目３番４号付近,35.34282,139.551678,150,
今泉出張所第４管区13号,今泉台一丁目５番４号付近,35.342641,139.552547,100,
今泉出張所第４管区14号,今泉台一丁目２７番６号付近,35.341813,139.553672,100,
今泉出張所第４管区15号,今泉台一丁目２１番１６号付近,35.342162,139.554011,150,
今泉出張所第４管区16号,今泉台一丁目１０番９号付近,35.342383,139.554668,100,
今泉出張所第４管区17号,今泉台一丁目２１番６号付近,35.342007,139.554488,100,
今泉出張所第４管区18号,今泉台一丁目２５番１０号付近,35.341291,139.554759,150,
今泉出張所第４管区19号,今泉台一丁目２７番１号付近,35.341152,139.5539,150,
今泉出張所第４管区20号,今泉台一丁目２４番１４号付近,35.341805,139.555576,100,
今泉出張所第４管区21号,今泉台一丁目２２番１２号付近,35.342257,139.555184,100,
今泉出張所第４管区22号,今泉台一丁目２０番１１号付近,35.34238,139.555608,100,
今泉出張所第４管区23号,今泉台一丁目１７番５号付近,35.343008,139.555604,150,
今泉出張所第４管区24号,今泉台一丁目１５番１４号付近,35.3434,139.556759,100,
今泉出張所第４管区25号,今泉台一丁目１４番１号付近,35.343995,139.557398,150,
今泉出張所第４管区26号,今泉台二丁目５番６号付近,35.343135,139.557375,100,
今泉出張所第４管区27号,今泉台二丁目９番１０号付近,35.343145,139.558118,100,
今泉出張所第４管区28号,今泉台二丁目９番１８号付近,35.342038,139.55799,100,
今泉出張所第４管区29号,今泉台二丁目３番１２号付近,35.342014,139.557171,100,
今泉出張所第４管区30号,今泉台二丁目３番７号付近,35.342694,139.556558,100,
今泉出張所第４管区31号,今泉台二丁目１番５号付近,35.342214,139.556083,100,
今泉出張所第４管区32号,今泉台二丁目１番１号付近,35.341654,139.556436,100,
今泉出張所第４管区33号,今泉台二丁目１４番地付近,35.341443,139.557106,150,
今泉出張所第４管区34号,今泉台二丁目１５番５号付近,35.340897,139.558782,100,
今泉出張所第４管区35号,今泉台二丁目１６番７号付近,35.341376,139.559621,100,
今泉出張所第４管区36号,今泉台三丁目１７番１２号付近,35.340781,139.5581,150,
今泉出張所第４管区37号,今泉台三丁目１６番１７号付近,35.34029,139.558046,100,
今泉出張所第４管区38号,今泉台三丁目１４番１号付近,35.339644,139.558208,150,
今泉出張所第４管区39号,今泉台三丁目１２番１号付近,35.339453,139.557544,150,
今泉出張所第４管区40号,今泉台三丁目１２番１３号付近,35.339997,139.557273,100,
今泉出張所第４管区41号,今泉台三丁目１１番１号付近,35.340347,139.556501,150,
今泉出張所第４管区42号,今泉台三丁目１１番９号付近,35.340964,139.556311,100,
今泉出張所第４管区43号,今泉台三丁目７番１７号付近,35.340439,139.555775,100,
今泉出張所第４管区44号,今泉台三丁目６番１１号付近,35.340705,139.554986,150,
今泉出張所第４管区45号,今泉台三丁目７番１号付近,35.339919,139.555829,150,
今泉出張所第４管区46号,今泉台三丁目２番５号付近,35.339503,139.555419,100,
今泉出張所第４管区47号,今泉台三丁目２番１０号付近,35.339608,139.554622,100,
今泉出張所第４管区48号,今泉台三丁目３番１号付近,35.338947,139.555865,100,
今泉出張所第４管区49号,今泉台三丁目８番１号付近,35.339161,139.556594,150,
今泉出張所第４管区50号,今泉台四丁目２番１号付近,35.338204,139.557019,200,
今泉出張所第４管区51号,今泉台四丁目４番７号付近,35.337627,139.556753,150,
今泉出張所第４管区52号,今泉台四丁目７番４号付近,35.337416,139.557691,100,
今泉出張所第４管区53号,今泉台四丁目６番１号付近,35.337878,139.557809,200,
今泉出張所第４管区54号,今泉台四丁目１０番１号付近,35.337671,139.55829,200,
今泉出張所第４管区55号,今泉台四丁目１１番５号付近,35.338698,139.558274,150,
今泉出張所第４管区56号,今泉台四丁目２０番１３号付近,35.339962,139.559246,150,
今泉出張所第４管区57号,今泉台四丁目２０番１７号付近,35.339317,139.559417,200,
今泉出張所第４管区58号,今泉台四丁目２０番２号付近,35.33872,139.559315,150,
今泉出張所第４管区59号,今泉台四丁目１３番１９号付近,35.337925,139.559039,100,
今泉出張所第４管区60号,今泉台四丁目１４番１３号付近,35.337532,139.558622,200,
今泉出張所第４管区61号,今泉台四丁目１４番１号付近,35.337367,139.558887,150,
今泉出張所第４管区62号,今泉台四丁目１５番１号付近,35.336831,139.558107,150,
今泉出張所第４管区63号,今泉台四丁目１５番８号付近,35.336669,139.557022,100,
今泉出張所第４管区64号,今泉台四丁目１７番９号付近,35.336074,139.557356,100,
今泉出張所第４管区65号,今泉台四丁目２５番１２号付近,35.336041,139.558751,100,
今泉出張所第４管区66号,今泉台四丁目２３番６号付近,35.33658,139.559134,100,
今泉出張所第４管区67号,今泉台四丁目１９番２０号付近,35.337942,139.559457,200,
今泉出張所第４管区68号,今泉台四丁目２２番１６号付近,35.338068,139.559848,100,
今泉出張所第４管区69号,今泉台四丁目２７番８号付近,35.338742,139.56016,100,
今泉出張所第４管区70号,今泉台四丁目２８番１３付近,35.338207,139.560554,100,
今泉出張所第４管区71号,今泉台四丁目２９番１号付近,35.337761,139.560261,100,
今泉出張所第４管区72号,今泉台四丁目２６番２２号付近,35.33708,139.560005,100,
今泉出張所第４管区73号,今泉台五丁目２番９号付近,35.336793,139.560234,200,
今泉出張所第４管区74号,今泉台五丁目１０番８号付近,35.337785,139.561542,150,
今泉出張所第４管区75号,今泉台五丁目５番１号付近,35.336986,139.561428,100,
今泉出張所第４管区76号,今泉台五丁目２番１８号付近,35.336275,139.561714,200,
今泉出張所第４管区77号,今泉台五丁目９番１４号付近,35.336397,139.563331,200,
今泉出張所第４管区78号,今泉台五丁目１６番１号付近,35.337457,139.563523,100,
今泉出張所第４管区79号,今泉台五丁目１３番１号付近,35.337117,139.562827,100,
今泉出張所第４管区80号,今泉台五丁目１５番４号付近,35.337926,139.562683,150,
今泉出張所第４管区81号,今泉二丁目４番１号付近,35.347538,139.551511,100,
今泉出張所第４管区82号,今泉台二丁目１２番５号付近,35.341818,139.558908,100,
今泉出張所第４管区83号,今泉台一丁目７番５号付近,35.342613,139.553241,100,
深沢出張所第１管区103号,梶原一丁目１５番３７号付近,35.329667,139.523305,100,
深沢出張所第４管区88号,笛田二丁目３番４０号付近,35.328655,139.516187,100,
玉縄出張所第５管区49号,関谷３４０番地９付近,35.360285,139.518074,100,
深沢出張所第２管区57号,笛田一丁目４番４５号付近,35.331225,139.509478,100,
今泉出張所第４管区92号,今泉台一丁目５番９号付近,35.342047,139.552788,150,
大船消防署第４管区80号,大船二丁目１１番３号付近,35.349469,139.535837,100,
大船消防署第５管区47号,大船五丁目１番１号付近,35.351471,139.537664,200,
七里ガ浜出張所第３管区63号,稲村ガ崎三丁目５６１－２４付近,35.304464,139.519499,75,
深沢出張所第２管区58号,上町屋３２５番付近,35.341913,139.517762,400,
腰越出張所第１管区65号,腰越五丁目付近,35.312808,139.492092,100,
腰越出張所第４管区56号,腰越１５８８番地１４８付近,35.3172657,139.5086948,200,
腰越出張所第２管区37号,腰越一丁目９番２号付近,35.308365,139.497962,100,
玉縄出張所第４管区77号,城廻３２番地５付近,35.35845365,139.5151347,100,
玉縄出張所第５管区50号,関谷３８７番地１６７付近,35.35963989,139.514969,100,
玉縄出張所第５管区51号,関谷３８７番地１５７付近,35.36040811,139.5151938,100,
大船消防署第１管区11号,山ノ内６０７番地,35.3394551,139.5440315,100,
